<?xml version='1.0' encoding='UTF-8'?>
<gpx xmlns="http://www.topografix.com/GPX/1/1" version="1.1" creator="running-dashboard"><metadata><name>커플런 7.4km — 바랑가루→피어몬트 해안</name></metadata><trk><name>커플런 7.4km — 바랑가루→피어몬트 해안</name><trkseg><trkpt lon="151.201165" lat="-33.858482"><ele>5.0</ele></trkpt>
   <trkpt lon="151.201188" lat="-33.858482"><ele>5.0</ele></trkpt>
   <trkpt lon="151.201243" lat="-33.858465"><ele>5.25</ele></trkpt>
   <trkpt lon="151.201287" lat="-33.858431"><ele>5.5</ele></trkpt>
   <trkpt lon="151.201334" lat="-33.858377"><ele>6.0</ele></trkpt>
   <trkpt lon="151.201408" lat="-33.858330"><ele>6.25</ele></trkpt>
   <trkpt lon="151.201464" lat="-33.858324"><ele>6.5</ele></trkpt>
   <trkpt lon="151.201519" lat="-33.858326"><ele>6.5</ele></trkpt>
   <trkpt lon="151.201518" lat="-33.858355"><ele>6.5</ele></trkpt>
   <trkpt lon="151.201531" lat="-33.858355"><ele>6.5</ele></trkpt>
   <trkpt lon="151.201526" lat="-33.858576"><ele>5.5</ele></trkpt>
   <trkpt lon="151.201636" lat="-33.858541"><ele>5.75</ele></trkpt>
   <trkpt lon="151.201697" lat="-33.858530"><ele>6.25</ele></trkpt>
   <trkpt lon="151.201777" lat="-33.858527"><ele>7.25</ele></trkpt>
   <trkpt lon="151.201775" lat="-33.858579"><ele>7.0</ele></trkpt>
   <trkpt lon="151.201823" lat="-33.858588"><ele>7.25</ele></trkpt>
   <trkpt lon="151.201884" lat="-33.858609"><ele>8.0</ele></trkpt>
   <trkpt lon="151.201937" lat="-33.858635"><ele>8.25</ele></trkpt>
   <trkpt lon="151.201992" lat="-33.858699"><ele>8.5</ele></trkpt>
   <trkpt lon="151.202028" lat="-33.858755"><ele>8.25</ele></trkpt>
   <trkpt lon="151.202102" lat="-33.858816"><ele>8.5</ele></trkpt>
   <trkpt lon="151.202134" lat="-33.858853"><ele>8.5</ele></trkpt>
   <trkpt lon="151.202151" lat="-33.858877"><ele>8.5</ele></trkpt>
   <trkpt lon="151.202160" lat="-33.858909"><ele>8.25</ele></trkpt>
   <trkpt lon="151.202157" lat="-33.858992"><ele>7.5</ele></trkpt>
   <trkpt lon="151.202118" lat="-33.859066"><ele>6.5</ele></trkpt>
   <trkpt lon="151.202088" lat="-33.859093"><ele>6.0</ele></trkpt>
   <trkpt lon="151.202045" lat="-33.859114"><ele>5.5</ele></trkpt>
   <trkpt lon="151.202004" lat="-33.859143"><ele>5.0</ele></trkpt>
   <trkpt lon="151.201982" lat="-33.859169"><ele>4.75</ele></trkpt>
   <trkpt lon="151.201959" lat="-33.859227"><ele>4.75</ele></trkpt>
   <trkpt lon="151.201945" lat="-33.859319"><ele>4.5</ele></trkpt>
   <trkpt lon="151.201909" lat="-33.859376"><ele>4.5</ele></trkpt>
   <trkpt lon="151.201845" lat="-33.859430"><ele>4.25</ele></trkpt>
   <trkpt lon="151.201820" lat="-33.859442"><ele>4.0</ele></trkpt>
   <trkpt lon="151.201575" lat="-33.859496"><ele>3.0</ele></trkpt>
   <trkpt lon="151.201489" lat="-33.859512"><ele>3.0</ele></trkpt>
   <trkpt lon="151.200919" lat="-33.859620"><ele>2.0</ele></trkpt>
   <trkpt lon="151.200836" lat="-33.859636"><ele>2.0</ele></trkpt>
   <trkpt lon="151.200695" lat="-33.859681"><ele>1.25</ele></trkpt>
   <trkpt lon="151.200607" lat="-33.859744"><ele>1.0</ele></trkpt>
   <trkpt lon="151.200533" lat="-33.859824"><ele>1.0</ele></trkpt>
   <trkpt lon="151.200487" lat="-33.859924"><ele>1.0</ele></trkpt>
   <trkpt lon="151.200466" lat="-33.860032"><ele>1.25</ele></trkpt>
   <trkpt lon="151.200468" lat="-33.860132"><ele>1.75</ele></trkpt>
   <trkpt lon="151.200487" lat="-33.860314"><ele>3.0</ele></trkpt>
   <trkpt lon="151.200512" lat="-33.860549"><ele>2.75</ele></trkpt>
   <trkpt lon="151.200602" lat="-33.861402"><ele>2.0</ele></trkpt>
   <trkpt lon="151.200627" lat="-33.861648"><ele>1.75</ele></trkpt>
   <trkpt lon="151.200638" lat="-33.861713"><ele>1.75</ele></trkpt>
   <trkpt lon="151.200674" lat="-33.862091"><ele>1.5</ele></trkpt>
   <trkpt lon="151.200733" lat="-33.862586"><ele>1.0</ele></trkpt>
   <trkpt lon="151.200763" lat="-33.862921"><ele>0.75</ele></trkpt>
   <trkpt lon="151.200950" lat="-33.862997"><ele>0.5</ele></trkpt>
   <trkpt lon="151.201008" lat="-33.862989"><ele>0.75</ele></trkpt>
   <trkpt lon="151.201063" lat="-33.863009"><ele>1.0</ele></trkpt>
   <trkpt lon="151.201129" lat="-33.863045"><ele>1.25</ele></trkpt>
   <trkpt lon="151.201196" lat="-33.863109"><ele>1.5</ele></trkpt>
   <trkpt lon="151.201256" lat="-33.863212"><ele>2.0</ele></trkpt>
   <trkpt lon="151.201274" lat="-33.863268"><ele>2.0</ele></trkpt>
   <trkpt lon="151.201289" lat="-33.863405"><ele>2.25</ele></trkpt>
   <trkpt lon="151.201292" lat="-33.863468"><ele>2.25</ele></trkpt>
   <trkpt lon="151.201278" lat="-33.863543"><ele>2.25</ele></trkpt>
   <trkpt lon="151.201245" lat="-33.863622"><ele>2.25</ele></trkpt>
   <trkpt lon="151.201195" lat="-33.863702"><ele>2.0</ele></trkpt>
   <trkpt lon="151.201132" lat="-33.863782"><ele>1.75</ele></trkpt>
   <trkpt lon="151.201083" lat="-33.863807"><ele>1.5</ele></trkpt>
   <trkpt lon="151.201028" lat="-33.863815"><ele>1.5</ele></trkpt>
   <trkpt lon="151.201118" lat="-33.864632"><ele>2.5</ele></trkpt>
   <trkpt lon="151.201180" lat="-33.865207"><ele>3.25</ele></trkpt>
   <trkpt lon="151.201218" lat="-33.865519"><ele>3.75</ele></trkpt>
   <trkpt lon="151.201248" lat="-33.865800"><ele>4.0</ele></trkpt>
   <trkpt lon="151.201255" lat="-33.865863"><ele>4.25</ele></trkpt>
   <trkpt lon="151.201229" lat="-33.865865"><ele>4.25</ele></trkpt>
   <trkpt lon="151.201252" lat="-33.866089"><ele>4.5</ele></trkpt>
   <trkpt lon="151.201288" lat="-33.866432"><ele>5.0</ele></trkpt>
   <trkpt lon="151.201327" lat="-33.866807"><ele>5.5</ele></trkpt>
   <trkpt lon="151.201355" lat="-33.867076"><ele>5.75</ele></trkpt>
   <trkpt lon="151.201392" lat="-33.867387"><ele>6.25</ele></trkpt>
   <trkpt lon="151.201404" lat="-33.867507"><ele>6.25</ele></trkpt>
   <trkpt lon="151.201456" lat="-33.868039"><ele>6.5</ele></trkpt>
   <trkpt lon="151.201509" lat="-33.868483"><ele>6.5</ele></trkpt>
   <trkpt lon="151.201533" lat="-33.868694"><ele>4.75</ele></trkpt>
   <trkpt lon="151.201547" lat="-33.868867"><ele>3.5</ele></trkpt>
   <trkpt lon="151.201565" lat="-33.869020"><ele>2.25</ele></trkpt>
   <trkpt lon="151.201568" lat="-33.869066"><ele>1.75</ele></trkpt>
   <trkpt lon="151.201321" lat="-33.869642"><ele>2.75</ele></trkpt>
   <trkpt lon="151.201278" lat="-33.869743"><ele>3.0</ele></trkpt>
   <trkpt lon="151.201363" lat="-33.869894"><ele>3.5</ele></trkpt>
   <trkpt lon="151.202422" lat="-33.870235"><ele>7.25</ele></trkpt>
   <trkpt lon="151.202466" lat="-33.870308"><ele>8.0</ele></trkpt>
   <trkpt lon="151.202492" lat="-33.870381"><ele>9.0</ele></trkpt>
   <trkpt lon="151.202417" lat="-33.870776"><ele>13.0</ele></trkpt>
   <trkpt lon="151.202516" lat="-33.870792"><ele>13.75</ele></trkpt>
   <trkpt lon="151.202505" lat="-33.870837"><ele>14.0</ele></trkpt>
   <trkpt lon="151.202306" lat="-33.870803"><ele>13.25</ele></trkpt>
   <trkpt lon="151.202301" lat="-33.870802"><ele>13.0</ele></trkpt>
   <trkpt lon="151.202287" lat="-33.870859"><ele>12.75</ele></trkpt>
   <trkpt lon="151.202286" lat="-33.870865"><ele>12.75</ele></trkpt>
   <trkpt lon="151.202019" lat="-33.870819"><ele>12.75</ele></trkpt>
   <trkpt lon="151.201519" lat="-33.870734"><ele>12.5</ele></trkpt>
   <trkpt lon="151.201114" lat="-33.870665"><ele>12.25</ele></trkpt>
   <trkpt lon="151.200500" lat="-33.870560"><ele>12.0</ele></trkpt>
   <trkpt lon="151.200337" lat="-33.870532"><ele>12.0</ele></trkpt>
   <trkpt lon="151.199647" lat="-33.870415"><ele>11.5</ele></trkpt>
   <trkpt lon="151.198658" lat="-33.870246"><ele>11.25</ele></trkpt>
   <trkpt lon="151.198467" lat="-33.870204"><ele>11.25</ele></trkpt>
   <trkpt lon="151.198374" lat="-33.870173"><ele>11.75</ele></trkpt>
   <trkpt lon="151.198271" lat="-33.870136"><ele>12.25</ele></trkpt>
   <trkpt lon="151.198133" lat="-33.870070"><ele>12.75</ele></trkpt>
   <trkpt lon="151.198000" lat="-33.869984"><ele>12.75</ele></trkpt>
   <trkpt lon="151.198004" lat="-33.869919"><ele>12.5</ele></trkpt>
   <trkpt lon="151.197942" lat="-33.869910"><ele>13.0</ele></trkpt>
   <trkpt lon="151.197875" lat="-33.869902"><ele>13.25</ele></trkpt>
   <trkpt lon="151.197774" lat="-33.869887"><ele>13.75</ele></trkpt>
   <trkpt lon="151.197814" lat="-33.869653"><ele>12.75</ele></trkpt>
   <trkpt lon="151.197793" lat="-33.869634"><ele>12.75</ele></trkpt>
   <trkpt lon="151.197719" lat="-33.869565"><ele>12.75</ele></trkpt>
   <trkpt lon="151.197745" lat="-33.869534"><ele>12.5</ele></trkpt>
   <trkpt lon="151.197736" lat="-33.869527"><ele>12.5</ele></trkpt>
   <trkpt lon="151.197724" lat="-33.869517"><ele>12.5</ele></trkpt>
   <trkpt lon="151.197712" lat="-33.869506"><ele>12.5</ele></trkpt>
   <trkpt lon="151.197696" lat="-33.869486"><ele>12.5</ele></trkpt>
   <trkpt lon="151.197682" lat="-33.869470"><ele>12.5</ele></trkpt>
   <trkpt lon="151.197441" lat="-33.869222"><ele>10.5</ele></trkpt>
   <trkpt lon="151.197378" lat="-33.869162"><ele>10.25</ele></trkpt>
   <trkpt lon="151.197318" lat="-33.869108"><ele>9.75</ele></trkpt>
   <trkpt lon="151.197286" lat="-33.869092"><ele>9.5</ele></trkpt>
   <trkpt lon="151.197249" lat="-33.869015"><ele>9.25</ele></trkpt>
   <trkpt lon="151.197256" lat="-33.868966"><ele>8.75</ele></trkpt>
   <trkpt lon="151.197279" lat="-33.868825"><ele>9.0</ele></trkpt>
   <trkpt lon="151.197296" lat="-33.868752"><ele>8.5</ele></trkpt>
   <trkpt lon="151.196962" lat="-33.868647"><ele>7.5</ele></trkpt>
   <trkpt lon="151.196773" lat="-33.868566"><ele>6.75</ele></trkpt>
   <trkpt lon="151.196676" lat="-33.868517"><ele>6.5</ele></trkpt>
   <trkpt lon="151.196616" lat="-33.868512"><ele>7.5</ele></trkpt>
   <trkpt lon="151.196576" lat="-33.868519"><ele>8.25</ele></trkpt>
   <trkpt lon="151.196562" lat="-33.868489"><ele>8.25</ele></trkpt>
   <trkpt lon="151.196549" lat="-33.868479"><ele>8.5</ele></trkpt>
   <trkpt lon="151.196506" lat="-33.868451"><ele>9.0</ele></trkpt>
   <trkpt lon="151.196405" lat="-33.868387"><ele>10.5</ele></trkpt>
   <trkpt lon="151.196378" lat="-33.868366"><ele>11.0</ele></trkpt>
   <trkpt lon="151.196362" lat="-33.868355"><ele>11.0</ele></trkpt>
   <trkpt lon="151.196404" lat="-33.868315"><ele>10.25</ele></trkpt>
   <trkpt lon="151.196447" lat="-33.868274"><ele>9.25</ele></trkpt>
   <trkpt lon="151.196416" lat="-33.868251"><ele>9.5</ele></trkpt>
   <trkpt lon="151.196208" lat="-33.868060"><ele>11.5</ele></trkpt>
   <trkpt lon="151.196112" lat="-33.867958"><ele>12.0</ele></trkpt>
   <trkpt lon="151.196029" lat="-33.867850"><ele>12.25</ele></trkpt>
   <trkpt lon="151.195882" lat="-33.867613"><ele>11.5</ele></trkpt>
   <trkpt lon="151.195680" lat="-33.867286"><ele>12.5</ele></trkpt>
   <trkpt lon="151.195517" lat="-33.866993"><ele>13.25</ele></trkpt>
   <trkpt lon="151.195301" lat="-33.866614"><ele>12.0</ele></trkpt>
   <trkpt lon="151.195271" lat="-33.866576"><ele>12.0</ele></trkpt>
   <trkpt lon="151.195204" lat="-33.866522"><ele>11.75</ele></trkpt>
   <trkpt lon="151.195081" lat="-33.866468"><ele>11.75</ele></trkpt>
   <trkpt lon="151.195097" lat="-33.866425"><ele>11.25</ele></trkpt>
   <trkpt lon="151.195095" lat="-33.866403"><ele>11.25</ele></trkpt>
   <trkpt lon="151.195071" lat="-33.866363"><ele>10.75</ele></trkpt>
   <trkpt lon="151.195051" lat="-33.866348"><ele>10.75</ele></trkpt>
   <trkpt lon="151.195028" lat="-33.866338"><ele>10.75</ele></trkpt>
   <trkpt lon="151.194977" lat="-33.866333"><ele>10.75</ele></trkpt>
   <trkpt lon="151.194905" lat="-33.866316"><ele>11.0</ele></trkpt>
   <trkpt lon="151.194772" lat="-33.866268"><ele>11.0</ele></trkpt>
   <trkpt lon="151.194596" lat="-33.866164"><ele>11.25</ele></trkpt>
   <trkpt lon="151.194596" lat="-33.866163"><ele>11.25</ele></trkpt>
   <trkpt lon="151.194489" lat="-33.866072"><ele>11.25</ele></trkpt>
   <trkpt lon="151.194428" lat="-33.866011"><ele>11.0</ele></trkpt>
   <trkpt lon="151.194288" lat="-33.865829"><ele>11.0</ele></trkpt>
   <trkpt lon="151.193976" lat="-33.865265"><ele>12.0</ele></trkpt>
   <trkpt lon="151.193509" lat="-33.864438"><ele>9.25</ele></trkpt>
   <trkpt lon="151.193434" lat="-33.864469"><ele>10.5</ele></trkpt>
   <trkpt lon="151.193098" lat="-33.863854"><ele>4.5</ele></trkpt>
   <trkpt lon="151.193047" lat="-33.863789"><ele>4.25</ele></trkpt>
   <trkpt lon="151.192984" lat="-33.863737"><ele>4.25</ele></trkpt>
   <trkpt lon="151.192906" lat="-33.863699"><ele>4.25</ele></trkpt>
   <trkpt lon="151.192832" lat="-33.863677"><ele>4.5</ele></trkpt>
   <trkpt lon="151.192750" lat="-33.863674"><ele>5.0</ele></trkpt>
   <trkpt lon="151.192660" lat="-33.863682"><ele>5.5</ele></trkpt>
   <trkpt lon="151.192592" lat="-33.863700"><ele>6.0</ele></trkpt>
   <trkpt lon="151.192502" lat="-33.863735"><ele>5.75</ele></trkpt>
   <trkpt lon="151.192168" lat="-33.863905"><ele>5.75</ele></trkpt>
   <trkpt lon="151.192117" lat="-33.863944"><ele>5.75</ele></trkpt>
   <trkpt lon="151.192073" lat="-33.863994"><ele>5.75</ele></trkpt>
   <trkpt lon="151.192034" lat="-33.864052"><ele>5.75</ele></trkpt>
   <trkpt lon="151.191976" lat="-33.864033"><ele>5.75</ele></trkpt>
   <trkpt lon="151.191917" lat="-33.864008"><ele>5.75</ele></trkpt>
   <trkpt lon="151.191843" lat="-33.863899"><ele>5.75</ele></trkpt>
   <trkpt lon="151.191740" lat="-33.863763"><ele>5.75</ele></trkpt>
   <trkpt lon="151.191744" lat="-33.863759"><ele>5.75</ele></trkpt>
   <trkpt lon="151.191740" lat="-33.863763"><ele>5.75</ele></trkpt>
   <trkpt lon="151.191594" lat="-33.864019"><ele>5.75</ele></trkpt>
   <trkpt lon="151.191581" lat="-33.864053"><ele>5.75</ele></trkpt>
   <trkpt lon="151.191529" lat="-33.864139"><ele>5.75</ele></trkpt>
   <trkpt lon="151.191517" lat="-33.864181"><ele>5.5</ele></trkpt>
   <trkpt lon="151.191471" lat="-33.864241"><ele>5.75</ele></trkpt>
   <trkpt lon="151.191927" lat="-33.865327"><ele>10.75</ele></trkpt>
   <trkpt lon="151.191905" lat="-33.865342"><ele>10.75</ele></trkpt>
   <trkpt lon="151.191733" lat="-33.865451"><ele>9.75</ele></trkpt>
   <trkpt lon="151.191596" lat="-33.865493"><ele>9.5</ele></trkpt>
   <trkpt lon="151.191552" lat="-33.865502"><ele>9.75</ele></trkpt>
   <trkpt lon="151.191513" lat="-33.865513"><ele>10.0</ele></trkpt>
   <trkpt lon="151.191419" lat="-33.865542"><ele>10.25</ele></trkpt>
   <trkpt lon="151.190855" lat="-33.865707"><ele>13.0</ele></trkpt>
   <trkpt lon="151.190495" lat="-33.865624"><ele>11.25</ele></trkpt>
   <trkpt lon="151.190007" lat="-33.865481"><ele>9.5</ele></trkpt>
   <trkpt lon="151.189244" lat="-33.866082"><ele>6.0</ele></trkpt>
   <trkpt lon="151.189186" lat="-33.866106"><ele>5.5</ele></trkpt>
   <trkpt lon="151.189126" lat="-33.866065"><ele>4.75</ele></trkpt>
   <trkpt lon="151.189092" lat="-33.866011"><ele>4.25</ele></trkpt>
   <trkpt lon="151.189098" lat="-33.866005"><ele>4.25</ele></trkpt>
   <trkpt lon="151.189129" lat="-33.865967"><ele>3.75</ele></trkpt>
  <trkpt lat="-33.866005" lon="151.189098"><ele>4.25</ele></trkpt><trkpt lat="-33.866011" lon="151.189092"><ele>4.25</ele></trkpt><trkpt lat="-33.866065" lon="151.189126"><ele>4.75</ele></trkpt><trkpt lat="-33.866106" lon="151.189186"><ele>5.5</ele></trkpt><trkpt lat="-33.866082" lon="151.189244"><ele>6.0</ele></trkpt><trkpt lat="-33.865481" lon="151.190007"><ele>9.5</ele></trkpt><trkpt lat="-33.865624" lon="151.190495"><ele>11.25</ele></trkpt><trkpt lat="-33.865707" lon="151.190855"><ele>13.0</ele></trkpt><trkpt lat="-33.865542" lon="151.191419"><ele>10.25</ele></trkpt><trkpt lat="-33.865513" lon="151.191513"><ele>10.0</ele></trkpt><trkpt lat="-33.865502" lon="151.191552"><ele>9.75</ele></trkpt><trkpt lat="-33.865493" lon="151.191596"><ele>9.5</ele></trkpt><trkpt lat="-33.865451" lon="151.191733"><ele>9.75</ele></trkpt><trkpt lat="-33.865342" lon="151.191905"><ele>10.75</ele></trkpt><trkpt lat="-33.865327" lon="151.191927"><ele>10.75</ele></trkpt><trkpt lat="-33.864241" lon="151.191471"><ele>5.75</ele></trkpt><trkpt lat="-33.864181" lon="151.191517"><ele>5.5</ele></trkpt><trkpt lat="-33.864139" lon="151.191529"><ele>5.75</ele></trkpt><trkpt lat="-33.864053" lon="151.191581"><ele>5.75</ele></trkpt><trkpt lat="-33.864019" lon="151.191594"><ele>5.75</ele></trkpt><trkpt lat="-33.863763" lon="151.191740"><ele>5.75</ele></trkpt><trkpt lat="-33.863759" lon="151.191744"><ele>5.75</ele></trkpt><trkpt lat="-33.863763" lon="151.191740"><ele>5.75</ele></trkpt><trkpt lat="-33.863899" lon="151.191843"><ele>5.75</ele></trkpt><trkpt lat="-33.864008" lon="151.191917"><ele>5.75</ele></trkpt><trkpt lat="-33.864033" lon="151.191976"><ele>5.75</ele></trkpt><trkpt lat="-33.864052" lon="151.192034"><ele>5.75</ele></trkpt><trkpt lat="-33.863994" lon="151.192073"><ele>5.75</ele></trkpt><trkpt lat="-33.863944" lon="151.192117"><ele>5.75</ele></trkpt><trkpt lat="-33.863905" lon="151.192168"><ele>5.75</ele></trkpt><trkpt lat="-33.863735" lon="151.192502"><ele>5.75</ele></trkpt><trkpt lat="-33.863700" lon="151.192592"><ele>6.0</ele></trkpt><trkpt lat="-33.863682" lon="151.192660"><ele>5.5</ele></trkpt><trkpt lat="-33.863674" lon="151.192750"><ele>5.0</ele></trkpt><trkpt lat="-33.863677" lon="151.192832"><ele>4.5</ele></trkpt><trkpt lat="-33.863699" lon="151.192906"><ele>4.25</ele></trkpt><trkpt lat="-33.863737" lon="151.192984"><ele>4.25</ele></trkpt><trkpt lat="-33.863789" lon="151.193047"><ele>4.25</ele></trkpt><trkpt lat="-33.863854" lon="151.193098"><ele>4.5</ele></trkpt><trkpt lat="-33.864469" lon="151.193434"><ele>10.5</ele></trkpt><trkpt lat="-33.864438" lon="151.193509"><ele>9.25</ele></trkpt><trkpt lat="-33.865265" lon="151.193976"><ele>12.0</ele></trkpt><trkpt lat="-33.865829" lon="151.194288"><ele>11.0</ele></trkpt><trkpt lat="-33.866011" lon="151.194428"><ele>11.0</ele></trkpt><trkpt lat="-33.866072" lon="151.194489"><ele>11.25</ele></trkpt><trkpt lat="-33.866163" lon="151.194596"><ele>11.25</ele></trkpt><trkpt lat="-33.866164" lon="151.194596"><ele>11.25</ele></trkpt><trkpt lat="-33.866268" lon="151.194772"><ele>11.0</ele></trkpt><trkpt lat="-33.866316" lon="151.194905"><ele>11.0</ele></trkpt><trkpt lat="-33.866333" lon="151.194977"><ele>10.75</ele></trkpt><trkpt lat="-33.866338" lon="151.195028"><ele>10.75</ele></trkpt><trkpt lat="-33.866348" lon="151.195051"><ele>10.75</ele></trkpt><trkpt lat="-33.866363" lon="151.195071"><ele>10.75</ele></trkpt><trkpt lat="-33.866403" lon="151.195095"><ele>11.25</ele></trkpt><trkpt lat="-33.866425" lon="151.195097"><ele>11.25</ele></trkpt><trkpt lat="-33.866468" lon="151.195081"><ele>11.75</ele></trkpt><trkpt lat="-33.866522" lon="151.195204"><ele>11.75</ele></trkpt><trkpt lat="-33.866576" lon="151.195271"><ele>12.0</ele></trkpt><trkpt lat="-33.866614" lon="151.195301"><ele>12.0</ele></trkpt><trkpt lat="-33.866993" lon="151.195517"><ele>13.25</ele></trkpt><trkpt lat="-33.867286" lon="151.195680"><ele>12.5</ele></trkpt><trkpt lat="-33.867613" lon="151.195882"><ele>11.5</ele></trkpt><trkpt lat="-33.867850" lon="151.196029"><ele>12.25</ele></trkpt><trkpt lat="-33.867958" lon="151.196112"><ele>12.0</ele></trkpt><trkpt lat="-33.868060" lon="151.196208"><ele>11.5</ele></trkpt><trkpt lat="-33.868251" lon="151.196416"><ele>9.5</ele></trkpt><trkpt lat="-33.868274" lon="151.196447"><ele>9.25</ele></trkpt><trkpt lat="-33.868315" lon="151.196404"><ele>10.25</ele></trkpt><trkpt lat="-33.868355" lon="151.196362"><ele>11.0</ele></trkpt><trkpt lat="-33.868366" lon="151.196378"><ele>11.0</ele></trkpt><trkpt lat="-33.868387" lon="151.196405"><ele>10.5</ele></trkpt><trkpt lat="-33.868451" lon="151.196506"><ele>9.0</ele></trkpt><trkpt lat="-33.868479" lon="151.196549"><ele>8.5</ele></trkpt><trkpt lat="-33.868489" lon="151.196562"><ele>8.25</ele></trkpt><trkpt lat="-33.868519" lon="151.196576"><ele>8.25</ele></trkpt><trkpt lat="-33.868512" lon="151.196616"><ele>7.5</ele></trkpt><trkpt lat="-33.868517" lon="151.196676"><ele>6.5</ele></trkpt><trkpt lat="-33.868566" lon="151.196773"><ele>6.75</ele></trkpt><trkpt lat="-33.868647" lon="151.196962"><ele>7.5</ele></trkpt><trkpt lat="-33.868752" lon="151.197296"><ele>8.5</ele></trkpt><trkpt lat="-33.868825" lon="151.197279"><ele>9.0</ele></trkpt><trkpt lat="-33.868966" lon="151.197256"><ele>8.75</ele></trkpt><trkpt lat="-33.869015" lon="151.197249"><ele>9.25</ele></trkpt><trkpt lat="-33.869092" lon="151.197286"><ele>9.5</ele></trkpt><trkpt lat="-33.869108" lon="151.197318"><ele>9.75</ele></trkpt><trkpt lat="-33.869162" lon="151.197378"><ele>10.25</ele></trkpt><trkpt lat="-33.869222" lon="151.197441"><ele>10.5</ele></trkpt><trkpt lat="-33.869470" lon="151.197682"><ele>12.5</ele></trkpt><trkpt lat="-33.869486" lon="151.197696"><ele>12.5</ele></trkpt><trkpt lat="-33.869506" lon="151.197712"><ele>12.5</ele></trkpt><trkpt lat="-33.869517" lon="151.197724"><ele>12.5</ele></trkpt><trkpt lat="-33.869527" lon="151.197736"><ele>12.5</ele></trkpt><trkpt lat="-33.869534" lon="151.197745"><ele>12.5</ele></trkpt><trkpt lat="-33.869565" lon="151.197719"><ele>12.75</ele></trkpt><trkpt lat="-33.869634" lon="151.197793"><ele>12.75</ele></trkpt><trkpt lat="-33.869653" lon="151.197814"><ele>12.75</ele></trkpt><trkpt lat="-33.869887" lon="151.197774"><ele>13.75</ele></trkpt><trkpt lat="-33.869902" lon="151.197875"><ele>13.25</ele></trkpt><trkpt lat="-33.869910" lon="151.197942"><ele>13.0</ele></trkpt><trkpt lat="-33.869919" lon="151.198004"><ele>12.5</ele></trkpt><trkpt lat="-33.869984" lon="151.198000"><ele>12.75</ele></trkpt><trkpt lat="-33.870070" lon="151.198133"><ele>12.75</ele></trkpt><trkpt lat="-33.870136" lon="151.198271"><ele>12.25</ele></trkpt><trkpt lat="-33.870173" lon="151.198374"><ele>11.75</ele></trkpt><trkpt lat="-33.870204" lon="151.198467"><ele>11.25</ele></trkpt><trkpt lat="-33.870246" lon="151.198658"><ele>11.25</ele></trkpt><trkpt lat="-33.870415" lon="151.199647"><ele>11.5</ele></trkpt><trkpt lat="-33.870532" lon="151.200337"><ele>12.0</ele></trkpt><trkpt lat="-33.870560" lon="151.200500"><ele>12.0</ele></trkpt><trkpt lat="-33.870665" lon="151.201114"><ele>12.25</ele></trkpt><trkpt lat="-33.870734" lon="151.201519"><ele>12.5</ele></trkpt><trkpt lat="-33.870819" lon="151.202019"><ele>12.75</ele></trkpt><trkpt lat="-33.870865" lon="151.202286"><ele>12.75</ele></trkpt><trkpt lat="-33.870859" lon="151.202287"><ele>12.75</ele></trkpt><trkpt lat="-33.870802" lon="151.202301"><ele>13.0</ele></trkpt><trkpt lat="-33.870803" lon="151.202306"><ele>13.25</ele></trkpt><trkpt lat="-33.870837" lon="151.202505"><ele>14.0</ele></trkpt><trkpt lat="-33.870792" lon="151.202516"><ele>13.75</ele></trkpt><trkpt lat="-33.870776" lon="151.202417"><ele>13.0</ele></trkpt><trkpt lat="-33.870381" lon="151.202492"><ele>9.0</ele></trkpt><trkpt lat="-33.870308" lon="151.202466"><ele>8.0</ele></trkpt><trkpt lat="-33.870235" lon="151.202422"><ele>7.25</ele></trkpt><trkpt lat="-33.869894" lon="151.201363"><ele>3.5</ele></trkpt><trkpt lat="-33.869743" lon="151.201278"><ele>3.0</ele></trkpt><trkpt lat="-33.869642" lon="151.201321"><ele>2.75</ele></trkpt><trkpt lat="-33.869066" lon="151.201568"><ele>1.75</ele></trkpt><trkpt lat="-33.869020" lon="151.201565"><ele>2.25</ele></trkpt><trkpt lat="-33.868867" lon="151.201547"><ele>3.5</ele></trkpt><trkpt lat="-33.868694" lon="151.201533"><ele>4.75</ele></trkpt><trkpt lat="-33.868483" lon="151.201509"><ele>6.5</ele></trkpt><trkpt lat="-33.868039" lon="151.201456"><ele>6.5</ele></trkpt><trkpt lat="-33.867507" lon="151.201404"><ele>6.25</ele></trkpt><trkpt lat="-33.867387" lon="151.201392"><ele>6.25</ele></trkpt><trkpt lat="-33.867076" lon="151.201355"><ele>5.75</ele></trkpt><trkpt lat="-33.866807" lon="151.201327"><ele>5.5</ele></trkpt><trkpt lat="-33.866432" lon="151.201288"><ele>5.0</ele></trkpt><trkpt lat="-33.866089" lon="151.201252"><ele>4.5</ele></trkpt><trkpt lat="-33.865865" lon="151.201229"><ele>4.25</ele></trkpt><trkpt lat="-33.865863" lon="151.201255"><ele>4.25</ele></trkpt><trkpt lat="-33.865800" lon="151.201248"><ele>4.0</ele></trkpt><trkpt lat="-33.865519" lon="151.201218"><ele>3.75</ele></trkpt><trkpt lat="-33.865207" lon="151.201180"><ele>3.25</ele></trkpt><trkpt lat="-33.864632" lon="151.201118"><ele>2.5</ele></trkpt><trkpt lat="-33.863815" lon="151.201028"><ele>1.5</ele></trkpt><trkpt lat="-33.863807" lon="151.201083"><ele>1.5</ele></trkpt><trkpt lat="-33.863782" lon="151.201132"><ele>1.75</ele></trkpt><trkpt lat="-33.863702" lon="151.201195"><ele>2.0</ele></trkpt><trkpt lat="-33.863622" lon="151.201245"><ele>2.25</ele></trkpt><trkpt lat="-33.863543" lon="151.201278"><ele>2.25</ele></trkpt><trkpt lat="-33.863468" lon="151.201292"><ele>2.25</ele></trkpt><trkpt lat="-33.863405" lon="151.201289"><ele>2.25</ele></trkpt><trkpt lat="-33.863268" lon="151.201274"><ele>2.0</ele></trkpt><trkpt lat="-33.863212" lon="151.201256"><ele>2.0</ele></trkpt><trkpt lat="-33.863109" lon="151.201196"><ele>1.5</ele></trkpt><trkpt lat="-33.863045" lon="151.201129"><ele>1.25</ele></trkpt><trkpt lat="-33.863009" lon="151.201063"><ele>1.0</ele></trkpt><trkpt lat="-33.862989" lon="151.201008"><ele>0.75</ele></trkpt><trkpt lat="-33.862997" lon="151.200950"><ele>0.5</ele></trkpt><trkpt lat="-33.862921" lon="151.200763"><ele>0.75</ele></trkpt><trkpt lat="-33.862586" lon="151.200733"><ele>1.0</ele></trkpt><trkpt lat="-33.862091" lon="151.200674"><ele>1.5</ele></trkpt><trkpt lat="-33.861713" lon="151.200638"><ele>1.75</ele></trkpt><trkpt lat="-33.861648" lon="151.200627"><ele>1.75</ele></trkpt><trkpt lat="-33.861402" lon="151.200602"><ele>2.0</ele></trkpt><trkpt lat="-33.860549" lon="151.200512"><ele>2.75</ele></trkpt><trkpt lat="-33.860314" lon="151.200487"><ele>3.0</ele></trkpt><trkpt lat="-33.860132" lon="151.200468"><ele>1.75</ele></trkpt><trkpt lat="-33.860032" lon="151.200466"><ele>1.25</ele></trkpt><trkpt lat="-33.859924" lon="151.200487"><ele>1.0</ele></trkpt><trkpt lat="-33.859824" lon="151.200533"><ele>1.0</ele></trkpt><trkpt lat="-33.859744" lon="151.200607"><ele>1.0</ele></trkpt><trkpt lat="-33.859681" lon="151.200695"><ele>1.25</ele></trkpt><trkpt lat="-33.859636" lon="151.200836"><ele>2.0</ele></trkpt><trkpt lat="-33.859620" lon="151.200919"><ele>2.0</ele></trkpt><trkpt lat="-33.859512" lon="151.201489"><ele>3.0</ele></trkpt><trkpt lat="-33.859496" lon="151.201575"><ele>3.0</ele></trkpt><trkpt lat="-33.859442" lon="151.201820"><ele>4.0</ele></trkpt><trkpt lat="-33.859430" lon="151.201845"><ele>4.25</ele></trkpt><trkpt lat="-33.859376" lon="151.201909"><ele>4.5</ele></trkpt><trkpt lat="-33.859319" lon="151.201945"><ele>4.5</ele></trkpt><trkpt lat="-33.859227" lon="151.201959"><ele>4.75</ele></trkpt><trkpt lat="-33.859169" lon="151.201982"><ele>4.75</ele></trkpt><trkpt lat="-33.859143" lon="151.202004"><ele>5.0</ele></trkpt><trkpt lat="-33.859114" lon="151.202045"><ele>5.5</ele></trkpt><trkpt lat="-33.859093" lon="151.202088"><ele>6.0</ele></trkpt><trkpt lat="-33.859066" lon="151.202118"><ele>6.5</ele></trkpt><trkpt lat="-33.858992" lon="151.202157"><ele>7.5</ele></trkpt><trkpt lat="-33.858909" lon="151.202160"><ele>8.25</ele></trkpt><trkpt lat="-33.858877" lon="151.202151"><ele>8.5</ele></trkpt><trkpt lat="-33.858853" lon="151.202134"><ele>8.5</ele></trkpt><trkpt lat="-33.858816" lon="151.202102"><ele>8.5</ele></trkpt><trkpt lat="-33.858755" lon="151.202028"><ele>8.25</ele></trkpt><trkpt lat="-33.858699" lon="151.201992"><ele>8.5</ele></trkpt><trkpt lat="-33.858635" lon="151.201937"><ele>8.25</ele></trkpt><trkpt lat="-33.858609" lon="151.201884"><ele>8.0</ele></trkpt><trkpt lat="-33.858588" lon="151.201823"><ele>7.25</ele></trkpt><trkpt lat="-33.858579" lon="151.201775"><ele>7.0</ele></trkpt><trkpt lat="-33.858527" lon="151.201777"><ele>7.25</ele></trkpt><trkpt lat="-33.858530" lon="151.201697"><ele>6.25</ele></trkpt><trkpt lat="-33.858541" lon="151.201636"><ele>5.75</ele></trkpt><trkpt lat="-33.858576" lon="151.201526"><ele>5.5</ele></trkpt><trkpt lat="-33.858355" lon="151.201531"><ele>6.5</ele></trkpt><trkpt lat="-33.858355" lon="151.201518"><ele>6.5</ele></trkpt><trkpt lat="-33.858326" lon="151.201519"><ele>6.5</ele></trkpt><trkpt lat="-33.858324" lon="151.201464"><ele>6.5</ele></trkpt><trkpt lat="-33.858330" lon="151.201408"><ele>6.25</ele></trkpt><trkpt lat="-33.858377" lon="151.201334"><ele>6.0</ele></trkpt><trkpt lat="-33.858431" lon="151.201287"><ele>5.5</ele></trkpt><trkpt lat="-33.858465" lon="151.201243"><ele>5.25</ele></trkpt><trkpt lat="-33.858482" lon="151.201188"><ele>5.0</ele></trkpt><trkpt lat="-33.858482" lon="151.201165"><ele>5.0</ele></trkpt></trkseg></trk></gpx>