<?xml version='1.0' encoding='UTF-8'?>
<gpx xmlns="http://www.topografix.com/GPX/1/1" version="1.1" creator="running-dashboard"><metadata><name>커플런 8km — 바랑가루→달링하버→피어몬트 해안 왕복</name></metadata><trk><name>커플런 8km — 바랑가루→달링하버→피어몬트 해안 왕복</name><trkseg><trkpt lon="151.201165" lat="-33.858482"><ele>5.0</ele></trkpt>
   <trkpt lon="151.201188" lat="-33.858482"><ele>5.0</ele></trkpt>
   <trkpt lon="151.201243" lat="-33.858465"><ele>5.25</ele></trkpt>
   <trkpt lon="151.201287" lat="-33.858431"><ele>5.5</ele></trkpt>
   <trkpt lon="151.201334" lat="-33.858377"><ele>6.0</ele></trkpt>
   <trkpt lon="151.201408" lat="-33.858330"><ele>6.25</ele></trkpt>
   <trkpt lon="151.201464" lat="-33.858324"><ele>6.5</ele></trkpt>
   <trkpt lon="151.201519" lat="-33.858326"><ele>6.5</ele></trkpt>
   <trkpt lon="151.201518" lat="-33.858355"><ele>6.5</ele></trkpt>
   <trkpt lon="151.201531" lat="-33.858355"><ele>6.5</ele></trkpt>
   <trkpt lon="151.201526" lat="-33.858576"><ele>5.5</ele></trkpt>
   <trkpt lon="151.201636" lat="-33.858541"><ele>5.75</ele></trkpt>
   <trkpt lon="151.201697" lat="-33.858530"><ele>6.25</ele></trkpt>
   <trkpt lon="151.201777" lat="-33.858527"><ele>7.25</ele></trkpt>
   <trkpt lon="151.201775" lat="-33.858579"><ele>7.0</ele></trkpt>
   <trkpt lon="151.201823" lat="-33.858588"><ele>7.25</ele></trkpt>
   <trkpt lon="151.201884" lat="-33.858609"><ele>8.0</ele></trkpt>
   <trkpt lon="151.201937" lat="-33.858635"><ele>8.25</ele></trkpt>
   <trkpt lon="151.201992" lat="-33.858699"><ele>8.5</ele></trkpt>
   <trkpt lon="151.202028" lat="-33.858755"><ele>8.25</ele></trkpt>
   <trkpt lon="151.202102" lat="-33.858816"><ele>8.5</ele></trkpt>
   <trkpt lon="151.202134" lat="-33.858853"><ele>8.5</ele></trkpt>
   <trkpt lon="151.202151" lat="-33.858877"><ele>8.5</ele></trkpt>
   <trkpt lon="151.202160" lat="-33.858909"><ele>8.25</ele></trkpt>
   <trkpt lon="151.202157" lat="-33.858992"><ele>7.5</ele></trkpt>
   <trkpt lon="151.202118" lat="-33.859066"><ele>6.5</ele></trkpt>
   <trkpt lon="151.202088" lat="-33.859093"><ele>6.0</ele></trkpt>
   <trkpt lon="151.202045" lat="-33.859114"><ele>5.5</ele></trkpt>
   <trkpt lon="151.202004" lat="-33.859143"><ele>5.0</ele></trkpt>
   <trkpt lon="151.201982" lat="-33.859169"><ele>4.75</ele></trkpt>
   <trkpt lon="151.201959" lat="-33.859227"><ele>4.75</ele></trkpt>
   <trkpt lon="151.201945" lat="-33.859319"><ele>4.5</ele></trkpt>
   <trkpt lon="151.201909" lat="-33.859376"><ele>4.5</ele></trkpt>
   <trkpt lon="151.201845" lat="-33.859430"><ele>4.25</ele></trkpt>
   <trkpt lon="151.201820" lat="-33.859442"><ele>4.0</ele></trkpt>
   <trkpt lon="151.201575" lat="-33.859496"><ele>3.0</ele></trkpt>
   <trkpt lon="151.201489" lat="-33.859512"><ele>3.0</ele></trkpt>
   <trkpt lon="151.200919" lat="-33.859620"><ele>2.0</ele></trkpt>
   <trkpt lon="151.200836" lat="-33.859636"><ele>2.0</ele></trkpt>
   <trkpt lon="151.200695" lat="-33.859681"><ele>1.25</ele></trkpt>
   <trkpt lon="151.200607" lat="-33.859744"><ele>1.0</ele></trkpt>
   <trkpt lon="151.200533" lat="-33.859824"><ele>1.0</ele></trkpt>
   <trkpt lon="151.200487" lat="-33.859924"><ele>1.0</ele></trkpt>
   <trkpt lon="151.200466" lat="-33.860032"><ele>1.25</ele></trkpt>
   <trkpt lon="151.200468" lat="-33.860132"><ele>1.75</ele></trkpt>
   <trkpt lon="151.200487" lat="-33.860314"><ele>3.0</ele></trkpt>
   <trkpt lon="151.200512" lat="-33.860549"><ele>2.75</ele></trkpt>
   <trkpt lon="151.200602" lat="-33.861402"><ele>2.0</ele></trkpt>
   <trkpt lon="151.200627" lat="-33.861648"><ele>1.75</ele></trkpt>
   <trkpt lon="151.200638" lat="-33.861713"><ele>1.75</ele></trkpt>
   <trkpt lon="151.200639" lat="-33.861711"><ele>1.75</ele></trkpt>
   <trkpt lon="151.200638" lat="-33.861713"><ele>1.75</ele></trkpt>
   <trkpt lon="151.200674" lat="-33.862091"><ele>1.5</ele></trkpt>
   <trkpt lon="151.200733" lat="-33.862586"><ele>1.0</ele></trkpt>
   <trkpt lon="151.200763" lat="-33.862921"><ele>0.75</ele></trkpt>
   <trkpt lon="151.200950" lat="-33.862997"><ele>0.75</ele></trkpt>
   <trkpt lon="151.201008" lat="-33.862989"><ele>0.75</ele></trkpt>
   <trkpt lon="151.201063" lat="-33.863009"><ele>1.0</ele></trkpt>
   <trkpt lon="151.201129" lat="-33.863045"><ele>1.25</ele></trkpt>
   <trkpt lon="151.201196" lat="-33.863109"><ele>1.5</ele></trkpt>
   <trkpt lon="151.201256" lat="-33.863212"><ele>2.0</ele></trkpt>
   <trkpt lon="151.201274" lat="-33.863268"><ele>2.0</ele></trkpt>
   <trkpt lon="151.201289" lat="-33.863405"><ele>2.25</ele></trkpt>
   <trkpt lon="151.201292" lat="-33.863468"><ele>2.25</ele></trkpt>
   <trkpt lon="151.201278" lat="-33.863543"><ele>2.25</ele></trkpt>
   <trkpt lon="151.201245" lat="-33.863622"><ele>2.25</ele></trkpt>
   <trkpt lon="151.201195" lat="-33.863702"><ele>2.0</ele></trkpt>
   <trkpt lon="151.201132" lat="-33.863782"><ele>1.75</ele></trkpt>
   <trkpt lon="151.201083" lat="-33.863807"><ele>1.5</ele></trkpt>
   <trkpt lon="151.201028" lat="-33.863815"><ele>1.5</ele></trkpt>
   <trkpt lon="151.201118" lat="-33.864632"><ele>2.5</ele></trkpt>
   <trkpt lon="151.201180" lat="-33.865207"><ele>3.25</ele></trkpt>
   <trkpt lon="151.201218" lat="-33.865519"><ele>3.75</ele></trkpt>
   <trkpt lon="151.201248" lat="-33.865800"><ele>4.0</ele></trkpt>
   <trkpt lon="151.201255" lat="-33.865863"><ele>4.25</ele></trkpt>
   <trkpt lon="151.201259" lat="-33.865863"><ele>4.25</ele></trkpt>
   <trkpt lon="151.201255" lat="-33.865863"><ele>4.25</ele></trkpt>
   <trkpt lon="151.201229" lat="-33.865865"><ele>4.25</ele></trkpt>
   <trkpt lon="151.201252" lat="-33.866089"><ele>4.5</ele></trkpt>
   <trkpt lon="151.201288" lat="-33.866432"><ele>5.0</ele></trkpt>
   <trkpt lon="151.201327" lat="-33.866807"><ele>5.5</ele></trkpt>
   <trkpt lon="151.201355" lat="-33.867076"><ele>5.75</ele></trkpt>
   <trkpt lon="151.201392" lat="-33.867387"><ele>6.25</ele></trkpt>
   <trkpt lon="151.201404" lat="-33.867507"><ele>6.25</ele></trkpt>
   <trkpt lon="151.201456" lat="-33.868039"><ele>6.5</ele></trkpt>
   <trkpt lon="151.201509" lat="-33.868483"><ele>6.5</ele></trkpt>
   <trkpt lon="151.201533" lat="-33.868694"><ele>4.75</ele></trkpt>
   <trkpt lon="151.201547" lat="-33.868867"><ele>3.5</ele></trkpt>
   <trkpt lon="151.201565" lat="-33.869020"><ele>2.25</ele></trkpt>
   <trkpt lon="151.201568" lat="-33.869066"><ele>1.75</ele></trkpt>
   <trkpt lon="151.201321" lat="-33.869642"><ele>2.75</ele></trkpt>
   <trkpt lon="151.201278" lat="-33.869743"><ele>3.0</ele></trkpt>
   <trkpt lon="151.201363" lat="-33.869894"><ele>3.5</ele></trkpt>
   <trkpt lon="151.202422" lat="-33.870235"><ele>7.25</ele></trkpt>
   <trkpt lon="151.202466" lat="-33.870308"><ele>8.0</ele></trkpt>
   <trkpt lon="151.202492" lat="-33.870381"><ele>9.0</ele></trkpt>
   <trkpt lon="151.202417" lat="-33.870776"><ele>13.0</ele></trkpt>
   <trkpt lon="151.202272" lat="-33.870754"><ele>12.0</ele></trkpt>
   <trkpt lon="151.202253" lat="-33.870835"><ele>12.75</ele></trkpt>
   <trkpt lon="151.202252" lat="-33.870840"><ele>12.75</ele></trkpt>
   <trkpt lon="151.202245" lat="-33.870867"><ele>12.75</ele></trkpt>
   <trkpt lon="151.202244" lat="-33.870872"><ele>12.75</ele></trkpt>
   <trkpt lon="151.202232" lat="-33.870920"><ele>13.0</ele></trkpt>
   <trkpt lon="151.201875" lat="-33.872335"><ele>7.0</ele></trkpt>
   <trkpt lon="151.201854" lat="-33.872420"><ele>6.0</ele></trkpt>
   <trkpt lon="151.201750" lat="-33.872844"><ele>6.0</ele></trkpt>
   <trkpt lon="151.201728" lat="-33.872935"><ele>6.25</ele></trkpt>
   <trkpt lon="151.201695" lat="-33.873067"><ele>6.75</ele></trkpt>
   <trkpt lon="151.201648" lat="-33.873249"><ele>7.5</ele></trkpt>
   <trkpt lon="151.200969" lat="-33.873463"><ele>7.5</ele></trkpt>
   <trkpt lon="151.200761" lat="-33.873499"><ele>7.5</ele></trkpt>
   <trkpt lon="151.200234" lat="-33.873511"><ele>8.5</ele></trkpt>
   <trkpt lon="151.200364" lat="-33.873756"><ele>7.75</ele></trkpt>
   <trkpt lon="151.200529" lat="-33.874221"><ele>6.5</ele></trkpt>
   <trkpt lon="151.200539" lat="-33.874250"><ele>6.5</ele></trkpt>
   <trkpt lon="151.200605" lat="-33.874435"><ele>6.75</ele></trkpt>
   <trkpt lon="151.200544" lat="-33.874442"><ele>7.25</ele></trkpt>
   <trkpt lon="151.200553" lat="-33.874494"><ele>8.25</ele></trkpt>
   <trkpt lon="151.200544" lat="-33.874442"><ele>7.25</ele></trkpt>
   <trkpt lon="151.200605" lat="-33.874435"><ele>6.75</ele></trkpt>
   <trkpt lon="151.200539" lat="-33.874250"><ele>6.5</ele></trkpt>
   <trkpt lon="151.200529" lat="-33.874221"><ele>6.5</ele></trkpt>
   <trkpt lon="151.200364" lat="-33.873756"><ele>7.75</ele></trkpt>
   <trkpt lon="151.200234" lat="-33.873511"><ele>8.5</ele></trkpt>
   <trkpt lon="151.200761" lat="-33.873499"><ele>7.5</ele></trkpt>
   <trkpt lon="151.200969" lat="-33.873463"><ele>7.5</ele></trkpt>
   <trkpt lon="151.201648" lat="-33.873249"><ele>7.5</ele></trkpt>
   <trkpt lon="151.201695" lat="-33.873067"><ele>6.75</ele></trkpt>
   <trkpt lon="151.201728" lat="-33.872935"><ele>6.25</ele></trkpt>
   <trkpt lon="151.201750" lat="-33.872844"><ele>6.0</ele></trkpt>
   <trkpt lon="151.201854" lat="-33.872420"><ele>6.0</ele></trkpt>
   <trkpt lon="151.201875" lat="-33.872335"><ele>7.0</ele></trkpt>
   <trkpt lon="151.202232" lat="-33.870920"><ele>13.0</ele></trkpt>
   <trkpt lon="151.202244" lat="-33.870872"><ele>12.75</ele></trkpt>
   <trkpt lon="151.202194" lat="-33.870864"><ele>12.5</ele></trkpt>
   <trkpt lon="151.202144" lat="-33.870856"><ele>12.25</ele></trkpt>
   <trkpt lon="151.202148" lat="-33.870837"><ele>12.25</ele></trkpt>
   <trkpt lon="151.202287" lat="-33.870859"><ele>12.0</ele></trkpt>
   <trkpt lon="151.202286" lat="-33.870865"><ele>12.0</ele></trkpt>
   <trkpt lon="151.202019" lat="-33.870819"><ele>12.0</ele></trkpt>
   <trkpt lon="151.201519" lat="-33.870734"><ele>12.0</ele></trkpt>
   <trkpt lon="151.201114" lat="-33.870665"><ele>11.75</ele></trkpt>
   <trkpt lon="151.200500" lat="-33.870560"><ele>11.5</ele></trkpt>
   <trkpt lon="151.200337" lat="-33.870532"><ele>11.5</ele></trkpt>
   <trkpt lon="151.199647" lat="-33.870415"><ele>11.5</ele></trkpt>
   <trkpt lon="151.198658" lat="-33.870246"><ele>11.0</ele></trkpt>
   <trkpt lon="151.198467" lat="-33.870204"><ele>11.25</ele></trkpt>
   <trkpt lon="151.198374" lat="-33.870173"><ele>11.75</ele></trkpt>
   <trkpt lon="151.198271" lat="-33.870136"><ele>12.25</ele></trkpt>
   <trkpt lon="151.198133" lat="-33.870070"><ele>12.75</ele></trkpt>
   <trkpt lon="151.198000" lat="-33.869984"><ele>12.75</ele></trkpt>
   <trkpt lon="151.198004" lat="-33.869919"><ele>12.5</ele></trkpt>
   <trkpt lon="151.198008" lat="-33.869856"><ele>12.25</ele></trkpt>
   <trkpt lon="151.198028" lat="-33.869653"><ele>11.5</ele></trkpt>
   <trkpt lon="151.198015" lat="-33.869041"><ele>9.5</ele></trkpt>
   <trkpt lon="151.197995" lat="-33.868743"><ele>8.0</ele></trkpt>
   <trkpt lon="151.197929" lat="-33.868649"><ele>7.5</ele></trkpt>
   <trkpt lon="151.197936" lat="-33.868540"><ele>7.0</ele></trkpt>
   <trkpt lon="151.197922" lat="-33.868109"><ele>5.25</ele></trkpt>
   <trkpt lon="151.197580" lat="-33.868012"><ele>4.75</ele></trkpt>
   <trkpt lon="151.197240" lat="-33.867922"><ele>4.5</ele></trkpt>
   <trkpt lon="151.197580" lat="-33.868012"><ele>4.75</ele></trkpt>
   <trkpt lon="151.197344" lat="-33.868607"><ele>7.75</ele></trkpt>
   <trkpt lon="151.197323" lat="-33.868665"><ele>8.0</ele></trkpt>
   <trkpt lon="151.197089" lat="-33.868609"><ele>7.25</ele></trkpt>
   <trkpt lon="151.196860" lat="-33.868521"><ele>6.75</ele></trkpt>
   <trkpt lon="151.196738" lat="-33.868462"><ele>6.5</ele></trkpt>
   <trkpt lon="151.196606" lat="-33.868385"><ele>7.0</ele></trkpt>
   <trkpt lon="151.196605" lat="-33.868385"><ele>8.5</ele></trkpt>
   <trkpt lon="151.196502" lat="-33.868317"><ele>8.5</ele></trkpt>
   <trkpt lon="151.196447" lat="-33.868274"><ele>9.25</ele></trkpt>
   <trkpt lon="151.196416" lat="-33.868251"><ele>9.5</ele></trkpt>
   <trkpt lon="151.196208" lat="-33.868060"><ele>11.5</ele></trkpt>
   <trkpt lon="151.196112" lat="-33.867958"><ele>12.0</ele></trkpt>
   <trkpt lon="151.196029" lat="-33.867850"><ele>12.25</ele></trkpt>
   <trkpt lon="151.195882" lat="-33.867613"><ele>11.5</ele></trkpt>
   <trkpt lon="151.195680" lat="-33.867286"><ele>12.5</ele></trkpt>
   <trkpt lon="151.195517" lat="-33.866993"><ele>13.25</ele></trkpt>
   <trkpt lon="151.195516" lat="-33.866992"><ele>12.0</ele></trkpt>
   <trkpt lon="151.195301" lat="-33.866614"><ele>12.0</ele></trkpt>
   <trkpt lon="151.195271" lat="-33.866576"><ele>12.0</ele></trkpt>
   <trkpt lon="151.195204" lat="-33.866522"><ele>11.75</ele></trkpt>
   <trkpt lon="151.195081" lat="-33.866468"><ele>11.75</ele></trkpt>
   <trkpt lon="151.195097" lat="-33.866425"><ele>11.25</ele></trkpt>
   <trkpt lon="151.195095" lat="-33.866403"><ele>11.25</ele></trkpt>
   <trkpt lon="151.195071" lat="-33.866363"><ele>10.75</ele></trkpt>
   <trkpt lon="151.195051" lat="-33.866348"><ele>10.75</ele></trkpt>
   <trkpt lon="151.195028" lat="-33.866338"><ele>10.75</ele></trkpt>
   <trkpt lon="151.194977" lat="-33.866333"><ele>10.75</ele></trkpt>
   <trkpt lon="151.194905" lat="-33.866316"><ele>11.0</ele></trkpt>
   <trkpt lon="151.194772" lat="-33.866268"><ele>11.0</ele></trkpt>
   <trkpt lon="151.194596" lat="-33.866164"><ele>11.25</ele></trkpt>
   <trkpt lon="151.194596" lat="-33.866163"><ele>11.25</ele></trkpt>
   <trkpt lon="151.194489" lat="-33.866072"><ele>11.25</ele></trkpt>
   <trkpt lon="151.194428" lat="-33.866011"><ele>11.0</ele></trkpt>
   <trkpt lat="-33.866072" lon="151.194489"><ele>11.25</ele></trkpt><trkpt lat="-33.866163" lon="151.194596"><ele>11.25</ele></trkpt><trkpt lat="-33.866164" lon="151.194596"><ele>11.25</ele></trkpt><trkpt lat="-33.866268" lon="151.194772"><ele>11.0</ele></trkpt><trkpt lat="-33.866316" lon="151.194905"><ele>11.0</ele></trkpt><trkpt lat="-33.866333" lon="151.194977"><ele>10.75</ele></trkpt><trkpt lat="-33.866338" lon="151.195028"><ele>10.75</ele></trkpt><trkpt lat="-33.866348" lon="151.195051"><ele>10.75</ele></trkpt><trkpt lat="-33.866363" lon="151.195071"><ele>10.75</ele></trkpt><trkpt lat="-33.866403" lon="151.195095"><ele>11.25</ele></trkpt><trkpt lat="-33.866425" lon="151.195097"><ele>11.25</ele></trkpt><trkpt lat="-33.866468" lon="151.195081"><ele>11.75</ele></trkpt><trkpt lat="-33.866522" lon="151.195204"><ele>11.75</ele></trkpt><trkpt lat="-33.866576" lon="151.195271"><ele>12.0</ele></trkpt><trkpt lat="-33.866614" lon="151.195301"><ele>12.0</ele></trkpt><trkpt lat="-33.866992" lon="151.195516"><ele>12.0</ele></trkpt><trkpt lat="-33.866993" lon="151.195517"><ele>13.25</ele></trkpt><trkpt lat="-33.867286" lon="151.195680"><ele>12.5</ele></trkpt><trkpt lat="-33.867613" lon="151.195882"><ele>11.5</ele></trkpt><trkpt lat="-33.867850" lon="151.196029"><ele>12.25</ele></trkpt><trkpt lat="-33.867958" lon="151.196112"><ele>12.0</ele></trkpt><trkpt lat="-33.868060" lon="151.196208"><ele>11.5</ele></trkpt><trkpt lat="-33.868251" lon="151.196416"><ele>9.5</ele></trkpt><trkpt lat="-33.868274" lon="151.196447"><ele>9.25</ele></trkpt><trkpt lat="-33.868317" lon="151.196502"><ele>8.5</ele></trkpt><trkpt lat="-33.868385" lon="151.196605"><ele>8.5</ele></trkpt><trkpt lat="-33.868385" lon="151.196606"><ele>7.0</ele></trkpt><trkpt lat="-33.868462" lon="151.196738"><ele>6.5</ele></trkpt><trkpt lat="-33.868521" lon="151.196860"><ele>6.75</ele></trkpt><trkpt lat="-33.868609" lon="151.197089"><ele>7.25</ele></trkpt><trkpt lat="-33.868665" lon="151.197323"><ele>8.0</ele></trkpt><trkpt lat="-33.868607" lon="151.197344"><ele>7.75</ele></trkpt><trkpt lat="-33.868012" lon="151.197580"><ele>4.75</ele></trkpt><trkpt lat="-33.867922" lon="151.197240"><ele>4.5</ele></trkpt><trkpt lat="-33.868012" lon="151.197580"><ele>4.75</ele></trkpt><trkpt lat="-33.868109" lon="151.197922"><ele>5.25</ele></trkpt><trkpt lat="-33.868540" lon="151.197936"><ele>7.0</ele></trkpt><trkpt lat="-33.868649" lon="151.197929"><ele>7.5</ele></trkpt><trkpt lat="-33.868743" lon="151.197995"><ele>8.0</ele></trkpt><trkpt lat="-33.869041" lon="151.198015"><ele>9.5</ele></trkpt><trkpt lat="-33.869653" lon="151.198028"><ele>11.5</ele></trkpt><trkpt lat="-33.869856" lon="151.198008"><ele>12.25</ele></trkpt><trkpt lat="-33.869919" lon="151.198004"><ele>12.5</ele></trkpt><trkpt lat="-33.869984" lon="151.198000"><ele>12.75</ele></trkpt><trkpt lat="-33.870070" lon="151.198133"><ele>12.75</ele></trkpt><trkpt lat="-33.870136" lon="151.198271"><ele>12.25</ele></trkpt><trkpt lat="-33.870173" lon="151.198374"><ele>11.75</ele></trkpt><trkpt lat="-33.870204" lon="151.198467"><ele>11.25</ele></trkpt><trkpt lat="-33.870246" lon="151.198658"><ele>11.0</ele></trkpt><trkpt lat="-33.870415" lon="151.199647"><ele>11.5</ele></trkpt><trkpt lat="-33.870532" lon="151.200337"><ele>11.5</ele></trkpt><trkpt lat="-33.870560" lon="151.200500"><ele>11.5</ele></trkpt><trkpt lat="-33.870665" lon="151.201114"><ele>11.75</ele></trkpt><trkpt lat="-33.870734" lon="151.201519"><ele>12.0</ele></trkpt><trkpt lat="-33.870819" lon="151.202019"><ele>12.0</ele></trkpt><trkpt lat="-33.870865" lon="151.202286"><ele>12.0</ele></trkpt><trkpt lat="-33.870859" lon="151.202287"><ele>12.0</ele></trkpt><trkpt lat="-33.870837" lon="151.202148"><ele>12.25</ele></trkpt><trkpt lat="-33.870856" lon="151.202144"><ele>12.25</ele></trkpt><trkpt lat="-33.870864" lon="151.202194"><ele>12.5</ele></trkpt><trkpt lat="-33.870872" lon="151.202244"><ele>12.75</ele></trkpt><trkpt lat="-33.870920" lon="151.202232"><ele>13.0</ele></trkpt><trkpt lat="-33.872335" lon="151.201875"><ele>7.0</ele></trkpt><trkpt lat="-33.872420" lon="151.201854"><ele>6.0</ele></trkpt><trkpt lat="-33.872844" lon="151.201750"><ele>6.0</ele></trkpt><trkpt lat="-33.872935" lon="151.201728"><ele>6.25</ele></trkpt><trkpt lat="-33.873067" lon="151.201695"><ele>6.75</ele></trkpt><trkpt lat="-33.873249" lon="151.201648"><ele>7.5</ele></trkpt><trkpt lat="-33.873463" lon="151.200969"><ele>7.5</ele></trkpt><trkpt lat="-33.873499" lon="151.200761"><ele>7.5</ele></trkpt><trkpt lat="-33.873511" lon="151.200234"><ele>8.5</ele></trkpt><trkpt lat="-33.873756" lon="151.200364"><ele>7.75</ele></trkpt><trkpt lat="-33.874221" lon="151.200529"><ele>6.5</ele></trkpt><trkpt lat="-33.874250" lon="151.200539"><ele>6.5</ele></trkpt><trkpt lat="-33.874435" lon="151.200605"><ele>6.75</ele></trkpt><trkpt lat="-33.874442" lon="151.200544"><ele>7.25</ele></trkpt><trkpt lat="-33.874494" lon="151.200553"><ele>8.25</ele></trkpt><trkpt lat="-33.874442" lon="151.200544"><ele>7.25</ele></trkpt><trkpt lat="-33.874435" lon="151.200605"><ele>6.75</ele></trkpt><trkpt lat="-33.874250" lon="151.200539"><ele>6.5</ele></trkpt><trkpt lat="-33.874221" lon="151.200529"><ele>6.5</ele></trkpt><trkpt lat="-33.873756" lon="151.200364"><ele>7.75</ele></trkpt><trkpt lat="-33.873511" lon="151.200234"><ele>8.5</ele></trkpt><trkpt lat="-33.873499" lon="151.200761"><ele>7.5</ele></trkpt><trkpt lat="-33.873463" lon="151.200969"><ele>7.5</ele></trkpt><trkpt lat="-33.873249" lon="151.201648"><ele>7.5</ele></trkpt><trkpt lat="-33.873067" lon="151.201695"><ele>6.75</ele></trkpt><trkpt lat="-33.872935" lon="151.201728"><ele>6.25</ele></trkpt><trkpt lat="-33.872844" lon="151.201750"><ele>6.0</ele></trkpt><trkpt lat="-33.872420" lon="151.201854"><ele>6.0</ele></trkpt><trkpt lat="-33.872335" lon="151.201875"><ele>7.0</ele></trkpt><trkpt lat="-33.870920" lon="151.202232"><ele>13.0</ele></trkpt><trkpt lat="-33.870872" lon="151.202244"><ele>12.75</ele></trkpt><trkpt lat="-33.870867" lon="151.202245"><ele>12.75</ele></trkpt><trkpt lat="-33.870840" lon="151.202252"><ele>12.75</ele></trkpt><trkpt lat="-33.870835" lon="151.202253"><ele>12.75</ele></trkpt><trkpt lat="-33.870754" lon="151.202272"><ele>12.0</ele></trkpt><trkpt lat="-33.870776" lon="151.202417"><ele>13.0</ele></trkpt><trkpt lat="-33.870381" lon="151.202492"><ele>9.0</ele></trkpt><trkpt lat="-33.870308" lon="151.202466"><ele>8.0</ele></trkpt><trkpt lat="-33.870235" lon="151.202422"><ele>7.25</ele></trkpt><trkpt lat="-33.869894" lon="151.201363"><ele>3.5</ele></trkpt><trkpt lat="-33.869743" lon="151.201278"><ele>3.0</ele></trkpt><trkpt lat="-33.869642" lon="151.201321"><ele>2.75</ele></trkpt><trkpt lat="-33.869066" lon="151.201568"><ele>1.75</ele></trkpt><trkpt lat="-33.869020" lon="151.201565"><ele>2.25</ele></trkpt><trkpt lat="-33.868867" lon="151.201547"><ele>3.5</ele></trkpt><trkpt lat="-33.868694" lon="151.201533"><ele>4.75</ele></trkpt><trkpt lat="-33.868483" lon="151.201509"><ele>6.5</ele></trkpt><trkpt lat="-33.868039" lon="151.201456"><ele>6.5</ele></trkpt><trkpt lat="-33.867507" lon="151.201404"><ele>6.25</ele></trkpt><trkpt lat="-33.867387" lon="151.201392"><ele>6.25</ele></trkpt><trkpt lat="-33.867076" lon="151.201355"><ele>5.75</ele></trkpt><trkpt lat="-33.866807" lon="151.201327"><ele>5.5</ele></trkpt><trkpt lat="-33.866432" lon="151.201288"><ele>5.0</ele></trkpt><trkpt lat="-33.866089" lon="151.201252"><ele>4.5</ele></trkpt><trkpt lat="-33.865865" lon="151.201229"><ele>4.25</ele></trkpt><trkpt lat="-33.865863" lon="151.201255"><ele>4.25</ele></trkpt><trkpt lat="-33.865863" lon="151.201259"><ele>4.25</ele></trkpt><trkpt lat="-33.865863" lon="151.201255"><ele>4.25</ele></trkpt><trkpt lat="-33.865800" lon="151.201248"><ele>4.0</ele></trkpt><trkpt lat="-33.865519" lon="151.201218"><ele>3.75</ele></trkpt><trkpt lat="-33.865207" lon="151.201180"><ele>3.25</ele></trkpt><trkpt lat="-33.864632" lon="151.201118"><ele>2.5</ele></trkpt><trkpt lat="-33.863815" lon="151.201028"><ele>1.5</ele></trkpt><trkpt lat="-33.863807" lon="151.201083"><ele>1.5</ele></trkpt><trkpt lat="-33.863782" lon="151.201132"><ele>1.75</ele></trkpt><trkpt lat="-33.863702" lon="151.201195"><ele>2.0</ele></trkpt><trkpt lat="-33.863622" lon="151.201245"><ele>2.25</ele></trkpt><trkpt lat="-33.863543" lon="151.201278"><ele>2.25</ele></trkpt><trkpt lat="-33.863468" lon="151.201292"><ele>2.25</ele></trkpt><trkpt lat="-33.863405" lon="151.201289"><ele>2.25</ele></trkpt><trkpt lat="-33.863268" lon="151.201274"><ele>2.0</ele></trkpt><trkpt lat="-33.863212" lon="151.201256"><ele>2.0</ele></trkpt><trkpt lat="-33.863109" lon="151.201196"><ele>1.5</ele></trkpt><trkpt lat="-33.863045" lon="151.201129"><ele>1.25</ele></trkpt><trkpt lat="-33.863009" lon="151.201063"><ele>1.0</ele></trkpt><trkpt lat="-33.862989" lon="151.201008"><ele>0.75</ele></trkpt><trkpt lat="-33.862997" lon="151.200950"><ele>0.75</ele></trkpt><trkpt lat="-33.862921" lon="151.200763"><ele>0.75</ele></trkpt><trkpt lat="-33.862586" lon="151.200733"><ele>1.0</ele></trkpt><trkpt lat="-33.862091" lon="151.200674"><ele>1.5</ele></trkpt><trkpt lat="-33.861713" lon="151.200638"><ele>1.75</ele></trkpt><trkpt lat="-33.861711" lon="151.200639"><ele>1.75</ele></trkpt><trkpt lat="-33.861713" lon="151.200638"><ele>1.75</ele></trkpt><trkpt lat="-33.861648" lon="151.200627"><ele>1.75</ele></trkpt><trkpt lat="-33.861402" lon="151.200602"><ele>2.0</ele></trkpt><trkpt lat="-33.860549" lon="151.200512"><ele>2.75</ele></trkpt><trkpt lat="-33.860314" lon="151.200487"><ele>3.0</ele></trkpt><trkpt lat="-33.860132" lon="151.200468"><ele>1.75</ele></trkpt><trkpt lat="-33.860032" lon="151.200466"><ele>1.25</ele></trkpt><trkpt lat="-33.859924" lon="151.200487"><ele>1.0</ele></trkpt><trkpt lat="-33.859824" lon="151.200533"><ele>1.0</ele></trkpt><trkpt lat="-33.859744" lon="151.200607"><ele>1.0</ele></trkpt><trkpt lat="-33.859681" lon="151.200695"><ele>1.25</ele></trkpt><trkpt lat="-33.859636" lon="151.200836"><ele>2.0</ele></trkpt><trkpt lat="-33.859620" lon="151.200919"><ele>2.0</ele></trkpt><trkpt lat="-33.859512" lon="151.201489"><ele>3.0</ele></trkpt><trkpt lat="-33.859496" lon="151.201575"><ele>3.0</ele></trkpt><trkpt lat="-33.859442" lon="151.201820"><ele>4.0</ele></trkpt><trkpt lat="-33.859430" lon="151.201845"><ele>4.25</ele></trkpt><trkpt lat="-33.859376" lon="151.201909"><ele>4.5</ele></trkpt><trkpt lat="-33.859319" lon="151.201945"><ele>4.5</ele></trkpt><trkpt lat="-33.859227" lon="151.201959"><ele>4.75</ele></trkpt><trkpt lat="-33.859169" lon="151.201982"><ele>4.75</ele></trkpt><trkpt lat="-33.859143" lon="151.202004"><ele>5.0</ele></trkpt><trkpt lat="-33.859114" lon="151.202045"><ele>5.5</ele></trkpt><trkpt lat="-33.859093" lon="151.202088"><ele>6.0</ele></trkpt><trkpt lat="-33.859066" lon="151.202118"><ele>6.5</ele></trkpt><trkpt lat="-33.858992" lon="151.202157"><ele>7.5</ele></trkpt><trkpt lat="-33.858909" lon="151.202160"><ele>8.25</ele></trkpt><trkpt lat="-33.858877" lon="151.202151"><ele>8.5</ele></trkpt><trkpt lat="-33.858853" lon="151.202134"><ele>8.5</ele></trkpt><trkpt lat="-33.858816" lon="151.202102"><ele>8.5</ele></trkpt><trkpt lat="-33.858755" lon="151.202028"><ele>8.25</ele></trkpt><trkpt lat="-33.858699" lon="151.201992"><ele>8.5</ele></trkpt><trkpt lat="-33.858635" lon="151.201937"><ele>8.25</ele></trkpt><trkpt lat="-33.858609" lon="151.201884"><ele>8.0</ele></trkpt><trkpt lat="-33.858588" lon="151.201823"><ele>7.25</ele></trkpt><trkpt lat="-33.858579" lon="151.201775"><ele>7.0</ele></trkpt><trkpt lat="-33.858527" lon="151.201777"><ele>7.25</ele></trkpt><trkpt lat="-33.858530" lon="151.201697"><ele>6.25</ele></trkpt><trkpt lat="-33.858541" lon="151.201636"><ele>5.75</ele></trkpt><trkpt lat="-33.858576" lon="151.201526"><ele>5.5</ele></trkpt><trkpt lat="-33.858355" lon="151.201531"><ele>6.5</ele></trkpt><trkpt lat="-33.858355" lon="151.201518"><ele>6.5</ele></trkpt><trkpt lat="-33.858326" lon="151.201519"><ele>6.5</ele></trkpt><trkpt lat="-33.858324" lon="151.201464"><ele>6.5</ele></trkpt><trkpt lat="-33.858330" lon="151.201408"><ele>6.25</ele></trkpt><trkpt lat="-33.858377" lon="151.201334"><ele>6.0</ele></trkpt><trkpt lat="-33.858431" lon="151.201287"><ele>5.5</ele></trkpt><trkpt lat="-33.858465" lon="151.201243"><ele>5.25</ele></trkpt><trkpt lat="-33.858482" lon="151.201188"><ele>5.0</ele></trkpt><trkpt lat="-33.858482" lon="151.201165"><ele>5.0</ele></trkpt></trkseg></trk></gpx>