<?xml version='1.0' encoding='UTF-8'?>
<gpx xmlns="http://www.topografix.com/GPX/1/1" version="1.1" creator="running-dashboard"><metadata><name>윤호 솔로 6.6km — 바랑가루→Dawes Pt→서큘러키</name></metadata><trk><name>윤호 솔로 6.6km — 바랑가루→Dawes Pt→서큘러키</name><trkseg><trkpt lon="151.201165" lat="-33.858482"><ele>5.0</ele></trkpt>
   <trkpt lon="151.201188" lat="-33.858482"><ele>5.0</ele></trkpt>
   <trkpt lon="151.201243" lat="-33.858465"><ele>5.25</ele></trkpt>
   <trkpt lon="151.201287" lat="-33.858431"><ele>5.5</ele></trkpt>
   <trkpt lon="151.201334" lat="-33.858377"><ele>6.0</ele></trkpt>
   <trkpt lon="151.201408" lat="-33.858330"><ele>6.25</ele></trkpt>
   <trkpt lon="151.201464" lat="-33.858324"><ele>6.5</ele></trkpt>
   <trkpt lon="151.201519" lat="-33.858326"><ele>6.5</ele></trkpt>
   <trkpt lon="151.201518" lat="-33.858355"><ele>6.5</ele></trkpt>
   <trkpt lon="151.201531" lat="-33.858355"><ele>6.5</ele></trkpt>
   <trkpt lon="151.201545" lat="-33.858355"><ele>6.5</ele></trkpt>
   <trkpt lon="151.201545" lat="-33.858347"><ele>6.5</ele></trkpt>
   <trkpt lon="151.201749" lat="-33.858352"><ele>7.75</ele></trkpt>
   <trkpt lon="151.202080" lat="-33.858263"><ele>12.25</ele></trkpt>
   <trkpt lon="151.202092" lat="-33.858287"><ele>12.5</ele></trkpt>
   <trkpt lon="151.202218" lat="-33.858247"><ele>14.0</ele></trkpt>
   <trkpt lon="151.202241" lat="-33.858257"><ele>14.5</ele></trkpt>
   <trkpt lon="151.202306" lat="-33.858241"><ele>15.25</ele></trkpt>
   <trkpt lon="151.202360" lat="-33.858224"><ele>16.0</ele></trkpt>
   <trkpt lon="151.202396" lat="-33.858240"><ele>16.5</ele></trkpt>
   <trkpt lon="151.202457" lat="-33.858250"><ele>17.25</ele></trkpt>
   <trkpt lon="151.202705" lat="-33.858350"><ele>19.0</ele></trkpt>
   <trkpt lon="151.202804" lat="-33.858402"><ele>19.25</ele></trkpt>
   <trkpt lon="151.202832" lat="-33.858416"><ele>19.25</ele></trkpt>
   <trkpt lon="151.203019" lat="-33.858264"><ele>20.5</ele></trkpt>
   <trkpt lon="151.203081" lat="-33.858305"><ele>21.25</ele></trkpt>
   <trkpt lon="151.203151" lat="-33.858339"><ele>21.75</ele></trkpt>
   <trkpt lon="151.203237" lat="-33.858354"><ele>22.25</ele></trkpt>
   <trkpt lon="151.203522" lat="-33.858364"><ele>23.0</ele></trkpt>
   <trkpt lon="151.203659" lat="-33.858377"><ele>23.0</ele></trkpt>
   <trkpt lon="151.203662" lat="-33.858422"><ele>23.25</ele></trkpt>
   <trkpt lon="151.203663" lat="-33.858448"><ele>23.25</ele></trkpt>
   <trkpt lon="151.203695" lat="-33.858446"><ele>23.25</ele></trkpt>
   <trkpt lon="151.204033" lat="-33.858479"><ele>24.0</ele></trkpt>
   <trkpt lon="151.204109" lat="-33.858490"><ele>24.25</ele></trkpt>
   <trkpt lon="151.204201" lat="-33.858509"><ele>24.75</ele></trkpt>
   <trkpt lon="151.204326" lat="-33.858525"><ele>25.75</ele></trkpt>
   <trkpt lon="151.204411" lat="-33.858532"><ele>26.25</ele></trkpt>
   <trkpt lon="151.204515" lat="-33.858542"><ele>27.0</ele></trkpt>
   <trkpt lon="151.204522" lat="-33.858543"><ele>27.0</ele></trkpt>
   <trkpt lon="151.204517" lat="-33.858564"><ele>27.25</ele></trkpt>
   <trkpt lon="151.204527" lat="-33.858575"><ele>27.5</ele></trkpt>
   <trkpt lon="151.204796" lat="-33.858659"><ele>30.75</ele></trkpt>
   <trkpt lon="151.204917" lat="-33.858695"><ele>32.25</ele></trkpt>
   <trkpt lon="151.205092" lat="-33.858732"><ele>33.5</ele></trkpt>
   <trkpt lon="151.205158" lat="-33.858739"><ele>33.75</ele></trkpt>
   <trkpt lon="151.205760" lat="-33.858812"><ele>35.25</ele></trkpt>
   <trkpt lon="151.205855" lat="-33.858843"><ele>35.75</ele></trkpt>
   <trkpt lon="151.205887" lat="-33.858858"><ele>36.25</ele></trkpt>
   <trkpt lon="151.205924" lat="-33.858885"><ele>36.5</ele></trkpt>
   <trkpt lon="151.205961" lat="-33.858867"><ele>36.5</ele></trkpt>
   <trkpt lon="151.206024" lat="-33.858855"><ele>36.25</ele></trkpt>
   <trkpt lon="151.206077" lat="-33.858860"><ele>36.0</ele></trkpt>
   <trkpt lon="151.206151" lat="-33.858860"><ele>36.0</ele></trkpt>
   <trkpt lon="151.206231" lat="-33.858881"><ele>35.75</ele></trkpt>
   <trkpt lon="151.206720" lat="-33.859005"><ele>35.25</ele></trkpt>
   <trkpt lon="151.206952" lat="-33.859068"><ele>35.25</ele></trkpt>
   <trkpt lon="151.206996" lat="-33.859079"><ele>34.5</ele></trkpt>
   <trkpt lon="151.207038" lat="-33.859001"><ele>34.0</ele></trkpt>
   <trkpt lon="151.207103" lat="-33.858836"><ele>33.25</ele></trkpt>
   <trkpt lon="151.207137" lat="-33.858758"><ele>33.0</ele></trkpt>
   <trkpt lon="151.207037" lat="-33.858744"><ele>33.75</ele></trkpt>
   <trkpt lon="151.206976" lat="-33.858717"><ele>33.75</ele></trkpt>
   <trkpt lon="151.206903" lat="-33.858686"><ele>33.75</ele></trkpt>
   <trkpt lon="151.207175" lat="-33.858263"><ele>33.75</ele></trkpt>
   <trkpt lon="151.209081" lat="-33.855202"><ele>33.75</ele></trkpt>
   <trkpt lon="151.207175" lat="-33.858263"><ele>33.75</ele></trkpt>
   <trkpt lon="151.206903" lat="-33.858686"><ele>33.75</ele></trkpt>
   <trkpt lon="151.206976" lat="-33.858717"><ele>33.75</ele></trkpt>
   <trkpt lon="151.207037" lat="-33.858744"><ele>33.75</ele></trkpt>
   <trkpt lon="151.207137" lat="-33.858758"><ele>33.0</ele></trkpt>
   <trkpt lon="151.207103" lat="-33.858836"><ele>33.25</ele></trkpt>
   <trkpt lon="151.207038" lat="-33.859001"><ele>34.0</ele></trkpt>
   <trkpt lon="151.206996" lat="-33.859079"><ele>34.5</ele></trkpt>
   <trkpt lon="151.206980" lat="-33.859118"><ele>35.0</ele></trkpt>
   <trkpt lon="151.206949" lat="-33.859199"><ele>35.25</ele></trkpt>
   <trkpt lon="151.206973" lat="-33.859205"><ele>35.0</ele></trkpt>
   <trkpt lon="151.207022" lat="-33.859220"><ele>34.25</ele></trkpt>
   <trkpt lon="151.207076" lat="-33.859236"><ele>33.25</ele></trkpt>
   <trkpt lon="151.207089" lat="-33.859240"><ele>33.25</ele></trkpt>
   <trkpt lon="151.207143" lat="-33.859110"><ele>32.5</ele></trkpt>
   <trkpt lon="151.207178" lat="-33.859074"><ele>32.0</ele></trkpt>
   <trkpt lon="151.207198" lat="-33.859043"><ele>31.75</ele></trkpt>
   <trkpt lon="151.207264" lat="-33.858878"><ele>31.5</ele></trkpt>
   <trkpt lon="151.207272" lat="-33.858857"><ele>31.5</ele></trkpt>
   <trkpt lon="151.207307" lat="-33.858862"><ele>31.25</ele></trkpt>
   <trkpt lon="151.207364" lat="-33.858824"><ele>31.0</ele></trkpt>
   <trkpt lon="151.207378" lat="-33.858833"><ele>30.75</ele></trkpt>
   <trkpt lon="151.207755" lat="-33.858474"><ele>30.0</ele></trkpt>
   <trkpt lon="151.207843" lat="-33.858391"><ele>29.75</ele></trkpt>
   <trkpt lon="151.207864" lat="-33.858370"><ele>29.75</ele></trkpt>
   <trkpt lon="151.207907" lat="-33.858383"><ele>29.0</ele></trkpt>
   <trkpt lon="151.207979" lat="-33.858401"><ele>28.25</ele></trkpt>
   <trkpt lon="151.207995" lat="-33.858383"><ele>28.25</ele></trkpt>
   <trkpt lon="151.208023" lat="-33.858389"><ele>27.75</ele></trkpt>
   <trkpt lon="151.208088" lat="-33.858403"><ele>27.0</ele></trkpt>
   <trkpt lon="151.208080" lat="-33.858424"><ele>27.0</ele></trkpt>
   <trkpt lon="151.208085" lat="-33.858437"><ele>26.75</ele></trkpt>
   <trkpt lon="151.208106" lat="-33.858424"><ele>26.75</ele></trkpt>
   <trkpt lon="151.208139" lat="-33.858342"><ele>27.0</ele></trkpt>
   <trkpt lon="151.208169" lat="-33.858348"><ele>26.5</ele></trkpt>
   <trkpt lon="151.208274" lat="-33.858374"><ele>25.25</ele></trkpt>
   <trkpt lon="151.208316" lat="-33.858256"><ele>25.0</ele></trkpt>
   <trkpt lon="151.208368" lat="-33.858110"><ele>24.75</ele></trkpt>
   <trkpt lon="151.208383" lat="-33.858066"><ele>24.5</ele></trkpt>
   <trkpt lon="151.208411" lat="-33.858028"><ele>24.25</ele></trkpt>
   <trkpt lon="151.208442" lat="-33.857961"><ele>24.0</ele></trkpt>
   <trkpt lon="151.208474" lat="-33.857962"><ele>23.75</ele></trkpt>
   <trkpt lon="151.208506" lat="-33.857913"><ele>23.75</ele></trkpt>
   <trkpt lon="151.208508" lat="-33.857851"><ele>23.5</ele></trkpt>
   <trkpt lon="151.208594" lat="-33.857854"><ele>23.0</ele></trkpt>
   <trkpt lon="151.208652" lat="-33.857853"><ele>22.5</ele></trkpt>
   <trkpt lon="151.208666" lat="-33.857879"><ele>22.5</ele></trkpt>
   <trkpt lon="151.208839" lat="-33.857804"><ele>21.25</ele></trkpt>
   <trkpt lon="151.208857" lat="-33.857802"><ele>21.0</ele></trkpt>
   <trkpt lon="151.208877" lat="-33.857809"><ele>21.0</ele></trkpt>
   <trkpt lon="151.208893" lat="-33.857825"><ele>20.75</ele></trkpt>
   <trkpt lon="151.208927" lat="-33.857812"><ele>20.5</ele></trkpt>
   <trkpt lon="151.208979" lat="-33.857790"><ele>20.25</ele></trkpt>
   <trkpt lon="151.208999" lat="-33.857782"><ele>20.0</ele></trkpt>
   <trkpt lon="151.209030" lat="-33.857838"><ele>19.75</ele></trkpt>
   <trkpt lon="151.209053" lat="-33.857846"><ele>19.75</ele></trkpt>
   <trkpt lon="151.209061" lat="-33.857861"><ele>19.75</ele></trkpt>
   <trkpt lon="151.209105" lat="-33.857942"><ele>19.25</ele></trkpt>
   <trkpt lon="151.209144" lat="-33.858010"><ele>19.0</ele></trkpt>
   <trkpt lon="151.209158" lat="-33.858032"><ele>19.0</ele></trkpt>
   <trkpt lon="151.209218" lat="-33.858050"><ele>18.5</ele></trkpt>
   <trkpt lon="151.209312" lat="-33.857795"><ele>17.75</ele></trkpt>
   <trkpt lon="151.209353" lat="-33.857664"><ele>17.25</ele></trkpt>
   <trkpt lon="151.209365" lat="-33.857593"><ele>17.0</ele></trkpt>
   <trkpt lon="151.209354" lat="-33.857549"><ele>17.25</ele></trkpt>
   <trkpt lon="151.209338" lat="-33.857508"><ele>17.25</ele></trkpt>
   <trkpt lon="151.209325" lat="-33.857477"><ele>17.25</ele></trkpt>
   <trkpt lon="151.209321" lat="-33.857466"><ele>17.0</ele></trkpt>
   <trkpt lon="151.209402" lat="-33.857459"><ele>16.25</ele></trkpt>
   <trkpt lon="151.209416" lat="-33.857440"><ele>16.0</ele></trkpt>
   <trkpt lon="151.209481" lat="-33.857430"><ele>15.25</ele></trkpt>
   <trkpt lon="151.209619" lat="-33.857374"><ele>13.75</ele></trkpt>
   <trkpt lon="151.209690" lat="-33.857343"><ele>13.0</ele></trkpt>
   <trkpt lon="151.209523" lat="-33.857045"><ele>12.25</ele></trkpt>
   <trkpt lon="151.209520" lat="-33.857040"><ele>11.0</ele></trkpt>
   <trkpt lon="151.209523" lat="-33.857045"><ele>11.0</ele></trkpt>
   <trkpt lon="151.210308" lat="-33.857153"><ele>11.75</ele></trkpt>
   <trkpt lon="151.210300" lat="-33.857188"><ele>11.75</ele></trkpt>
   <trkpt lon="151.210276" lat="-33.857304"><ele>11.75</ele></trkpt>
   <trkpt lon="151.210290" lat="-33.857320"><ele>11.75</ele></trkpt>
   <trkpt lon="151.210345" lat="-33.857326"><ele>12.0</ele></trkpt>
   <trkpt lon="151.210377" lat="-33.857340"><ele>12.0</ele></trkpt>
   <trkpt lon="151.210392" lat="-33.857368"><ele>12.0</ele></trkpt>
   <trkpt lon="151.210372" lat="-33.857442"><ele>12.0</ele></trkpt>
   <trkpt lon="151.210112" lat="-33.858783"><ele>13.75</ele></trkpt>
   <trkpt lon="151.210118" lat="-33.858803"><ele>13.75</ele></trkpt>
   <trkpt lon="151.210101" lat="-33.858900"><ele>13.0</ele></trkpt>
   <trkpt lon="151.210129" lat="-33.858980"><ele>13.0</ele></trkpt>
   <trkpt lon="151.210098" lat="-33.859140"><ele>12.0</ele></trkpt>
   <trkpt lon="151.210062" lat="-33.859265"><ele>10.5</ele></trkpt>
   <trkpt lon="151.209866" lat="-33.859371"><ele>9.75</ele></trkpt>
   <trkpt lon="151.209726" lat="-33.859447"><ele>9.75</ele></trkpt>
   <trkpt lon="151.209665" lat="-33.859729"><ele>9.0</ele></trkpt>
   <trkpt lon="151.209641" lat="-33.859849"><ele>8.75</ele></trkpt>
   <trkpt lon="151.209579" lat="-33.860281"><ele>8.75</ele></trkpt>
   <trkpt lon="151.209560" lat="-33.860464"><ele>8.75</ele></trkpt>
   <trkpt lon="151.209543" lat="-33.860595"><ele>8.75</ele></trkpt>
   <trkpt lon="151.209524" lat="-33.860762"><ele>8.75</ele></trkpt>
   <trkpt lon="151.209523" lat="-33.860850"><ele>8.75</ele></trkpt>
   <trkpt lon="151.209537" lat="-33.860908"><ele>9.75</ele></trkpt>
   <trkpt lon="151.209556" lat="-33.860961"><ele>10.5</ele></trkpt>
   <trkpt lon="151.209574" lat="-33.860991"><ele>11.0</ele></trkpt>
   <trkpt lon="151.209609" lat="-33.861026"><ele>11.25</ele></trkpt>
   <trkpt lon="151.209678" lat="-33.861073"><ele>11.75</ele></trkpt>
   <trkpt lon="151.209718" lat="-33.861083"><ele>11.75</ele></trkpt>
   <trkpt lon="151.209836" lat="-33.861095"><ele>11.5</ele></trkpt>
   <trkpt lon="151.209920" lat="-33.861103"><ele>11.5</ele></trkpt>
   <trkpt lon="151.209996" lat="-33.861110"><ele>11.25</ele></trkpt>
   <trkpt lon="151.210334" lat="-33.861140"><ele>11.5</ele></trkpt>
   <trkpt lon="151.210420" lat="-33.861148"><ele>11.75</ele></trkpt>
   <trkpt lon="151.210413" lat="-33.861203"><ele>12.5</ele></trkpt>
   <trkpt lon="151.210398" lat="-33.861323"><ele>14.25</ele></trkpt>
   <trkpt lon="151.210470" lat="-33.861330"><ele>14.25</ele></trkpt>
   <trkpt lon="151.210490" lat="-33.861332"><ele>14.25</ele></trkpt>
   <trkpt lon="151.210555" lat="-33.861338"><ele>14.25</ele></trkpt>
   <trkpt lon="151.210625" lat="-33.861345"><ele>14.25</ele></trkpt>
   <trkpt lon="151.210636" lat="-33.861346"><ele>14.25</ele></trkpt>
   <trkpt lon="151.210670" lat="-33.861349"><ele>14.25</ele></trkpt>
   <trkpt lon="151.210683" lat="-33.861350"><ele>14.25</ele></trkpt>
   <trkpt lon="151.210719" lat="-33.861354"><ele>14.25</ele></trkpt>
   <trkpt lon="151.210765" lat="-33.861358"><ele>14.25</ele></trkpt>
   <trkpt lon="151.210784" lat="-33.861360"><ele>14.25</ele></trkpt>
   <trkpt lon="151.210805" lat="-33.861362"><ele>14.25</ele></trkpt>
   <trkpt lon="151.210894" lat="-33.861370"><ele>14.25</ele></trkpt>
   <trkpt lon="151.210908" lat="-33.861248"><ele>12.75</ele></trkpt>
   <trkpt lon="151.210911" lat="-33.861194"><ele>12.0</ele></trkpt>
   <trkpt lon="151.210993" lat="-33.861201"><ele>12.0</ele></trkpt>
   <trkpt lon="151.211339" lat="-33.861232"><ele>11.75</ele></trkpt>
   <trkpt lon="151.211440" lat="-33.861242"><ele>11.75</ele></trkpt>
   <trkpt lon="151.211491" lat="-33.861246"><ele>11.75</ele></trkpt>
   <trkpt lon="151.211986" lat="-33.861296"><ele>16.75</ele></trkpt>
   <trkpt lon="151.212116" lat="-33.861335"><ele>19.25</ele></trkpt>
   <trkpt lon="151.212329" lat="-33.861254"><ele>20.5</ele></trkpt>
   <trkpt lon="151.212419" lat="-33.861202"><ele>20.5</ele></trkpt>
   <trkpt lon="151.212548" lat="-33.861105"><ele>19.25</ele></trkpt>
   <trkpt lon="151.212598" lat="-33.861046"><ele>18.0</ele></trkpt>
   <trkpt lon="151.212639" lat="-33.860979"><ele>16.5</ele></trkpt>
   <trkpt lon="151.212667" lat="-33.860894"><ele>14.5</ele></trkpt>
   <trkpt lon="151.212711" lat="-33.860540"><ele>13.5</ele></trkpt>
   <trkpt lon="151.212753" lat="-33.860170"><ele>14.0</ele></trkpt>
   <trkpt lon="151.212771" lat="-33.860018"><ele>14.25</ele></trkpt>
   <trkpt lon="151.212797" lat="-33.859771"><ele>11.75</ele></trkpt>
   <trkpt lon="151.212807" lat="-33.859666"><ele>10.5</ele></trkpt>
   <trkpt lon="151.212863" lat="-33.859431"><ele>8.5</ele></trkpt>
   <trkpt lon="151.212889" lat="-33.859240"><ele>8.25</ele></trkpt>
   <trkpt lon="151.212942" lat="-33.859010"><ele>8.0</ele></trkpt>
   <trkpt lon="151.212955" lat="-33.858981"><ele>8.0</ele></trkpt>
   <trkpt lon="151.213030" lat="-33.858883"><ele>7.75</ele></trkpt>
   <trkpt lon="151.213138" lat="-33.858802"><ele>7.75</ele></trkpt>
   <trkpt lon="151.213331" lat="-33.858712"><ele>7.5</ele></trkpt>
   <trkpt lon="151.213422" lat="-33.858684"><ele>7.5</ele></trkpt>
   <trkpt lon="151.213517" lat="-33.858663"><ele>7.5</ele></trkpt>
   <trkpt lon="151.213689" lat="-33.858636"><ele>8.75</ele></trkpt>
   <trkpt lon="151.213843" lat="-33.858549"><ele>9.0</ele></trkpt>
   <trkpt lon="151.213963" lat="-33.858435"><ele>8.5</ele></trkpt>
   <trkpt lat="-33.858549" lon="151.213843"><ele>9.0</ele></trkpt><trkpt lat="-33.858636" lon="151.213689"><ele>8.75</ele></trkpt><trkpt lat="-33.858663" lon="151.213517"><ele>7.5</ele></trkpt><trkpt lat="-33.858684" lon="151.213422"><ele>7.5</ele></trkpt><trkpt lat="-33.858712" lon="151.213331"><ele>7.5</ele></trkpt><trkpt lat="-33.858802" lon="151.213138"><ele>7.75</ele></trkpt><trkpt lat="-33.858883" lon="151.213030"><ele>7.75</ele></trkpt><trkpt lat="-33.858981" lon="151.212955"><ele>8.0</ele></trkpt><trkpt lat="-33.859010" lon="151.212942"><ele>8.0</ele></trkpt><trkpt lat="-33.859240" lon="151.212889"><ele>8.25</ele></trkpt><trkpt lat="-33.859431" lon="151.212863"><ele>8.5</ele></trkpt><trkpt lat="-33.859666" lon="151.212807"><ele>10.5</ele></trkpt><trkpt lat="-33.859771" lon="151.212797"><ele>11.75</ele></trkpt><trkpt lat="-33.860018" lon="151.212771"><ele>14.25</ele></trkpt><trkpt lat="-33.860170" lon="151.212753"><ele>14.0</ele></trkpt><trkpt lat="-33.860540" lon="151.212711"><ele>13.5</ele></trkpt><trkpt lat="-33.860894" lon="151.212667"><ele>14.5</ele></trkpt><trkpt lat="-33.860979" lon="151.212639"><ele>16.5</ele></trkpt><trkpt lat="-33.861046" lon="151.212598"><ele>18.0</ele></trkpt><trkpt lat="-33.861105" lon="151.212548"><ele>19.25</ele></trkpt><trkpt lat="-33.861202" lon="151.212419"><ele>20.5</ele></trkpt><trkpt lat="-33.861254" lon="151.212329"><ele>20.5</ele></trkpt><trkpt lat="-33.861335" lon="151.212116"><ele>19.25</ele></trkpt><trkpt lat="-33.861296" lon="151.211986"><ele>16.75</ele></trkpt><trkpt lat="-33.861246" lon="151.211491"><ele>11.75</ele></trkpt><trkpt lat="-33.861242" lon="151.211440"><ele>11.75</ele></trkpt><trkpt lat="-33.861232" lon="151.211339"><ele>11.75</ele></trkpt><trkpt lat="-33.861201" lon="151.210993"><ele>12.0</ele></trkpt><trkpt lat="-33.861194" lon="151.210911"><ele>12.0</ele></trkpt><trkpt lat="-33.861248" lon="151.210908"><ele>12.75</ele></trkpt><trkpt lat="-33.861370" lon="151.210894"><ele>14.25</ele></trkpt><trkpt lat="-33.861362" lon="151.210805"><ele>14.25</ele></trkpt><trkpt lat="-33.861360" lon="151.210784"><ele>14.25</ele></trkpt><trkpt lat="-33.861358" lon="151.210765"><ele>14.25</ele></trkpt><trkpt lat="-33.861354" lon="151.210719"><ele>14.25</ele></trkpt><trkpt lat="-33.861350" lon="151.210683"><ele>14.25</ele></trkpt><trkpt lat="-33.861349" lon="151.210670"><ele>14.25</ele></trkpt><trkpt lat="-33.861346" lon="151.210636"><ele>14.25</ele></trkpt><trkpt lat="-33.861345" lon="151.210625"><ele>14.25</ele></trkpt><trkpt lat="-33.861338" lon="151.210555"><ele>14.25</ele></trkpt><trkpt lat="-33.861332" lon="151.210490"><ele>14.25</ele></trkpt><trkpt lat="-33.861330" lon="151.210470"><ele>14.25</ele></trkpt><trkpt lat="-33.861323" lon="151.210398"><ele>14.25</ele></trkpt><trkpt lat="-33.861203" lon="151.210413"><ele>12.5</ele></trkpt><trkpt lat="-33.861148" lon="151.210420"><ele>11.75</ele></trkpt><trkpt lat="-33.861140" lon="151.210334"><ele>11.5</ele></trkpt><trkpt lat="-33.861110" lon="151.209996"><ele>11.25</ele></trkpt><trkpt lat="-33.861103" lon="151.209920"><ele>11.5</ele></trkpt><trkpt lat="-33.861095" lon="151.209836"><ele>11.5</ele></trkpt><trkpt lat="-33.861083" lon="151.209718"><ele>11.75</ele></trkpt><trkpt lat="-33.861073" lon="151.209678"><ele>11.75</ele></trkpt><trkpt lat="-33.861026" lon="151.209609"><ele>11.25</ele></trkpt><trkpt lat="-33.860991" lon="151.209574"><ele>11.0</ele></trkpt><trkpt lat="-33.860961" lon="151.209556"><ele>10.5</ele></trkpt><trkpt lat="-33.860908" lon="151.209537"><ele>9.75</ele></trkpt><trkpt lat="-33.860850" lon="151.209523"><ele>8.75</ele></trkpt><trkpt lat="-33.860762" lon="151.209524"><ele>8.75</ele></trkpt><trkpt lat="-33.860595" lon="151.209543"><ele>8.75</ele></trkpt><trkpt lat="-33.860464" lon="151.209560"><ele>8.75</ele></trkpt><trkpt lat="-33.860281" lon="151.209579"><ele>8.75</ele></trkpt><trkpt lat="-33.859849" lon="151.209641"><ele>8.75</ele></trkpt><trkpt lat="-33.859729" lon="151.209665"><ele>9.0</ele></trkpt><trkpt lat="-33.859447" lon="151.209726"><ele>9.75</ele></trkpt><trkpt lat="-33.859371" lon="151.209866"><ele>9.75</ele></trkpt><trkpt lat="-33.859265" lon="151.210062"><ele>10.5</ele></trkpt><trkpt lat="-33.859140" lon="151.210098"><ele>12.0</ele></trkpt><trkpt lat="-33.858980" lon="151.210129"><ele>13.0</ele></trkpt><trkpt lat="-33.858900" lon="151.210101"><ele>13.0</ele></trkpt><trkpt lat="-33.858803" lon="151.210118"><ele>13.75</ele></trkpt><trkpt lat="-33.858783" lon="151.210112"><ele>13.75</ele></trkpt><trkpt lat="-33.857442" lon="151.210372"><ele>12.0</ele></trkpt><trkpt lat="-33.857368" lon="151.210392"><ele>12.0</ele></trkpt><trkpt lat="-33.857340" lon="151.210377"><ele>12.0</ele></trkpt><trkpt lat="-33.857326" lon="151.210345"><ele>12.0</ele></trkpt><trkpt lat="-33.857320" lon="151.210290"><ele>11.75</ele></trkpt><trkpt lat="-33.857304" lon="151.210276"><ele>11.75</ele></trkpt><trkpt lat="-33.857188" lon="151.210300"><ele>11.75</ele></trkpt><trkpt lat="-33.857153" lon="151.210308"><ele>11.75</ele></trkpt><trkpt lat="-33.857045" lon="151.209523"><ele>11.0</ele></trkpt><trkpt lat="-33.857040" lon="151.209520"><ele>11.0</ele></trkpt><trkpt lat="-33.857045" lon="151.209523"><ele>12.25</ele></trkpt><trkpt lat="-33.857343" lon="151.209690"><ele>13.0</ele></trkpt><trkpt lat="-33.857374" lon="151.209619"><ele>13.75</ele></trkpt><trkpt lat="-33.857430" lon="151.209481"><ele>15.25</ele></trkpt><trkpt lat="-33.857440" lon="151.209416"><ele>16.0</ele></trkpt><trkpt lat="-33.857459" lon="151.209402"><ele>16.25</ele></trkpt><trkpt lat="-33.857466" lon="151.209321"><ele>17.0</ele></trkpt><trkpt lat="-33.857477" lon="151.209325"><ele>17.25</ele></trkpt><trkpt lat="-33.857508" lon="151.209338"><ele>17.25</ele></trkpt><trkpt lat="-33.857549" lon="151.209354"><ele>17.25</ele></trkpt><trkpt lat="-33.857593" lon="151.209365"><ele>17.0</ele></trkpt><trkpt lat="-33.857664" lon="151.209353"><ele>17.25</ele></trkpt><trkpt lat="-33.857795" lon="151.209312"><ele>17.75</ele></trkpt><trkpt lat="-33.858050" lon="151.209218"><ele>18.5</ele></trkpt><trkpt lat="-33.858032" lon="151.209158"><ele>19.0</ele></trkpt><trkpt lat="-33.858010" lon="151.209144"><ele>19.0</ele></trkpt><trkpt lat="-33.857942" lon="151.209105"><ele>19.25</ele></trkpt><trkpt lat="-33.857861" lon="151.209061"><ele>19.75</ele></trkpt><trkpt lat="-33.857846" lon="151.209053"><ele>19.75</ele></trkpt><trkpt lat="-33.857838" lon="151.209030"><ele>19.75</ele></trkpt><trkpt lat="-33.857782" lon="151.208999"><ele>20.0</ele></trkpt><trkpt lat="-33.857790" lon="151.208979"><ele>20.25</ele></trkpt><trkpt lat="-33.857812" lon="151.208927"><ele>20.5</ele></trkpt><trkpt lat="-33.857825" lon="151.208893"><ele>20.75</ele></trkpt><trkpt lat="-33.857809" lon="151.208877"><ele>21.0</ele></trkpt><trkpt lat="-33.857802" lon="151.208857"><ele>21.0</ele></trkpt><trkpt lat="-33.857804" lon="151.208839"><ele>21.25</ele></trkpt><trkpt lat="-33.857879" lon="151.208666"><ele>22.5</ele></trkpt><trkpt lat="-33.857853" lon="151.208652"><ele>22.5</ele></trkpt><trkpt lat="-33.857854" lon="151.208594"><ele>23.0</ele></trkpt><trkpt lat="-33.857851" lon="151.208508"><ele>23.5</ele></trkpt><trkpt lat="-33.857913" lon="151.208506"><ele>23.75</ele></trkpt><trkpt lat="-33.857962" lon="151.208474"><ele>23.75</ele></trkpt><trkpt lat="-33.857961" lon="151.208442"><ele>24.0</ele></trkpt><trkpt lat="-33.858028" lon="151.208411"><ele>24.25</ele></trkpt><trkpt lat="-33.858066" lon="151.208383"><ele>24.5</ele></trkpt><trkpt lat="-33.858110" lon="151.208368"><ele>24.75</ele></trkpt><trkpt lat="-33.858256" lon="151.208316"><ele>25.0</ele></trkpt><trkpt lat="-33.858374" lon="151.208274"><ele>25.25</ele></trkpt><trkpt lat="-33.858348" lon="151.208169"><ele>26.5</ele></trkpt><trkpt lat="-33.858342" lon="151.208139"><ele>27.0</ele></trkpt><trkpt lat="-33.858424" lon="151.208106"><ele>26.75</ele></trkpt><trkpt lat="-33.858437" lon="151.208085"><ele>26.75</ele></trkpt><trkpt lat="-33.858424" lon="151.208080"><ele>27.0</ele></trkpt><trkpt lat="-33.858403" lon="151.208088"><ele>27.0</ele></trkpt><trkpt lat="-33.858389" lon="151.208023"><ele>27.75</ele></trkpt><trkpt lat="-33.858383" lon="151.207995"><ele>28.25</ele></trkpt><trkpt lat="-33.858401" lon="151.207979"><ele>28.25</ele></trkpt><trkpt lat="-33.858383" lon="151.207907"><ele>29.0</ele></trkpt><trkpt lat="-33.858370" lon="151.207864"><ele>29.75</ele></trkpt><trkpt lat="-33.858391" lon="151.207843"><ele>29.75</ele></trkpt><trkpt lat="-33.858474" lon="151.207755"><ele>30.0</ele></trkpt><trkpt lat="-33.858833" lon="151.207378"><ele>30.75</ele></trkpt><trkpt lat="-33.858824" lon="151.207364"><ele>31.0</ele></trkpt><trkpt lat="-33.858862" lon="151.207307"><ele>31.25</ele></trkpt><trkpt lat="-33.858857" lon="151.207272"><ele>31.5</ele></trkpt><trkpt lat="-33.858878" lon="151.207264"><ele>31.5</ele></trkpt><trkpt lat="-33.859043" lon="151.207198"><ele>31.75</ele></trkpt><trkpt lat="-33.859074" lon="151.207178"><ele>32.0</ele></trkpt><trkpt lat="-33.859110" lon="151.207143"><ele>32.5</ele></trkpt><trkpt lat="-33.859240" lon="151.207089"><ele>33.25</ele></trkpt><trkpt lat="-33.859236" lon="151.207076"><ele>33.25</ele></trkpt><trkpt lat="-33.859220" lon="151.207022"><ele>34.25</ele></trkpt><trkpt lat="-33.859205" lon="151.206973"><ele>35.0</ele></trkpt><trkpt lat="-33.859199" lon="151.206949"><ele>35.25</ele></trkpt><trkpt lat="-33.859118" lon="151.206980"><ele>35.0</ele></trkpt><trkpt lat="-33.859079" lon="151.206996"><ele>34.5</ele></trkpt><trkpt lat="-33.859001" lon="151.207038"><ele>34.0</ele></trkpt><trkpt lat="-33.858836" lon="151.207103"><ele>33.25</ele></trkpt><trkpt lat="-33.858758" lon="151.207137"><ele>33.0</ele></trkpt><trkpt lat="-33.858744" lon="151.207037"><ele>33.75</ele></trkpt><trkpt lat="-33.858717" lon="151.206976"><ele>33.75</ele></trkpt><trkpt lat="-33.858686" lon="151.206903"><ele>33.75</ele></trkpt><trkpt lat="-33.858263" lon="151.207175"><ele>33.75</ele></trkpt><trkpt lat="-33.855202" lon="151.209081"><ele>33.75</ele></trkpt><trkpt lat="-33.858263" lon="151.207175"><ele>33.75</ele></trkpt><trkpt lat="-33.858686" lon="151.206903"><ele>33.75</ele></trkpt><trkpt lat="-33.858717" lon="151.206976"><ele>33.75</ele></trkpt><trkpt lat="-33.858744" lon="151.207037"><ele>33.75</ele></trkpt><trkpt lat="-33.858758" lon="151.207137"><ele>33.0</ele></trkpt><trkpt lat="-33.858836" lon="151.207103"><ele>33.25</ele></trkpt><trkpt lat="-33.859001" lon="151.207038"><ele>34.0</ele></trkpt><trkpt lat="-33.859079" lon="151.206996"><ele>34.5</ele></trkpt><trkpt lat="-33.859068" lon="151.206952"><ele>35.25</ele></trkpt><trkpt lat="-33.859005" lon="151.206720"><ele>35.25</ele></trkpt><trkpt lat="-33.858881" lon="151.206231"><ele>35.75</ele></trkpt><trkpt lat="-33.858860" lon="151.206151"><ele>36.0</ele></trkpt><trkpt lat="-33.858860" lon="151.206077"><ele>36.0</ele></trkpt><trkpt lat="-33.858855" lon="151.206024"><ele>36.25</ele></trkpt><trkpt lat="-33.858867" lon="151.205961"><ele>36.5</ele></trkpt><trkpt lat="-33.858885" lon="151.205924"><ele>36.5</ele></trkpt><trkpt lat="-33.858858" lon="151.205887"><ele>36.25</ele></trkpt><trkpt lat="-33.858843" lon="151.205855"><ele>35.75</ele></trkpt><trkpt lat="-33.858812" lon="151.205760"><ele>35.25</ele></trkpt><trkpt lat="-33.858739" lon="151.205158"><ele>33.75</ele></trkpt><trkpt lat="-33.858732" lon="151.205092"><ele>33.5</ele></trkpt><trkpt lat="-33.858695" lon="151.204917"><ele>32.25</ele></trkpt><trkpt lat="-33.858659" lon="151.204796"><ele>30.75</ele></trkpt><trkpt lat="-33.858575" lon="151.204527"><ele>27.5</ele></trkpt><trkpt lat="-33.858564" lon="151.204517"><ele>27.25</ele></trkpt><trkpt lat="-33.858543" lon="151.204522"><ele>27.0</ele></trkpt><trkpt lat="-33.858542" lon="151.204515"><ele>27.0</ele></trkpt><trkpt lat="-33.858532" lon="151.204411"><ele>26.25</ele></trkpt><trkpt lat="-33.858525" lon="151.204326"><ele>25.75</ele></trkpt><trkpt lat="-33.858509" lon="151.204201"><ele>24.75</ele></trkpt><trkpt lat="-33.858490" lon="151.204109"><ele>24.25</ele></trkpt><trkpt lat="-33.858479" lon="151.204033"><ele>24.0</ele></trkpt><trkpt lat="-33.858446" lon="151.203695"><ele>23.25</ele></trkpt><trkpt lat="-33.858448" lon="151.203663"><ele>23.25</ele></trkpt><trkpt lat="-33.858422" lon="151.203662"><ele>23.25</ele></trkpt><trkpt lat="-33.858377" lon="151.203659"><ele>23.0</ele></trkpt><trkpt lat="-33.858364" lon="151.203522"><ele>23.0</ele></trkpt><trkpt lat="-33.858354" lon="151.203237"><ele>22.25</ele></trkpt><trkpt lat="-33.858339" lon="151.203151"><ele>21.75</ele></trkpt><trkpt lat="-33.858305" lon="151.203081"><ele>21.25</ele></trkpt><trkpt lat="-33.858264" lon="151.203019"><ele>20.5</ele></trkpt><trkpt lat="-33.858416" lon="151.202832"><ele>19.25</ele></trkpt><trkpt lat="-33.858402" lon="151.202804"><ele>19.25</ele></trkpt><trkpt lat="-33.858350" lon="151.202705"><ele>19.0</ele></trkpt><trkpt lat="-33.858250" lon="151.202457"><ele>17.25</ele></trkpt><trkpt lat="-33.858240" lon="151.202396"><ele>16.5</ele></trkpt><trkpt lat="-33.858224" lon="151.202360"><ele>16.0</ele></trkpt><trkpt lat="-33.858241" lon="151.202306"><ele>15.25</ele></trkpt><trkpt lat="-33.858257" lon="151.202241"><ele>14.5</ele></trkpt><trkpt lat="-33.858247" lon="151.202218"><ele>14.0</ele></trkpt><trkpt lat="-33.858287" lon="151.202092"><ele>12.5</ele></trkpt><trkpt lat="-33.858263" lon="151.202080"><ele>12.25</ele></trkpt><trkpt lat="-33.858352" lon="151.201749"><ele>7.75</ele></trkpt><trkpt lat="-33.858347" lon="151.201545"><ele>6.5</ele></trkpt><trkpt lat="-33.858355" lon="151.201545"><ele>6.5</ele></trkpt><trkpt lat="-33.858355" lon="151.201531"><ele>6.5</ele></trkpt><trkpt lat="-33.858355" lon="151.201518"><ele>6.5</ele></trkpt><trkpt lat="-33.858326" lon="151.201519"><ele>6.5</ele></trkpt><trkpt lat="-33.858324" lon="151.201464"><ele>6.5</ele></trkpt><trkpt lat="-33.858330" lon="151.201408"><ele>6.25</ele></trkpt><trkpt lat="-33.858377" lon="151.201334"><ele>6.0</ele></trkpt><trkpt lat="-33.858431" lon="151.201287"><ele>5.5</ele></trkpt><trkpt lat="-33.858465" lon="151.201243"><ele>5.25</ele></trkpt><trkpt lat="-33.858482" lon="151.201188"><ele>5.0</ele></trkpt><trkpt lat="-33.858482" lon="151.201165"><ele>5.0</ele></trkpt></trkseg></trk></gpx>