<?xml version='1.0' encoding='UTF-8'?>
<gpx xmlns="http://www.topografix.com/GPX/1/1" version="1.1" creator="running-dashboard"><metadata><name>윤호 솔로 6km — 바랑가루 해안 왕복</name></metadata><trk><name>윤호 솔로 6km — 바랑가루 해안 왕복</name><trkseg><trkpt lon="151.201165" lat="-33.858482"><ele>5.0</ele></trkpt>
   <trkpt lon="151.201188" lat="-33.858482"><ele>5.0</ele></trkpt>
   <trkpt lon="151.201243" lat="-33.858465"><ele>5.25</ele></trkpt>
   <trkpt lon="151.201287" lat="-33.858431"><ele>5.5</ele></trkpt>
   <trkpt lon="151.201334" lat="-33.858377"><ele>6.0</ele></trkpt>
   <trkpt lon="151.201408" lat="-33.858330"><ele>6.25</ele></trkpt>
   <trkpt lon="151.201464" lat="-33.858324"><ele>6.5</ele></trkpt>
   <trkpt lon="151.201466" lat="-33.858287"><ele>6.5</ele></trkpt>
   <trkpt lon="151.201519" lat="-33.858288"><ele>6.5</ele></trkpt>
   <trkpt lon="151.201520" lat="-33.858283"><ele>6.5</ele></trkpt>
   <trkpt lon="151.201533" lat="-33.858283"><ele>6.5</ele></trkpt>
   <trkpt lon="151.201539" lat="-33.858099"><ele>6.75</ele></trkpt>
   <trkpt lon="151.201539" lat="-33.858046"><ele>6.75</ele></trkpt>
   <trkpt lon="151.201557" lat="-33.857965"><ele>7.0</ele></trkpt>
   <trkpt lon="151.201574" lat="-33.857929"><ele>7.0</ele></trkpt>
   <trkpt lon="151.201797" lat="-33.857935"><ele>9.0</ele></trkpt>
   <trkpt lon="151.201865" lat="-33.857969"><ele>9.75</ele></trkpt>
   <trkpt lon="151.201910" lat="-33.857969"><ele>10.25</ele></trkpt>
   <trkpt lon="151.202249" lat="-33.857879"><ele>14.25</ele></trkpt>
   <trkpt lon="151.202297" lat="-33.857879"><ele>15.0</ele></trkpt>
   <trkpt lon="151.202345" lat="-33.857887"><ele>15.5</ele></trkpt>
   <trkpt lon="151.202342" lat="-33.857875"><ele>15.5</ele></trkpt>
   <trkpt lon="151.202339" lat="-33.857839"><ele>15.5</ele></trkpt>
   <trkpt lon="151.202433" lat="-33.857849"><ele>16.5</ele></trkpt>
   <trkpt lon="151.202442" lat="-33.857784"><ele>16.5</ele></trkpt>
   <trkpt lon="151.202498" lat="-33.857671"><ele>17.0</ele></trkpt>
   <trkpt lon="151.202597" lat="-33.857461"><ele>16.25</ele></trkpt>
   <trkpt lon="151.202693" lat="-33.857509"><ele>16.75</ele></trkpt>
   <trkpt lon="151.202756" lat="-33.857539"><ele>16.75</ele></trkpt>
   <trkpt lon="151.202991" lat="-33.857660"><ele>17.25</ele></trkpt>
   <trkpt lon="151.203014" lat="-33.857672"><ele>17.25</ele></trkpt>
   <trkpt lon="151.203486" lat="-33.857659"><ele>17.25</ele></trkpt>
   <trkpt lon="151.203618" lat="-33.857655"><ele>17.5</ele></trkpt>
   <trkpt lon="151.204094" lat="-33.857642"><ele>17.75</ele></trkpt>
   <trkpt lon="151.205369" lat="-33.857616"><ele>20.0</ele></trkpt>
   <trkpt lon="151.205369" lat="-33.857539"><ele>19.25</ele></trkpt>
   <trkpt lon="151.205368" lat="-33.857517"><ele>19.0</ele></trkpt>
   <trkpt lon="151.205368" lat="-33.857492"><ele>18.75</ele></trkpt>
   <trkpt lon="151.205376" lat="-33.857281"><ele>15.75</ele></trkpt>
   <trkpt lon="151.205382" lat="-33.857240"><ele>15.0</ele></trkpt>
   <trkpt lon="151.205412" lat="-33.857169"><ele>14.0</ele></trkpt>
   <trkpt lon="151.205444" lat="-33.857130"><ele>13.5</ele></trkpt>
   <trkpt lon="151.205500" lat="-33.857078"><ele>13.0</ele></trkpt>
   <trkpt lon="151.205565" lat="-33.857032"><ele>12.25</ele></trkpt>
   <trkpt lon="151.205934" lat="-33.856836"><ele>11.25</ele></trkpt>
   <trkpt lon="151.206157" lat="-33.856665"><ele>11.25</ele></trkpt>
   <trkpt lon="151.206320" lat="-33.856555"><ele>12.25</ele></trkpt>
   <trkpt lon="151.206431" lat="-33.856472"><ele>12.5</ele></trkpt>
   <trkpt lon="151.206467" lat="-33.856454"><ele>12.75</ele></trkpt>
   <trkpt lon="151.206536" lat="-33.856437"><ele>13.0</ele></trkpt>
   <trkpt lon="151.206693" lat="-33.856440"><ele>14.5</ele></trkpt>
   <trkpt lon="151.206703" lat="-33.856502"><ele>15.5</ele></trkpt>
   <trkpt lon="151.206761" lat="-33.856494"><ele>16.0</ele></trkpt>
   <trkpt lon="151.206764" lat="-33.856509"><ele>16.25</ele></trkpt>
   <trkpt lon="151.206698" lat="-33.856517"><ele>15.5</ele></trkpt>
   <trkpt lon="151.206685" lat="-33.856517"><ele>15.25</ele></trkpt>
   <trkpt lon="151.206687" lat="-33.856543"><ele>15.75</ele></trkpt>
   <trkpt lon="151.206776" lat="-33.856535"><ele>16.75</ele></trkpt>
   <trkpt lon="151.206780" lat="-33.856531"><ele>16.75</ele></trkpt>
   <trkpt lon="151.206776" lat="-33.856535"><ele>16.75</ele></trkpt>
   <trkpt lon="151.206687" lat="-33.856543"><ele>15.75</ele></trkpt>
   <trkpt lon="151.206685" lat="-33.856517"><ele>15.25</ele></trkpt>
   <trkpt lon="151.206698" lat="-33.856517"><ele>15.5</ele></trkpt>
   <trkpt lon="151.206764" lat="-33.856509"><ele>16.25</ele></trkpt>
   <trkpt lon="151.206761" lat="-33.856494"><ele>16.0</ele></trkpt>
   <trkpt lon="151.206703" lat="-33.856502"><ele>15.5</ele></trkpt>
   <trkpt lon="151.206693" lat="-33.856440"><ele>14.5</ele></trkpt>
   <trkpt lon="151.206787" lat="-33.856325"><ele>14.25</ele></trkpt>
   <trkpt lon="151.207032" lat="-33.856136"><ele>15.25</ele></trkpt>
   <trkpt lon="151.207066" lat="-33.856093"><ele>15.25</ele></trkpt>
   <trkpt lon="151.207078" lat="-33.856046"><ele>14.75</ele></trkpt>
   <trkpt lon="151.207073" lat="-33.856003"><ele>14.25</ele></trkpt>
   <trkpt lon="151.207045" lat="-33.855959"><ele>13.5</ele></trkpt>
   <trkpt lon="151.207007" lat="-33.855986"><ele>13.25</ele></trkpt>
   <trkpt lon="151.206934" lat="-33.855654"><ele>10.75</ele></trkpt>
   <trkpt lon="151.206844" lat="-33.855514"><ele>10.25</ele></trkpt>
   <trkpt lon="151.206834" lat="-33.855494"><ele>10.25</ele></trkpt>
   <trkpt lon="151.206719" lat="-33.855585"><ele>8.75</ele></trkpt>
   <trkpt lon="151.206694" lat="-33.855605"><ele>8.5</ele></trkpt>
   <trkpt lon="151.206644" lat="-33.855644"><ele>8.0</ele></trkpt>
   <trkpt lon="151.206594" lat="-33.855685"><ele>7.5</ele></trkpt>
   <trkpt lon="151.206322" lat="-33.855890"><ele>7.0</ele></trkpt>
   <trkpt lon="151.206282" lat="-33.855801"><ele>6.5</ele></trkpt>
   <trkpt lon="151.206222" lat="-33.855818"><ele>6.25</ele></trkpt>
   <trkpt lon="151.206204" lat="-33.855823"><ele>6.25</ele></trkpt>
   <trkpt lon="151.205963" lat="-33.855892"><ele>6.25</ele></trkpt>
   <trkpt lon="151.205894" lat="-33.855912"><ele>6.25</ele></trkpt>
   <trkpt lon="151.205557" lat="-33.855104"><ele>6.25</ele></trkpt>
   <trkpt lon="151.205894" lat="-33.855912"><ele>6.25</ele></trkpt>
   <trkpt lon="151.205963" lat="-33.855892"><ele>6.25</ele></trkpt>
   <trkpt lon="151.206204" lat="-33.855823"><ele>6.25</ele></trkpt>
   <trkpt lon="151.206222" lat="-33.855818"><ele>6.25</ele></trkpt>
   <trkpt lon="151.206282" lat="-33.855801"><ele>6.5</ele></trkpt>
   <trkpt lon="151.206322" lat="-33.855890"><ele>7.0</ele></trkpt>
   <trkpt lon="151.206594" lat="-33.855685"><ele>7.5</ele></trkpt>
   <trkpt lon="151.206644" lat="-33.855644"><ele>8.0</ele></trkpt>
   <trkpt lon="151.206694" lat="-33.855605"><ele>8.5</ele></trkpt>
   <trkpt lon="151.206719" lat="-33.855585"><ele>8.75</ele></trkpt>
   <trkpt lon="151.206834" lat="-33.855494"><ele>10.25</ele></trkpt>
   <trkpt lon="151.206844" lat="-33.855514"><ele>10.25</ele></trkpt>
   <trkpt lon="151.206934" lat="-33.855654"><ele>10.75</ele></trkpt>
   <trkpt lon="151.207007" lat="-33.855986"><ele>13.25</ele></trkpt>
   <trkpt lon="151.207045" lat="-33.855959"><ele>13.5</ele></trkpt>
   <trkpt lon="151.207073" lat="-33.856003"><ele>14.25</ele></trkpt>
   <trkpt lon="151.207078" lat="-33.856046"><ele>14.75</ele></trkpt>
   <trkpt lon="151.207066" lat="-33.856093"><ele>15.25</ele></trkpt>
   <trkpt lon="151.207032" lat="-33.856136"><ele>15.25</ele></trkpt>
   <trkpt lon="151.206787" lat="-33.856325"><ele>14.25</ele></trkpt>
   <trkpt lon="151.206693" lat="-33.856440"><ele>14.5</ele></trkpt>
   <trkpt lon="151.206703" lat="-33.856502"><ele>15.5</ele></trkpt>
   <trkpt lon="151.206761" lat="-33.856494"><ele>16.0</ele></trkpt>
   <trkpt lon="151.206764" lat="-33.856509"><ele>16.25</ele></trkpt>
   <trkpt lon="151.206698" lat="-33.856517"><ele>15.5</ele></trkpt>
   <trkpt lon="151.206685" lat="-33.856517"><ele>15.25</ele></trkpt>
   <trkpt lon="151.206687" lat="-33.856543"><ele>15.75</ele></trkpt>
   <trkpt lon="151.206776" lat="-33.856535"><ele>16.75</ele></trkpt>
   <trkpt lon="151.206783" lat="-33.856528"><ele>16.75</ele></trkpt>
   <trkpt lon="151.206798" lat="-33.856516"><ele>16.75</ele></trkpt>
   <trkpt lon="151.206809" lat="-33.856524"><ele>17.0</ele></trkpt>
   <trkpt lon="151.206828" lat="-33.856538"><ele>17.5</ele></trkpt>
   <trkpt lon="151.206843" lat="-33.856551"><ele>17.75</ele></trkpt>
   <trkpt lon="151.206858" lat="-33.856565"><ele>18.25</ele></trkpt>
   <trkpt lon="151.206896" lat="-33.856594"><ele>19.0</ele></trkpt>
   <trkpt lon="151.207000" lat="-33.856669"><ele>21.25</ele></trkpt>
   <trkpt lon="151.207081" lat="-33.856594"><ele>21.5</ele></trkpt>
   <trkpt lon="151.207096" lat="-33.856605"><ele>21.75</ele></trkpt>
   <trkpt lon="151.207144" lat="-33.856640"><ele>22.75</ele></trkpt>
   <trkpt lon="151.207186" lat="-33.856669"><ele>23.75</ele></trkpt>
   <trkpt lon="151.207200" lat="-33.856678"><ele>24.0</ele></trkpt>
   <trkpt lon="151.207245" lat="-33.856641"><ele>24.25</ele></trkpt>
   <trkpt lon="151.207308" lat="-33.856626"><ele>24.75</ele></trkpt>
   <trkpt lon="151.207336" lat="-33.856629"><ele>25.25</ele></trkpt>
   <trkpt lon="151.207589" lat="-33.856732"><ele>27.75</ele></trkpt>
   <trkpt lon="151.207729" lat="-33.856807"><ele>27.0</ele></trkpt>
   <trkpt lon="151.207915" lat="-33.856925"><ele>26.0</ele></trkpt>
   <trkpt lon="151.207963" lat="-33.856979"><ele>26.0</ele></trkpt>
   <trkpt lon="151.207980" lat="-33.857015"><ele>26.0</ele></trkpt>
   <trkpt lon="151.207977" lat="-33.857039"><ele>26.25</ele></trkpt>
   <trkpt lon="151.207616" lat="-33.857675"><ele>33.25</ele></trkpt>
   <trkpt lon="151.207408" lat="-33.858100"><ele>34.0</ele></trkpt>
   <trkpt lon="151.207137" lat="-33.858758"><ele>33.0</ele></trkpt>
   <trkpt lon="151.207037" lat="-33.858744"><ele>33.75</ele></trkpt>
   <trkpt lon="151.206976" lat="-33.858717"><ele>33.75</ele></trkpt>
   <trkpt lon="151.206903" lat="-33.858686"><ele>33.75</ele></trkpt>
   <trkpt lon="151.207175" lat="-33.858263"><ele>33.75</ele></trkpt>
   <trkpt lon="151.209079" lat="-33.855205"><ele>33.75</ele></trkpt>
   <trkpt lon="151.207175" lat="-33.858263"><ele>33.75</ele></trkpt>
   <trkpt lon="151.206903" lat="-33.858686"><ele>33.75</ele></trkpt>
   <trkpt lon="151.206976" lat="-33.858717"><ele>33.75</ele></trkpt>
   <trkpt lon="151.207037" lat="-33.858744"><ele>33.75</ele></trkpt>
   <trkpt lon="151.207137" lat="-33.858758"><ele>33.0</ele></trkpt>
   <trkpt lon="151.207103" lat="-33.858836"><ele>33.25</ele></trkpt>
   <trkpt lon="151.207038" lat="-33.859001"><ele>34.0</ele></trkpt>
   <trkpt lon="151.206996" lat="-33.859079"><ele>34.5</ele></trkpt>
   <trkpt lon="151.206980" lat="-33.859118"><ele>35.0</ele></trkpt>
   <trkpt lon="151.206949" lat="-33.859199"><ele>35.25</ele></trkpt>
   <trkpt lon="151.206973" lat="-33.859205"><ele>35.0</ele></trkpt>
   <trkpt lon="151.207022" lat="-33.859220"><ele>34.25</ele></trkpt>
   <trkpt lon="151.207076" lat="-33.859236"><ele>33.25</ele></trkpt>
   <trkpt lon="151.207089" lat="-33.859240"><ele>33.25</ele></trkpt>
   <trkpt lon="151.207143" lat="-33.859110"><ele>32.5</ele></trkpt>
   <trkpt lon="151.207178" lat="-33.859074"><ele>32.0</ele></trkpt>
   <trkpt lon="151.207198" lat="-33.859043"><ele>31.75</ele></trkpt>
   <trkpt lon="151.207264" lat="-33.858878"><ele>31.5</ele></trkpt>
   <trkpt lon="151.207272" lat="-33.858857"><ele>31.5</ele></trkpt>
   <trkpt lon="151.207307" lat="-33.858862"><ele>31.25</ele></trkpt>
   <trkpt lon="151.207364" lat="-33.858824"><ele>31.0</ele></trkpt>
   <trkpt lon="151.207378" lat="-33.858833"><ele>30.75</ele></trkpt>
   <trkpt lon="151.207755" lat="-33.858474"><ele>30.0</ele></trkpt>
   <trkpt lon="151.207843" lat="-33.858391"><ele>29.75</ele></trkpt>
   <trkpt lon="151.207864" lat="-33.858370"><ele>29.75</ele></trkpt>
   <trkpt lon="151.207907" lat="-33.858383"><ele>29.0</ele></trkpt>
   <trkpt lon="151.207979" lat="-33.858401"><ele>28.25</ele></trkpt>
   <trkpt lon="151.207995" lat="-33.858383"><ele>28.25</ele></trkpt>
   <trkpt lon="151.208023" lat="-33.858389"><ele>27.75</ele></trkpt>
   <trkpt lon="151.208088" lat="-33.858403"><ele>27.0</ele></trkpt>
   <trkpt lon="151.208080" lat="-33.858424"><ele>27.0</ele></trkpt>
   <trkpt lon="151.208085" lat="-33.858437"><ele>26.75</ele></trkpt>
   <trkpt lon="151.208106" lat="-33.858424"><ele>26.75</ele></trkpt>
   <trkpt lon="151.208139" lat="-33.858342"><ele>27.0</ele></trkpt>
   <trkpt lon="151.208169" lat="-33.858348"><ele>26.5</ele></trkpt>
   <trkpt lon="151.208274" lat="-33.858374"><ele>25.25</ele></trkpt>
   <trkpt lon="151.208316" lat="-33.858256"><ele>25.0</ele></trkpt>
   <trkpt lon="151.208368" lat="-33.858110"><ele>24.75</ele></trkpt>
   <trkpt lon="151.208383" lat="-33.858066"><ele>24.5</ele></trkpt>
   <trkpt lat="-33.858110" lon="151.208368"><ele>24.75</ele></trkpt><trkpt lat="-33.858256" lon="151.208316"><ele>25.0</ele></trkpt><trkpt lat="-33.858374" lon="151.208274"><ele>25.25</ele></trkpt><trkpt lat="-33.858348" lon="151.208169"><ele>26.5</ele></trkpt><trkpt lat="-33.858342" lon="151.208139"><ele>27.0</ele></trkpt><trkpt lat="-33.858424" lon="151.208106"><ele>26.75</ele></trkpt><trkpt lat="-33.858437" lon="151.208085"><ele>26.75</ele></trkpt><trkpt lat="-33.858424" lon="151.208080"><ele>27.0</ele></trkpt><trkpt lat="-33.858403" lon="151.208088"><ele>27.0</ele></trkpt><trkpt lat="-33.858389" lon="151.208023"><ele>27.75</ele></trkpt><trkpt lat="-33.858383" lon="151.207995"><ele>28.25</ele></trkpt><trkpt lat="-33.858401" lon="151.207979"><ele>28.25</ele></trkpt><trkpt lat="-33.858383" lon="151.207907"><ele>29.0</ele></trkpt><trkpt lat="-33.858370" lon="151.207864"><ele>29.75</ele></trkpt><trkpt lat="-33.858391" lon="151.207843"><ele>29.75</ele></trkpt><trkpt lat="-33.858474" lon="151.207755"><ele>30.0</ele></trkpt><trkpt lat="-33.858833" lon="151.207378"><ele>30.75</ele></trkpt><trkpt lat="-33.858824" lon="151.207364"><ele>31.0</ele></trkpt><trkpt lat="-33.858862" lon="151.207307"><ele>31.25</ele></trkpt><trkpt lat="-33.858857" lon="151.207272"><ele>31.5</ele></trkpt><trkpt lat="-33.858878" lon="151.207264"><ele>31.5</ele></trkpt><trkpt lat="-33.859043" lon="151.207198"><ele>31.75</ele></trkpt><trkpt lat="-33.859074" lon="151.207178"><ele>32.0</ele></trkpt><trkpt lat="-33.859110" lon="151.207143"><ele>32.5</ele></trkpt><trkpt lat="-33.859240" lon="151.207089"><ele>33.25</ele></trkpt><trkpt lat="-33.859236" lon="151.207076"><ele>33.25</ele></trkpt><trkpt lat="-33.859220" lon="151.207022"><ele>34.25</ele></trkpt><trkpt lat="-33.859205" lon="151.206973"><ele>35.0</ele></trkpt><trkpt lat="-33.859199" lon="151.206949"><ele>35.25</ele></trkpt><trkpt lat="-33.859118" lon="151.206980"><ele>35.0</ele></trkpt><trkpt lat="-33.859079" lon="151.206996"><ele>34.5</ele></trkpt><trkpt lat="-33.859001" lon="151.207038"><ele>34.0</ele></trkpt><trkpt lat="-33.858836" lon="151.207103"><ele>33.25</ele></trkpt><trkpt lat="-33.858758" lon="151.207137"><ele>33.0</ele></trkpt><trkpt lat="-33.858744" lon="151.207037"><ele>33.75</ele></trkpt><trkpt lat="-33.858717" lon="151.206976"><ele>33.75</ele></trkpt><trkpt lat="-33.858686" lon="151.206903"><ele>33.75</ele></trkpt><trkpt lat="-33.858263" lon="151.207175"><ele>33.75</ele></trkpt><trkpt lat="-33.855205" lon="151.209079"><ele>33.75</ele></trkpt><trkpt lat="-33.858263" lon="151.207175"><ele>33.75</ele></trkpt><trkpt lat="-33.858686" lon="151.206903"><ele>33.75</ele></trkpt><trkpt lat="-33.858717" lon="151.206976"><ele>33.75</ele></trkpt><trkpt lat="-33.858744" lon="151.207037"><ele>33.75</ele></trkpt><trkpt lat="-33.858758" lon="151.207137"><ele>33.0</ele></trkpt><trkpt lat="-33.858100" lon="151.207408"><ele>34.0</ele></trkpt><trkpt lat="-33.857675" lon="151.207616"><ele>33.25</ele></trkpt><trkpt lat="-33.857039" lon="151.207977"><ele>26.25</ele></trkpt><trkpt lat="-33.857015" lon="151.207980"><ele>26.0</ele></trkpt><trkpt lat="-33.856979" lon="151.207963"><ele>26.0</ele></trkpt><trkpt lat="-33.856925" lon="151.207915"><ele>26.0</ele></trkpt><trkpt lat="-33.856807" lon="151.207729"><ele>27.0</ele></trkpt><trkpt lat="-33.856732" lon="151.207589"><ele>27.75</ele></trkpt><trkpt lat="-33.856629" lon="151.207336"><ele>25.25</ele></trkpt><trkpt lat="-33.856626" lon="151.207308"><ele>24.75</ele></trkpt><trkpt lat="-33.856641" lon="151.207245"><ele>24.25</ele></trkpt><trkpt lat="-33.856678" lon="151.207200"><ele>24.0</ele></trkpt><trkpt lat="-33.856669" lon="151.207186"><ele>23.75</ele></trkpt><trkpt lat="-33.856640" lon="151.207144"><ele>22.75</ele></trkpt><trkpt lat="-33.856605" lon="151.207096"><ele>21.75</ele></trkpt><trkpt lat="-33.856594" lon="151.207081"><ele>21.5</ele></trkpt><trkpt lat="-33.856669" lon="151.207000"><ele>21.25</ele></trkpt><trkpt lat="-33.856594" lon="151.206896"><ele>19.0</ele></trkpt><trkpt lat="-33.856565" lon="151.206858"><ele>18.25</ele></trkpt><trkpt lat="-33.856551" lon="151.206843"><ele>17.75</ele></trkpt><trkpt lat="-33.856538" lon="151.206828"><ele>17.5</ele></trkpt><trkpt lat="-33.856524" lon="151.206809"><ele>17.0</ele></trkpt><trkpt lat="-33.856516" lon="151.206798"><ele>16.75</ele></trkpt><trkpt lat="-33.856528" lon="151.206783"><ele>16.75</ele></trkpt><trkpt lat="-33.856535" lon="151.206776"><ele>16.75</ele></trkpt><trkpt lat="-33.856543" lon="151.206687"><ele>15.75</ele></trkpt><trkpt lat="-33.856517" lon="151.206685"><ele>15.25</ele></trkpt><trkpt lat="-33.856517" lon="151.206698"><ele>15.5</ele></trkpt><trkpt lat="-33.856509" lon="151.206764"><ele>16.25</ele></trkpt><trkpt lat="-33.856494" lon="151.206761"><ele>16.0</ele></trkpt><trkpt lat="-33.856502" lon="151.206703"><ele>15.5</ele></trkpt><trkpt lat="-33.856440" lon="151.206693"><ele>14.5</ele></trkpt><trkpt lat="-33.856325" lon="151.206787"><ele>14.25</ele></trkpt><trkpt lat="-33.856136" lon="151.207032"><ele>15.25</ele></trkpt><trkpt lat="-33.856093" lon="151.207066"><ele>15.25</ele></trkpt><trkpt lat="-33.856046" lon="151.207078"><ele>14.75</ele></trkpt><trkpt lat="-33.856003" lon="151.207073"><ele>14.25</ele></trkpt><trkpt lat="-33.855959" lon="151.207045"><ele>13.5</ele></trkpt><trkpt lat="-33.855986" lon="151.207007"><ele>13.25</ele></trkpt><trkpt lat="-33.855654" lon="151.206934"><ele>10.75</ele></trkpt><trkpt lat="-33.855514" lon="151.206844"><ele>10.25</ele></trkpt><trkpt lat="-33.855494" lon="151.206834"><ele>10.25</ele></trkpt><trkpt lat="-33.855585" lon="151.206719"><ele>8.75</ele></trkpt><trkpt lat="-33.855605" lon="151.206694"><ele>8.5</ele></trkpt><trkpt lat="-33.855644" lon="151.206644"><ele>8.0</ele></trkpt><trkpt lat="-33.855685" lon="151.206594"><ele>7.5</ele></trkpt><trkpt lat="-33.855890" lon="151.206322"><ele>7.0</ele></trkpt><trkpt lat="-33.855801" lon="151.206282"><ele>6.5</ele></trkpt><trkpt lat="-33.855818" lon="151.206222"><ele>6.25</ele></trkpt><trkpt lat="-33.855823" lon="151.206204"><ele>6.25</ele></trkpt><trkpt lat="-33.855892" lon="151.205963"><ele>6.25</ele></trkpt><trkpt lat="-33.855912" lon="151.205894"><ele>6.25</ele></trkpt><trkpt lat="-33.855104" lon="151.205557"><ele>6.25</ele></trkpt><trkpt lat="-33.855912" lon="151.205894"><ele>6.25</ele></trkpt><trkpt lat="-33.855892" lon="151.205963"><ele>6.25</ele></trkpt><trkpt lat="-33.855823" lon="151.206204"><ele>6.25</ele></trkpt><trkpt lat="-33.855818" lon="151.206222"><ele>6.25</ele></trkpt><trkpt lat="-33.855801" lon="151.206282"><ele>6.5</ele></trkpt><trkpt lat="-33.855890" lon="151.206322"><ele>7.0</ele></trkpt><trkpt lat="-33.855685" lon="151.206594"><ele>7.5</ele></trkpt><trkpt lat="-33.855644" lon="151.206644"><ele>8.0</ele></trkpt><trkpt lat="-33.855605" lon="151.206694"><ele>8.5</ele></trkpt><trkpt lat="-33.855585" lon="151.206719"><ele>8.75</ele></trkpt><trkpt lat="-33.855494" lon="151.206834"><ele>10.25</ele></trkpt><trkpt lat="-33.855514" lon="151.206844"><ele>10.25</ele></trkpt><trkpt lat="-33.855654" lon="151.206934"><ele>10.75</ele></trkpt><trkpt lat="-33.855986" lon="151.207007"><ele>13.25</ele></trkpt><trkpt lat="-33.855959" lon="151.207045"><ele>13.5</ele></trkpt><trkpt lat="-33.856003" lon="151.207073"><ele>14.25</ele></trkpt><trkpt lat="-33.856046" lon="151.207078"><ele>14.75</ele></trkpt><trkpt lat="-33.856093" lon="151.207066"><ele>15.25</ele></trkpt><trkpt lat="-33.856136" lon="151.207032"><ele>15.25</ele></trkpt><trkpt lat="-33.856325" lon="151.206787"><ele>14.25</ele></trkpt><trkpt lat="-33.856440" lon="151.206693"><ele>14.5</ele></trkpt><trkpt lat="-33.856502" lon="151.206703"><ele>15.5</ele></trkpt><trkpt lat="-33.856494" lon="151.206761"><ele>16.0</ele></trkpt><trkpt lat="-33.856509" lon="151.206764"><ele>16.25</ele></trkpt><trkpt lat="-33.856517" lon="151.206698"><ele>15.5</ele></trkpt><trkpt lat="-33.856517" lon="151.206685"><ele>15.25</ele></trkpt><trkpt lat="-33.856543" lon="151.206687"><ele>15.75</ele></trkpt><trkpt lat="-33.856535" lon="151.206776"><ele>16.75</ele></trkpt><trkpt lat="-33.856531" lon="151.206780"><ele>16.75</ele></trkpt><trkpt lat="-33.856535" lon="151.206776"><ele>16.75</ele></trkpt><trkpt lat="-33.856543" lon="151.206687"><ele>15.75</ele></trkpt><trkpt lat="-33.856517" lon="151.206685"><ele>15.25</ele></trkpt><trkpt lat="-33.856517" lon="151.206698"><ele>15.5</ele></trkpt><trkpt lat="-33.856509" lon="151.206764"><ele>16.25</ele></trkpt><trkpt lat="-33.856494" lon="151.206761"><ele>16.0</ele></trkpt><trkpt lat="-33.856502" lon="151.206703"><ele>15.5</ele></trkpt><trkpt lat="-33.856440" lon="151.206693"><ele>14.5</ele></trkpt><trkpt lat="-33.856437" lon="151.206536"><ele>13.0</ele></trkpt><trkpt lat="-33.856454" lon="151.206467"><ele>12.75</ele></trkpt><trkpt lat="-33.856472" lon="151.206431"><ele>12.5</ele></trkpt><trkpt lat="-33.856555" lon="151.206320"><ele>12.25</ele></trkpt><trkpt lat="-33.856665" lon="151.206157"><ele>11.25</ele></trkpt><trkpt lat="-33.856836" lon="151.205934"><ele>11.25</ele></trkpt><trkpt lat="-33.857032" lon="151.205565"><ele>12.25</ele></trkpt><trkpt lat="-33.857078" lon="151.205500"><ele>13.0</ele></trkpt><trkpt lat="-33.857130" lon="151.205444"><ele>13.5</ele></trkpt><trkpt lat="-33.857169" lon="151.205412"><ele>14.0</ele></trkpt><trkpt lat="-33.857240" lon="151.205382"><ele>15.0</ele></trkpt><trkpt lat="-33.857281" lon="151.205376"><ele>15.75</ele></trkpt><trkpt lat="-33.857492" lon="151.205368"><ele>18.75</ele></trkpt><trkpt lat="-33.857517" lon="151.205368"><ele>19.0</ele></trkpt><trkpt lat="-33.857539" lon="151.205369"><ele>19.25</ele></trkpt><trkpt lat="-33.857616" lon="151.205369"><ele>20.0</ele></trkpt><trkpt lat="-33.857642" lon="151.204094"><ele>17.75</ele></trkpt><trkpt lat="-33.857655" lon="151.203618"><ele>17.5</ele></trkpt><trkpt lat="-33.857659" lon="151.203486"><ele>17.25</ele></trkpt><trkpt lat="-33.857672" lon="151.203014"><ele>17.25</ele></trkpt><trkpt lat="-33.857660" lon="151.202991"><ele>17.25</ele></trkpt><trkpt lat="-33.857539" lon="151.202756"><ele>16.75</ele></trkpt><trkpt lat="-33.857509" lon="151.202693"><ele>16.75</ele></trkpt><trkpt lat="-33.857461" lon="151.202597"><ele>16.25</ele></trkpt><trkpt lat="-33.857671" lon="151.202498"><ele>17.0</ele></trkpt><trkpt lat="-33.857784" lon="151.202442"><ele>16.5</ele></trkpt><trkpt lat="-33.857849" lon="151.202433"><ele>16.5</ele></trkpt><trkpt lat="-33.857839" lon="151.202339"><ele>15.5</ele></trkpt><trkpt lat="-33.857875" lon="151.202342"><ele>15.5</ele></trkpt><trkpt lat="-33.857887" lon="151.202345"><ele>15.5</ele></trkpt><trkpt lat="-33.857879" lon="151.202297"><ele>15.0</ele></trkpt><trkpt lat="-33.857879" lon="151.202249"><ele>14.25</ele></trkpt><trkpt lat="-33.857969" lon="151.201910"><ele>10.25</ele></trkpt><trkpt lat="-33.857969" lon="151.201865"><ele>9.75</ele></trkpt><trkpt lat="-33.857935" lon="151.201797"><ele>9.0</ele></trkpt><trkpt lat="-33.857929" lon="151.201574"><ele>7.0</ele></trkpt><trkpt lat="-33.857965" lon="151.201557"><ele>7.0</ele></trkpt><trkpt lat="-33.858046" lon="151.201539"><ele>6.75</ele></trkpt><trkpt lat="-33.858099" lon="151.201539"><ele>6.75</ele></trkpt><trkpt lat="-33.858283" lon="151.201533"><ele>6.5</ele></trkpt><trkpt lat="-33.858283" lon="151.201520"><ele>6.5</ele></trkpt><trkpt lat="-33.858288" lon="151.201519"><ele>6.5</ele></trkpt><trkpt lat="-33.858287" lon="151.201466"><ele>6.5</ele></trkpt><trkpt lat="-33.858324" lon="151.201464"><ele>6.5</ele></trkpt><trkpt lat="-33.858330" lon="151.201408"><ele>6.25</ele></trkpt><trkpt lat="-33.858377" lon="151.201334"><ele>6.0</ele></trkpt><trkpt lat="-33.858431" lon="151.201287"><ele>5.5</ele></trkpt><trkpt lat="-33.858465" lon="151.201243"><ele>5.25</ele></trkpt><trkpt lat="-33.858482" lon="151.201188"><ele>5.0</ele></trkpt><trkpt lat="-33.858482" lon="151.201165"><ele>5.0</ele></trkpt></trkseg></trk></gpx>