<?xml version='1.0' encoding='UTF-8'?>
<gpx xmlns="http://www.topografix.com/GPX/1/1" version="1.1" creator="running-dashboard"><metadata><name>윤호 14km — 바랑가루 롱런 (솔로 6km + 커플 8km)</name></metadata><trk><name>윤호 14km — 바랑가루 롱런 (솔로 6km + 커플 8km)</name><trkseg><trkpt lon="151.201165" lat="-33.858482"><ele>5.0</ele></trkpt>
   <trkpt lon="151.201188" lat="-33.858482"><ele>5.0</ele></trkpt>
   <trkpt lon="151.201243" lat="-33.858465"><ele>5.25</ele></trkpt>
   <trkpt lon="151.201287" lat="-33.858431"><ele>5.5</ele></trkpt>
   <trkpt lon="151.201334" lat="-33.858377"><ele>6.0</ele></trkpt>
   <trkpt lon="151.201408" lat="-33.858330"><ele>6.25</ele></trkpt>
   <trkpt lon="151.201464" lat="-33.858324"><ele>6.5</ele></trkpt>
   <trkpt lon="151.201466" lat="-33.858287"><ele>6.5</ele></trkpt>
   <trkpt lon="151.201519" lat="-33.858288"><ele>6.5</ele></trkpt>
   <trkpt lon="151.201520" lat="-33.858283"><ele>6.5</ele></trkpt>
   <trkpt lon="151.201533" lat="-33.858283"><ele>6.5</ele></trkpt>
   <trkpt lon="151.201539" lat="-33.858099"><ele>6.75</ele></trkpt>
   <trkpt lon="151.201539" lat="-33.858046"><ele>6.75</ele></trkpt>
   <trkpt lon="151.201557" lat="-33.857965"><ele>7.0</ele></trkpt>
   <trkpt lon="151.201574" lat="-33.857929"><ele>7.0</ele></trkpt>
   <trkpt lon="151.201797" lat="-33.857935"><ele>9.0</ele></trkpt>
   <trkpt lon="151.201865" lat="-33.857969"><ele>9.75</ele></trkpt>
   <trkpt lon="151.201910" lat="-33.857969"><ele>10.25</ele></trkpt>
   <trkpt lon="151.202249" lat="-33.857879"><ele>14.25</ele></trkpt>
   <trkpt lon="151.202297" lat="-33.857879"><ele>15.0</ele></trkpt>
   <trkpt lon="151.202345" lat="-33.857887"><ele>15.5</ele></trkpt>
   <trkpt lon="151.202342" lat="-33.857875"><ele>15.5</ele></trkpt>
   <trkpt lon="151.202339" lat="-33.857839"><ele>15.5</ele></trkpt>
   <trkpt lon="151.202433" lat="-33.857849"><ele>16.5</ele></trkpt>
   <trkpt lon="151.202442" lat="-33.857784"><ele>16.5</ele></trkpt>
   <trkpt lon="151.202498" lat="-33.857671"><ele>17.0</ele></trkpt>
   <trkpt lon="151.202597" lat="-33.857461"><ele>16.25</ele></trkpt>
   <trkpt lon="151.202693" lat="-33.857509"><ele>16.75</ele></trkpt>
   <trkpt lon="151.202732" lat="-33.857457"><ele>16.0</ele></trkpt>
   <trkpt lon="151.202753" lat="-33.857430"><ele>15.75</ele></trkpt>
   <trkpt lon="151.202781" lat="-33.857412"><ele>15.5</ele></trkpt>
   <trkpt lon="151.202680" lat="-33.857161"><ele>12.25</ele></trkpt>
   <trkpt lon="151.202689" lat="-33.857158"><ele>12.25</ele></trkpt>
   <trkpt lon="151.202702" lat="-33.857154"><ele>12.25</ele></trkpt>
   <trkpt lon="151.202723" lat="-33.857143"><ele>12.25</ele></trkpt>
   <trkpt lon="151.202731" lat="-33.857106"><ele>11.75</ele></trkpt>
   <trkpt lon="151.202743" lat="-33.857090"><ele>11.5</ele></trkpt>
   <trkpt lon="151.202822" lat="-33.856997"><ele>10.25</ele></trkpt>
   <trkpt lon="151.202843" lat="-33.857013"><ele>10.5</ele></trkpt>
   <trkpt lon="151.202888" lat="-33.856973"><ele>10.0</ele></trkpt>
   <trkpt lon="151.202932" lat="-33.856949"><ele>9.75</ele></trkpt>
   <trkpt lon="151.202970" lat="-33.856949"><ele>9.75</ele></trkpt>
   <trkpt lon="151.203011" lat="-33.856969"><ele>10.0</ele></trkpt>
   <trkpt lon="151.203025" lat="-33.856954"><ele>9.75</ele></trkpt>
   <trkpt lon="151.203194" lat="-33.857057"><ele>11.0</ele></trkpt>
   <trkpt lon="151.203235" lat="-33.857083"><ele>11.5</ele></trkpt>
   <trkpt lon="151.203247" lat="-33.857097"><ele>11.5</ele></trkpt>
   <trkpt lon="151.203259" lat="-33.857110"><ele>11.75</ele></trkpt>
   <trkpt lon="151.203397" lat="-33.857047"><ele>11.25</ele></trkpt>
   <trkpt lon="151.203420" lat="-33.857034"><ele>11.25</ele></trkpt>
   <trkpt lon="151.203435" lat="-33.857003"><ele>11.0</ele></trkpt>
   <trkpt lon="151.203455" lat="-33.857001"><ele>11.25</ele></trkpt>
   <trkpt lon="151.203533" lat="-33.856962"><ele>11.25</ele></trkpt>
   <trkpt lon="151.203622" lat="-33.856919"><ele>11.5</ele></trkpt>
   <trkpt lon="151.203727" lat="-33.856826"><ele>11.25</ele></trkpt>
   <trkpt lon="151.203974" lat="-33.856905"><ele>13.5</ele></trkpt>
   <trkpt lon="151.203990" lat="-33.856905"><ele>13.5</ele></trkpt>
   <trkpt lon="151.204069" lat="-33.856904"><ele>14.0</ele></trkpt>
   <trkpt lon="151.204067" lat="-33.856884"><ele>14.0</ele></trkpt>
   <trkpt lon="151.204059" lat="-33.856825"><ele>13.75</ele></trkpt>
   <trkpt lon="151.204044" lat="-33.856713"><ele>13.0</ele></trkpt>
   <trkpt lon="151.204039" lat="-33.856680"><ele>12.75</ele></trkpt>
   <trkpt lon="151.204173" lat="-33.856675"><ele>13.75</ele></trkpt>
   <trkpt lon="151.204417" lat="-33.856674"><ele>11.5</ele></trkpt>
   <trkpt lon="151.204666" lat="-33.856670"><ele>9.0</ele></trkpt>
   <trkpt lon="151.204987" lat="-33.856646"><ele>6.0</ele></trkpt>
   <trkpt lon="151.205024" lat="-33.856638"><ele>6.0</ele></trkpt>
   <trkpt lon="151.205164" lat="-33.856605"><ele>6.25</ele></trkpt>
   <trkpt lon="151.205260" lat="-33.856571"><ele>6.5</ele></trkpt>
   <trkpt lon="151.205366" lat="-33.856528"><ele>6.5</ele></trkpt>
   <trkpt lon="151.205450" lat="-33.856485"><ele>6.75</ele></trkpt>
   <trkpt lon="151.205567" lat="-33.856426"><ele>6.75</ele></trkpt>
   <trkpt lon="151.205773" lat="-33.856291"><ele>7.0</ele></trkpt>
   <trkpt lon="151.205816" lat="-33.856255"><ele>6.75</ele></trkpt>
   <trkpt lon="151.205953" lat="-33.856142"><ele>7.25</ele></trkpt>
   <trkpt lon="151.205980" lat="-33.856119"><ele>7.25</ele></trkpt>
   <trkpt lon="151.205894" lat="-33.855912"><ele>6.25</ele></trkpt>
   <trkpt lon="151.205557" lat="-33.855104"><ele>6.25</ele></trkpt>
   <trkpt lon="151.205894" lat="-33.855912"><ele>6.25</ele></trkpt>
   <trkpt lon="151.205963" lat="-33.855892"><ele>6.25</ele></trkpt>
   <trkpt lon="151.206204" lat="-33.855823"><ele>6.25</ele></trkpt>
   <trkpt lon="151.206222" lat="-33.855818"><ele>6.25</ele></trkpt>
   <trkpt lon="151.206282" lat="-33.855801"><ele>6.5</ele></trkpt>
   <trkpt lon="151.206322" lat="-33.855890"><ele>7.0</ele></trkpt>
   <trkpt lon="151.206594" lat="-33.855685"><ele>7.5</ele></trkpt>
   <trkpt lon="151.206644" lat="-33.855644"><ele>8.0</ele></trkpt>
   <trkpt lon="151.206694" lat="-33.855605"><ele>8.5</ele></trkpt>
   <trkpt lon="151.206719" lat="-33.855585"><ele>8.75</ele></trkpt>
   <trkpt lon="151.206834" lat="-33.855494"><ele>10.25</ele></trkpt>
   <trkpt lon="151.206844" lat="-33.855514"><ele>10.25</ele></trkpt>
   <trkpt lon="151.206934" lat="-33.855654"><ele>10.75</ele></trkpt>
   <trkpt lon="151.207007" lat="-33.855986"><ele>13.25</ele></trkpt>
   <trkpt lon="151.207045" lat="-33.855959"><ele>13.5</ele></trkpt>
   <trkpt lon="151.207073" lat="-33.856003"><ele>14.25</ele></trkpt>
   <trkpt lon="151.207078" lat="-33.856046"><ele>14.75</ele></trkpt>
   <trkpt lon="151.207066" lat="-33.856093"><ele>15.25</ele></trkpt>
   <trkpt lon="151.207032" lat="-33.856136"><ele>15.25</ele></trkpt>
   <trkpt lon="151.206787" lat="-33.856325"><ele>14.25</ele></trkpt>
   <trkpt lon="151.206693" lat="-33.856440"><ele>14.5</ele></trkpt>
   <trkpt lon="151.206703" lat="-33.856502"><ele>15.5</ele></trkpt>
   <trkpt lon="151.206761" lat="-33.856494"><ele>16.0</ele></trkpt>
   <trkpt lon="151.206764" lat="-33.856509"><ele>16.25</ele></trkpt>
   <trkpt lon="151.206698" lat="-33.856517"><ele>15.5</ele></trkpt>
   <trkpt lon="151.206685" lat="-33.856517"><ele>15.25</ele></trkpt>
   <trkpt lon="151.206687" lat="-33.856543"><ele>15.75</ele></trkpt>
   <trkpt lon="151.206776" lat="-33.856535"><ele>16.75</ele></trkpt>
   <trkpt lon="151.206783" lat="-33.856528"><ele>16.75</ele></trkpt>
   <trkpt lon="151.206798" lat="-33.856516"><ele>16.75</ele></trkpt>
   <trkpt lon="151.206809" lat="-33.856524"><ele>17.0</ele></trkpt>
   <trkpt lon="151.206828" lat="-33.856538"><ele>17.5</ele></trkpt>
   <trkpt lon="151.206843" lat="-33.856551"><ele>17.75</ele></trkpt>
   <trkpt lon="151.206858" lat="-33.856565"><ele>18.25</ele></trkpt>
   <trkpt lon="151.206896" lat="-33.856594"><ele>19.0</ele></trkpt>
   <trkpt lon="151.207000" lat="-33.856669"><ele>21.25</ele></trkpt>
   <trkpt lon="151.207081" lat="-33.856594"><ele>21.5</ele></trkpt>
   <trkpt lon="151.207096" lat="-33.856605"><ele>21.75</ele></trkpt>
   <trkpt lon="151.207144" lat="-33.856640"><ele>22.75</ele></trkpt>
   <trkpt lon="151.207186" lat="-33.856669"><ele>23.75</ele></trkpt>
   <trkpt lon="151.207200" lat="-33.856678"><ele>24.0</ele></trkpt>
   <trkpt lon="151.207245" lat="-33.856641"><ele>24.25</ele></trkpt>
   <trkpt lon="151.207308" lat="-33.856626"><ele>24.75</ele></trkpt>
   <trkpt lon="151.207336" lat="-33.856629"><ele>25.25</ele></trkpt>
   <trkpt lon="151.207589" lat="-33.856732"><ele>27.75</ele></trkpt>
   <trkpt lon="151.207729" lat="-33.856807"><ele>27.0</ele></trkpt>
   <trkpt lon="151.207915" lat="-33.856925"><ele>26.0</ele></trkpt>
   <trkpt lon="151.207963" lat="-33.856979"><ele>26.0</ele></trkpt>
   <trkpt lon="151.207980" lat="-33.857015"><ele>26.0</ele></trkpt>
   <trkpt lon="151.207977" lat="-33.857039"><ele>26.25</ele></trkpt>
   <trkpt lon="151.207616" lat="-33.857675"><ele>33.25</ele></trkpt>
   <trkpt lon="151.207408" lat="-33.858100"><ele>34.0</ele></trkpt>
   <trkpt lon="151.207137" lat="-33.858758"><ele>33.0</ele></trkpt>
   <trkpt lon="151.207037" lat="-33.858744"><ele>33.75</ele></trkpt>
   <trkpt lon="151.206976" lat="-33.858717"><ele>33.75</ele></trkpt>
   <trkpt lon="151.206903" lat="-33.858686"><ele>33.75</ele></trkpt>
   <trkpt lon="151.207175" lat="-33.858263"><ele>33.75</ele></trkpt>
   <trkpt lon="151.209079" lat="-33.855205"><ele>33.75</ele></trkpt>
   <trkpt lon="151.207175" lat="-33.858263"><ele>33.75</ele></trkpt>
   <trkpt lon="151.206903" lat="-33.858686"><ele>33.75</ele></trkpt>
   <trkpt lon="151.206976" lat="-33.858717"><ele>33.75</ele></trkpt>
   <trkpt lon="151.207037" lat="-33.858744"><ele>33.75</ele></trkpt>
   <trkpt lon="151.207137" lat="-33.858758"><ele>33.0</ele></trkpt>
   <trkpt lon="151.207103" lat="-33.858836"><ele>33.25</ele></trkpt>
   <trkpt lon="151.207038" lat="-33.859001"><ele>34.0</ele></trkpt>
   <trkpt lon="151.206996" lat="-33.859079"><ele>34.5</ele></trkpt>
   <trkpt lon="151.206980" lat="-33.859118"><ele>35.0</ele></trkpt>
   <trkpt lon="151.206949" lat="-33.859199"><ele>35.25</ele></trkpt>
   <trkpt lon="151.206973" lat="-33.859205"><ele>35.0</ele></trkpt>
   <trkpt lon="151.207022" lat="-33.859220"><ele>34.25</ele></trkpt>
   <trkpt lon="151.207076" lat="-33.859236"><ele>33.25</ele></trkpt>
   <trkpt lon="151.207089" lat="-33.859240"><ele>33.25</ele></trkpt>
   <trkpt lon="151.207052" lat="-33.859328"><ele>33.5</ele></trkpt>
   <trkpt lon="151.207128" lat="-33.859393"><ele>32.25</ele></trkpt>
   <trkpt lon="151.207247" lat="-33.859620"><ele>30.75</ele></trkpt>
   <trkpt lon="151.207320" lat="-33.859754"><ele>30.0</ele></trkpt>
   <trkpt lon="151.207338" lat="-33.859953"><ele>30.0</ele></trkpt>
   <trkpt lon="151.207334" lat="-33.859971"><ele>30.0</ele></trkpt>
   <trkpt lon="151.207351" lat="-33.860197"><ele>29.5</ele></trkpt>
   <trkpt lon="151.207342" lat="-33.860402"><ele>29.0</ele></trkpt>
   <trkpt lon="151.207527" lat="-33.860428"><ele>27.0</ele></trkpt>
   <trkpt lon="151.207562" lat="-33.860432"><ele>26.75</ele></trkpt>
   <trkpt lon="151.207675" lat="-33.860454"><ele>25.25</ele></trkpt>
   <trkpt lon="151.207705" lat="-33.860462"><ele>25.0</ele></trkpt>
   <trkpt lon="151.207735" lat="-33.860470"><ele>24.75</ele></trkpt>
   <trkpt lon="151.207756" lat="-33.860477"><ele>24.5</ele></trkpt>
   <trkpt lon="151.207799" lat="-33.860493"><ele>24.0</ele></trkpt>
   <trkpt lon="151.207816" lat="-33.860499"><ele>23.75</ele></trkpt>
   <trkpt lon="151.207796" lat="-33.860548"><ele>23.75</ele></trkpt>
   <trkpt lon="151.207852" lat="-33.860560"><ele>23.25</ele></trkpt>
   <trkpt lon="151.207869" lat="-33.860528"><ele>23.0</ele></trkpt>
   <trkpt lon="151.207899" lat="-33.860536"><ele>22.75</ele></trkpt>
   <trkpt lon="151.207928" lat="-33.860540"><ele>22.5</ele></trkpt>
   <trkpt lon="151.207919" lat="-33.860585"><ele>22.5</ele></trkpt>
   <trkpt lon="151.207955" lat="-33.860590"><ele>22.0</ele></trkpt>
   <trkpt lon="151.207970" lat="-33.860518"><ele>22.0</ele></trkpt>
   <trkpt lon="151.207993" lat="-33.860515"><ele>21.75</ele></trkpt>
   <trkpt lon="151.208023" lat="-33.860548"><ele>21.5</ele></trkpt>
   <trkpt lon="151.208144" lat="-33.860563"><ele>20.25</ele></trkpt>
   <trkpt lon="151.208194" lat="-33.860550"><ele>19.75</ele></trkpt>
   <trkpt lon="151.208448" lat="-33.860585"><ele>17.25</ele></trkpt>
   <trkpt lon="151.208443" lat="-33.860612"><ele>17.25</ele></trkpt>
   <trkpt lon="151.208542" lat="-33.860625"><ele>16.25</ele></trkpt>
   <trkpt lon="151.208565" lat="-33.860628"><ele>16.0</ele></trkpt>
   <trkpt lon="151.208640" lat="-33.860639"><ele>15.5</ele></trkpt>
   <trkpt lon="151.208648" lat="-33.860601"><ele>15.5</ele></trkpt>
   <trkpt lon="151.208745" lat="-33.860585"><ele>14.75</ele></trkpt>
   <trkpt lon="151.208748" lat="-33.860544"><ele>14.75</ele></trkpt>
   <trkpt lon="151.208780" lat="-33.860545"><ele>14.5</ele></trkpt>
   <trkpt lon="151.208870" lat="-33.860548"><ele>13.75</ele></trkpt>
   <trkpt lon="151.208888" lat="-33.860512"><ele>13.75</ele></trkpt>
   <trkpt lon="151.208926" lat="-33.860488"><ele>13.5</ele></trkpt>
   <trkpt lon="151.208973" lat="-33.860485"><ele>13.0</ele></trkpt>
   <trkpt lon="151.209015" lat="-33.860503"><ele>12.75</ele></trkpt>
   <trkpt lon="151.209030" lat="-33.860518"><ele>12.5</ele></trkpt>
   <trkpt lon="151.209043" lat="-33.860556"><ele>12.25</ele></trkpt>
   <trkpt lon="151.209152" lat="-33.860564"><ele>11.25</ele></trkpt>
   <trkpt lon="151.209361" lat="-33.860581"><ele>10.0</ele></trkpt>
   <trkpt lon="151.209543" lat="-33.860595"><ele>8.75</ele></trkpt>
   <trkpt lon="151.209524" lat="-33.860762"><ele>8.75</ele></trkpt>
   <trkpt lon="151.209523" lat="-33.860850"><ele>8.75</ele></trkpt>
   <trkpt lon="151.209537" lat="-33.860908"><ele>9.75</ele></trkpt>
   <trkpt lon="151.209556" lat="-33.860961"><ele>10.5</ele></trkpt>
   <trkpt lon="151.209574" lat="-33.860991"><ele>11.0</ele></trkpt>
   <trkpt lon="151.209609" lat="-33.861026"><ele>11.25</ele></trkpt>
   <trkpt lon="151.209678" lat="-33.861073"><ele>11.75</ele></trkpt>
   <trkpt lon="151.209718" lat="-33.861083"><ele>11.75</ele></trkpt>
   <trkpt lon="151.209836" lat="-33.861095"><ele>11.5</ele></trkpt>
   <trkpt lon="151.209920" lat="-33.861103"><ele>11.5</ele></trkpt>
   <trkpt lon="151.209996" lat="-33.861110"><ele>11.25</ele></trkpt>
   <trkpt lon="151.210334" lat="-33.861140"><ele>11.5</ele></trkpt>
   <trkpt lon="151.210420" lat="-33.861148"><ele>11.75</ele></trkpt>
   <trkpt lon="151.210413" lat="-33.861203"><ele>12.5</ele></trkpt>
   <trkpt lat="-33.861148" lon="151.210420"><ele>11.75</ele></trkpt><trkpt lat="-33.861140" lon="151.210334"><ele>11.5</ele></trkpt><trkpt lat="-33.861110" lon="151.209996"><ele>11.25</ele></trkpt><trkpt lat="-33.861103" lon="151.209920"><ele>11.5</ele></trkpt><trkpt lat="-33.861095" lon="151.209836"><ele>11.5</ele></trkpt><trkpt lat="-33.861083" lon="151.209718"><ele>11.75</ele></trkpt><trkpt lat="-33.861073" lon="151.209678"><ele>11.75</ele></trkpt><trkpt lat="-33.861026" lon="151.209609"><ele>11.25</ele></trkpt><trkpt lat="-33.860991" lon="151.209574"><ele>11.0</ele></trkpt><trkpt lat="-33.860961" lon="151.209556"><ele>10.5</ele></trkpt><trkpt lat="-33.860908" lon="151.209537"><ele>9.75</ele></trkpt><trkpt lat="-33.860850" lon="151.209523"><ele>8.75</ele></trkpt><trkpt lat="-33.860762" lon="151.209524"><ele>8.75</ele></trkpt><trkpt lat="-33.860595" lon="151.209543"><ele>8.75</ele></trkpt><trkpt lat="-33.860581" lon="151.209361"><ele>10.0</ele></trkpt><trkpt lat="-33.860564" lon="151.209152"><ele>11.25</ele></trkpt><trkpt lat="-33.860556" lon="151.209043"><ele>12.25</ele></trkpt><trkpt lat="-33.860518" lon="151.209030"><ele>12.5</ele></trkpt><trkpt lat="-33.860503" lon="151.209015"><ele>12.75</ele></trkpt><trkpt lat="-33.860485" lon="151.208973"><ele>13.0</ele></trkpt><trkpt lat="-33.860488" lon="151.208926"><ele>13.5</ele></trkpt><trkpt lat="-33.860512" lon="151.208888"><ele>13.75</ele></trkpt><trkpt lat="-33.860548" lon="151.208870"><ele>13.75</ele></trkpt><trkpt lat="-33.860545" lon="151.208780"><ele>14.5</ele></trkpt><trkpt lat="-33.860544" lon="151.208748"><ele>14.75</ele></trkpt><trkpt lat="-33.860585" lon="151.208745"><ele>14.75</ele></trkpt><trkpt lat="-33.860601" lon="151.208648"><ele>15.5</ele></trkpt><trkpt lat="-33.860639" lon="151.208640"><ele>15.5</ele></trkpt><trkpt lat="-33.860628" lon="151.208565"><ele>16.0</ele></trkpt><trkpt lat="-33.860625" lon="151.208542"><ele>16.25</ele></trkpt><trkpt lat="-33.860612" lon="151.208443"><ele>17.25</ele></trkpt><trkpt lat="-33.860585" lon="151.208448"><ele>17.25</ele></trkpt><trkpt lat="-33.860550" lon="151.208194"><ele>19.75</ele></trkpt><trkpt lat="-33.860563" lon="151.208144"><ele>20.25</ele></trkpt><trkpt lat="-33.860548" lon="151.208023"><ele>21.5</ele></trkpt><trkpt lat="-33.860515" lon="151.207993"><ele>21.75</ele></trkpt><trkpt lat="-33.860518" lon="151.207970"><ele>22.0</ele></trkpt><trkpt lat="-33.860590" lon="151.207955"><ele>22.0</ele></trkpt><trkpt lat="-33.860585" lon="151.207919"><ele>22.5</ele></trkpt><trkpt lat="-33.860540" lon="151.207928"><ele>22.5</ele></trkpt><trkpt lat="-33.860536" lon="151.207899"><ele>22.75</ele></trkpt><trkpt lat="-33.860528" lon="151.207869"><ele>23.0</ele></trkpt><trkpt lat="-33.860560" lon="151.207852"><ele>23.25</ele></trkpt><trkpt lat="-33.860548" lon="151.207796"><ele>23.75</ele></trkpt><trkpt lat="-33.860499" lon="151.207816"><ele>23.75</ele></trkpt><trkpt lat="-33.860493" lon="151.207799"><ele>24.0</ele></trkpt><trkpt lat="-33.860477" lon="151.207756"><ele>24.5</ele></trkpt><trkpt lat="-33.860470" lon="151.207735"><ele>24.75</ele></trkpt><trkpt lat="-33.860462" lon="151.207705"><ele>25.0</ele></trkpt><trkpt lat="-33.860454" lon="151.207675"><ele>25.25</ele></trkpt><trkpt lat="-33.860432" lon="151.207562"><ele>26.75</ele></trkpt><trkpt lat="-33.860428" lon="151.207527"><ele>27.0</ele></trkpt><trkpt lat="-33.860402" lon="151.207342"><ele>29.0</ele></trkpt><trkpt lat="-33.860197" lon="151.207351"><ele>29.5</ele></trkpt><trkpt lat="-33.859971" lon="151.207334"><ele>30.0</ele></trkpt><trkpt lat="-33.859953" lon="151.207338"><ele>30.0</ele></trkpt><trkpt lat="-33.859754" lon="151.207320"><ele>30.0</ele></trkpt><trkpt lat="-33.859620" lon="151.207247"><ele>30.75</ele></trkpt><trkpt lat="-33.859393" lon="151.207128"><ele>32.25</ele></trkpt><trkpt lat="-33.859328" lon="151.207052"><ele>33.5</ele></trkpt><trkpt lat="-33.859240" lon="151.207089"><ele>33.25</ele></trkpt><trkpt lat="-33.859236" lon="151.207076"><ele>33.25</ele></trkpt><trkpt lat="-33.859220" lon="151.207022"><ele>34.25</ele></trkpt><trkpt lat="-33.859205" lon="151.206973"><ele>35.0</ele></trkpt><trkpt lat="-33.859199" lon="151.206949"><ele>35.25</ele></trkpt><trkpt lat="-33.859118" lon="151.206980"><ele>35.0</ele></trkpt><trkpt lat="-33.859079" lon="151.206996"><ele>34.5</ele></trkpt><trkpt lat="-33.859001" lon="151.207038"><ele>34.0</ele></trkpt><trkpt lat="-33.858836" lon="151.207103"><ele>33.25</ele></trkpt><trkpt lat="-33.858758" lon="151.207137"><ele>33.0</ele></trkpt><trkpt lat="-33.858744" lon="151.207037"><ele>33.75</ele></trkpt><trkpt lat="-33.858717" lon="151.206976"><ele>33.75</ele></trkpt><trkpt lat="-33.858686" lon="151.206903"><ele>33.75</ele></trkpt><trkpt lat="-33.858263" lon="151.207175"><ele>33.75</ele></trkpt><trkpt lat="-33.855205" lon="151.209079"><ele>33.75</ele></trkpt><trkpt lat="-33.858263" lon="151.207175"><ele>33.75</ele></trkpt><trkpt lat="-33.858686" lon="151.206903"><ele>33.75</ele></trkpt><trkpt lat="-33.858717" lon="151.206976"><ele>33.75</ele></trkpt><trkpt lat="-33.858744" lon="151.207037"><ele>33.75</ele></trkpt><trkpt lat="-33.858758" lon="151.207137"><ele>33.0</ele></trkpt><trkpt lat="-33.858100" lon="151.207408"><ele>34.0</ele></trkpt><trkpt lat="-33.857675" lon="151.207616"><ele>33.25</ele></trkpt><trkpt lat="-33.857039" lon="151.207977"><ele>26.25</ele></trkpt><trkpt lat="-33.857015" lon="151.207980"><ele>26.0</ele></trkpt><trkpt lat="-33.856979" lon="151.207963"><ele>26.0</ele></trkpt><trkpt lat="-33.856925" lon="151.207915"><ele>26.0</ele></trkpt><trkpt lat="-33.856807" lon="151.207729"><ele>27.0</ele></trkpt><trkpt lat="-33.856732" lon="151.207589"><ele>27.75</ele></trkpt><trkpt lat="-33.856629" lon="151.207336"><ele>25.25</ele></trkpt><trkpt lat="-33.856626" lon="151.207308"><ele>24.75</ele></trkpt><trkpt lat="-33.856641" lon="151.207245"><ele>24.25</ele></trkpt><trkpt lat="-33.856678" lon="151.207200"><ele>24.0</ele></trkpt><trkpt lat="-33.856669" lon="151.207186"><ele>23.75</ele></trkpt><trkpt lat="-33.856640" lon="151.207144"><ele>22.75</ele></trkpt><trkpt lat="-33.856605" lon="151.207096"><ele>21.75</ele></trkpt><trkpt lat="-33.856594" lon="151.207081"><ele>21.5</ele></trkpt><trkpt lat="-33.856669" lon="151.207000"><ele>21.25</ele></trkpt><trkpt lat="-33.856594" lon="151.206896"><ele>19.0</ele></trkpt><trkpt lat="-33.856565" lon="151.206858"><ele>18.25</ele></trkpt><trkpt lat="-33.856551" lon="151.206843"><ele>17.75</ele></trkpt><trkpt lat="-33.856538" lon="151.206828"><ele>17.5</ele></trkpt><trkpt lat="-33.856524" lon="151.206809"><ele>17.0</ele></trkpt><trkpt lat="-33.856516" lon="151.206798"><ele>16.75</ele></trkpt><trkpt lat="-33.856528" lon="151.206783"><ele>16.75</ele></trkpt><trkpt lat="-33.856535" lon="151.206776"><ele>16.75</ele></trkpt><trkpt lat="-33.856543" lon="151.206687"><ele>15.75</ele></trkpt><trkpt lat="-33.856517" lon="151.206685"><ele>15.25</ele></trkpt><trkpt lat="-33.856517" lon="151.206698"><ele>15.5</ele></trkpt><trkpt lat="-33.856509" lon="151.206764"><ele>16.25</ele></trkpt><trkpt lat="-33.856494" lon="151.206761"><ele>16.0</ele></trkpt><trkpt lat="-33.856502" lon="151.206703"><ele>15.5</ele></trkpt><trkpt lat="-33.856440" lon="151.206693"><ele>14.5</ele></trkpt><trkpt lat="-33.856325" lon="151.206787"><ele>14.25</ele></trkpt><trkpt lat="-33.856136" lon="151.207032"><ele>15.25</ele></trkpt><trkpt lat="-33.856093" lon="151.207066"><ele>15.25</ele></trkpt><trkpt lat="-33.856046" lon="151.207078"><ele>14.75</ele></trkpt><trkpt lat="-33.856003" lon="151.207073"><ele>14.25</ele></trkpt><trkpt lat="-33.855959" lon="151.207045"><ele>13.5</ele></trkpt><trkpt lat="-33.855986" lon="151.207007"><ele>13.25</ele></trkpt><trkpt lat="-33.855654" lon="151.206934"><ele>10.75</ele></trkpt><trkpt lat="-33.855514" lon="151.206844"><ele>10.25</ele></trkpt><trkpt lat="-33.855494" lon="151.206834"><ele>10.25</ele></trkpt><trkpt lat="-33.855585" lon="151.206719"><ele>8.75</ele></trkpt><trkpt lat="-33.855605" lon="151.206694"><ele>8.5</ele></trkpt><trkpt lat="-33.855644" lon="151.206644"><ele>8.0</ele></trkpt><trkpt lat="-33.855685" lon="151.206594"><ele>7.5</ele></trkpt><trkpt lat="-33.855890" lon="151.206322"><ele>7.0</ele></trkpt><trkpt lat="-33.855801" lon="151.206282"><ele>6.5</ele></trkpt><trkpt lat="-33.855818" lon="151.206222"><ele>6.25</ele></trkpt><trkpt lat="-33.855823" lon="151.206204"><ele>6.25</ele></trkpt><trkpt lat="-33.855892" lon="151.205963"><ele>6.25</ele></trkpt><trkpt lat="-33.855912" lon="151.205894"><ele>6.25</ele></trkpt><trkpt lat="-33.855104" lon="151.205557"><ele>6.25</ele></trkpt><trkpt lat="-33.855912" lon="151.205894"><ele>6.25</ele></trkpt><trkpt lat="-33.856119" lon="151.205980"><ele>7.25</ele></trkpt><trkpt lat="-33.856142" lon="151.205953"><ele>7.25</ele></trkpt><trkpt lat="-33.856255" lon="151.205816"><ele>6.75</ele></trkpt><trkpt lat="-33.856291" lon="151.205773"><ele>7.0</ele></trkpt><trkpt lat="-33.856426" lon="151.205567"><ele>6.75</ele></trkpt><trkpt lat="-33.856485" lon="151.205450"><ele>6.75</ele></trkpt><trkpt lat="-33.856528" lon="151.205366"><ele>6.5</ele></trkpt><trkpt lat="-33.856571" lon="151.205260"><ele>6.5</ele></trkpt><trkpt lat="-33.856605" lon="151.205164"><ele>6.25</ele></trkpt><trkpt lat="-33.856638" lon="151.205024"><ele>6.0</ele></trkpt><trkpt lat="-33.856646" lon="151.204987"><ele>6.0</ele></trkpt><trkpt lat="-33.856670" lon="151.204666"><ele>9.0</ele></trkpt><trkpt lat="-33.856674" lon="151.204417"><ele>11.5</ele></trkpt><trkpt lat="-33.856675" lon="151.204173"><ele>13.75</ele></trkpt><trkpt lat="-33.856680" lon="151.204039"><ele>12.75</ele></trkpt><trkpt lat="-33.856713" lon="151.204044"><ele>13.0</ele></trkpt><trkpt lat="-33.856825" lon="151.204059"><ele>13.75</ele></trkpt><trkpt lat="-33.856884" lon="151.204067"><ele>14.0</ele></trkpt><trkpt lat="-33.856904" lon="151.204069"><ele>14.0</ele></trkpt><trkpt lat="-33.856905" lon="151.203990"><ele>13.5</ele></trkpt><trkpt lat="-33.856905" lon="151.203974"><ele>13.5</ele></trkpt><trkpt lat="-33.856826" lon="151.203727"><ele>11.25</ele></trkpt><trkpt lat="-33.856919" lon="151.203622"><ele>11.5</ele></trkpt><trkpt lat="-33.856962" lon="151.203533"><ele>11.25</ele></trkpt><trkpt lat="-33.857001" lon="151.203455"><ele>11.25</ele></trkpt><trkpt lat="-33.857003" lon="151.203435"><ele>11.0</ele></trkpt><trkpt lat="-33.857034" lon="151.203420"><ele>11.25</ele></trkpt><trkpt lat="-33.857047" lon="151.203397"><ele>11.25</ele></trkpt><trkpt lat="-33.857110" lon="151.203259"><ele>11.75</ele></trkpt><trkpt lat="-33.857097" lon="151.203247"><ele>11.5</ele></trkpt><trkpt lat="-33.857083" lon="151.203235"><ele>11.5</ele></trkpt><trkpt lat="-33.857057" lon="151.203194"><ele>11.0</ele></trkpt><trkpt lat="-33.856954" lon="151.203025"><ele>9.75</ele></trkpt><trkpt lat="-33.856969" lon="151.203011"><ele>10.0</ele></trkpt><trkpt lat="-33.856949" lon="151.202970"><ele>9.75</ele></trkpt><trkpt lat="-33.856949" lon="151.202932"><ele>9.75</ele></trkpt><trkpt lat="-33.856973" lon="151.202888"><ele>10.0</ele></trkpt><trkpt lat="-33.857013" lon="151.202843"><ele>10.5</ele></trkpt><trkpt lat="-33.856997" lon="151.202822"><ele>10.25</ele></trkpt><trkpt lat="-33.857090" lon="151.202743"><ele>11.5</ele></trkpt><trkpt lat="-33.857106" lon="151.202731"><ele>11.75</ele></trkpt><trkpt lat="-33.857143" lon="151.202723"><ele>12.25</ele></trkpt><trkpt lat="-33.857154" lon="151.202702"><ele>12.25</ele></trkpt><trkpt lat="-33.857158" lon="151.202689"><ele>12.25</ele></trkpt><trkpt lat="-33.857161" lon="151.202680"><ele>12.25</ele></trkpt><trkpt lat="-33.857412" lon="151.202781"><ele>15.5</ele></trkpt><trkpt lat="-33.857430" lon="151.202753"><ele>15.75</ele></trkpt><trkpt lat="-33.857457" lon="151.202732"><ele>16.0</ele></trkpt><trkpt lat="-33.857509" lon="151.202693"><ele>16.75</ele></trkpt><trkpt lat="-33.857461" lon="151.202597"><ele>16.25</ele></trkpt><trkpt lat="-33.857671" lon="151.202498"><ele>17.0</ele></trkpt><trkpt lat="-33.857784" lon="151.202442"><ele>16.5</ele></trkpt><trkpt lat="-33.857849" lon="151.202433"><ele>16.5</ele></trkpt><trkpt lat="-33.857839" lon="151.202339"><ele>15.5</ele></trkpt><trkpt lat="-33.857875" lon="151.202342"><ele>15.5</ele></trkpt><trkpt lat="-33.857887" lon="151.202345"><ele>15.5</ele></trkpt><trkpt lat="-33.857879" lon="151.202297"><ele>15.0</ele></trkpt><trkpt lat="-33.857879" lon="151.202249"><ele>14.25</ele></trkpt><trkpt lat="-33.857969" lon="151.201910"><ele>10.25</ele></trkpt><trkpt lat="-33.857969" lon="151.201865"><ele>9.75</ele></trkpt><trkpt lat="-33.857935" lon="151.201797"><ele>9.0</ele></trkpt><trkpt lat="-33.857929" lon="151.201574"><ele>7.0</ele></trkpt><trkpt lat="-33.857965" lon="151.201557"><ele>7.0</ele></trkpt><trkpt lat="-33.858046" lon="151.201539"><ele>6.75</ele></trkpt><trkpt lat="-33.858099" lon="151.201539"><ele>6.75</ele></trkpt><trkpt lat="-33.858283" lon="151.201533"><ele>6.5</ele></trkpt><trkpt lat="-33.858283" lon="151.201520"><ele>6.5</ele></trkpt><trkpt lat="-33.858288" lon="151.201519"><ele>6.5</ele></trkpt><trkpt lat="-33.858287" lon="151.201466"><ele>6.5</ele></trkpt><trkpt lat="-33.858324" lon="151.201464"><ele>6.5</ele></trkpt><trkpt lat="-33.858330" lon="151.201408"><ele>6.25</ele></trkpt><trkpt lat="-33.858377" lon="151.201334"><ele>6.0</ele></trkpt><trkpt lat="-33.858431" lon="151.201287"><ele>5.5</ele></trkpt><trkpt lat="-33.858465" lon="151.201243"><ele>5.25</ele></trkpt><trkpt lat="-33.858482" lon="151.201188"><ele>5.0</ele></trkpt><trkpt lat="-33.858482" lon="151.201165"><ele>5.0</ele></trkpt><trkpt lon="151.201188" lat="-33.858482"><ele>5.0</ele></trkpt>
   <trkpt lon="151.201243" lat="-33.858465"><ele>5.25</ele></trkpt>
   <trkpt lon="151.201287" lat="-33.858431"><ele>5.5</ele></trkpt>
   <trkpt lon="151.201334" lat="-33.858377"><ele>6.0</ele></trkpt>
   <trkpt lon="151.201408" lat="-33.858330"><ele>6.25</ele></trkpt>
   <trkpt lon="151.201464" lat="-33.858324"><ele>6.5</ele></trkpt>
   <trkpt lon="151.201519" lat="-33.858326"><ele>6.5</ele></trkpt>
   <trkpt lon="151.201518" lat="-33.858355"><ele>6.5</ele></trkpt>
   <trkpt lon="151.201531" lat="-33.858355"><ele>6.5</ele></trkpt>
   <trkpt lon="151.201526" lat="-33.858576"><ele>5.5</ele></trkpt>
   <trkpt lon="151.201636" lat="-33.858541"><ele>5.75</ele></trkpt>
   <trkpt lon="151.201697" lat="-33.858530"><ele>6.25</ele></trkpt>
   <trkpt lon="151.201777" lat="-33.858527"><ele>7.25</ele></trkpt>
   <trkpt lon="151.201775" lat="-33.858579"><ele>7.0</ele></trkpt>
   <trkpt lon="151.201823" lat="-33.858588"><ele>7.25</ele></trkpt>
   <trkpt lon="151.201884" lat="-33.858609"><ele>8.0</ele></trkpt>
   <trkpt lon="151.201937" lat="-33.858635"><ele>8.25</ele></trkpt>
   <trkpt lon="151.201992" lat="-33.858699"><ele>8.5</ele></trkpt>
   <trkpt lon="151.202028" lat="-33.858755"><ele>8.25</ele></trkpt>
   <trkpt lon="151.202102" lat="-33.858816"><ele>8.5</ele></trkpt>
   <trkpt lon="151.202134" lat="-33.858853"><ele>8.5</ele></trkpt>
   <trkpt lon="151.202151" lat="-33.858877"><ele>8.5</ele></trkpt>
   <trkpt lon="151.202160" lat="-33.858909"><ele>8.25</ele></trkpt>
   <trkpt lon="151.202157" lat="-33.858992"><ele>7.5</ele></trkpt>
   <trkpt lon="151.202118" lat="-33.859066"><ele>6.5</ele></trkpt>
   <trkpt lon="151.202088" lat="-33.859093"><ele>6.0</ele></trkpt>
   <trkpt lon="151.202045" lat="-33.859114"><ele>5.5</ele></trkpt>
   <trkpt lon="151.202004" lat="-33.859143"><ele>5.0</ele></trkpt>
   <trkpt lon="151.201982" lat="-33.859169"><ele>4.75</ele></trkpt>
   <trkpt lon="151.201959" lat="-33.859227"><ele>4.75</ele></trkpt>
   <trkpt lon="151.201945" lat="-33.859319"><ele>4.5</ele></trkpt>
   <trkpt lon="151.201909" lat="-33.859376"><ele>4.5</ele></trkpt>
   <trkpt lon="151.201845" lat="-33.859430"><ele>4.25</ele></trkpt>
   <trkpt lon="151.201820" lat="-33.859442"><ele>4.0</ele></trkpt>
   <trkpt lon="151.201575" lat="-33.859496"><ele>3.0</ele></trkpt>
   <trkpt lon="151.201489" lat="-33.859512"><ele>3.0</ele></trkpt>
   <trkpt lon="151.200919" lat="-33.859620"><ele>2.0</ele></trkpt>
   <trkpt lon="151.200836" lat="-33.859636"><ele>2.0</ele></trkpt>
   <trkpt lon="151.200695" lat="-33.859681"><ele>1.25</ele></trkpt>
   <trkpt lon="151.200607" lat="-33.859744"><ele>1.0</ele></trkpt>
   <trkpt lon="151.200533" lat="-33.859824"><ele>1.0</ele></trkpt>
   <trkpt lon="151.200487" lat="-33.859924"><ele>1.0</ele></trkpt>
   <trkpt lon="151.200466" lat="-33.860032"><ele>1.25</ele></trkpt>
   <trkpt lon="151.200468" lat="-33.860132"><ele>1.75</ele></trkpt>
   <trkpt lon="151.200487" lat="-33.860314"><ele>3.0</ele></trkpt>
   <trkpt lon="151.200512" lat="-33.860549"><ele>2.75</ele></trkpt>
   <trkpt lon="151.200602" lat="-33.861402"><ele>2.0</ele></trkpt>
   <trkpt lon="151.200627" lat="-33.861648"><ele>1.75</ele></trkpt>
   <trkpt lon="151.200638" lat="-33.861713"><ele>1.75</ele></trkpt>
   <trkpt lon="151.200674" lat="-33.862091"><ele>1.5</ele></trkpt>
   <trkpt lon="151.200733" lat="-33.862586"><ele>1.0</ele></trkpt>
   <trkpt lon="151.200763" lat="-33.862921"><ele>0.75</ele></trkpt>
   <trkpt lon="151.200950" lat="-33.862997"><ele>0.5</ele></trkpt>
   <trkpt lon="151.201008" lat="-33.862989"><ele>0.75</ele></trkpt>
   <trkpt lon="151.201063" lat="-33.863009"><ele>1.0</ele></trkpt>
   <trkpt lon="151.201129" lat="-33.863045"><ele>1.25</ele></trkpt>
   <trkpt lon="151.201196" lat="-33.863109"><ele>1.5</ele></trkpt>
   <trkpt lon="151.201256" lat="-33.863212"><ele>2.0</ele></trkpt>
   <trkpt lon="151.201274" lat="-33.863268"><ele>2.0</ele></trkpt>
   <trkpt lon="151.201289" lat="-33.863405"><ele>2.25</ele></trkpt>
   <trkpt lon="151.201292" lat="-33.863468"><ele>2.25</ele></trkpt>
   <trkpt lon="151.201278" lat="-33.863543"><ele>2.25</ele></trkpt>
   <trkpt lon="151.201245" lat="-33.863622"><ele>2.25</ele></trkpt>
   <trkpt lon="151.201195" lat="-33.863702"><ele>2.0</ele></trkpt>
   <trkpt lon="151.201132" lat="-33.863782"><ele>1.75</ele></trkpt>
   <trkpt lon="151.201083" lat="-33.863807"><ele>1.5</ele></trkpt>
   <trkpt lon="151.201028" lat="-33.863815"><ele>1.5</ele></trkpt>
   <trkpt lon="151.201118" lat="-33.864632"><ele>2.5</ele></trkpt>
   <trkpt lon="151.201180" lat="-33.865207"><ele>3.25</ele></trkpt>
   <trkpt lon="151.201218" lat="-33.865519"><ele>3.75</ele></trkpt>
   <trkpt lon="151.201248" lat="-33.865800"><ele>4.0</ele></trkpt>
   <trkpt lon="151.201255" lat="-33.865863"><ele>4.25</ele></trkpt>
   <trkpt lon="151.201229" lat="-33.865865"><ele>4.25</ele></trkpt>
   <trkpt lon="151.201252" lat="-33.866089"><ele>4.5</ele></trkpt>
   <trkpt lon="151.201288" lat="-33.866432"><ele>5.0</ele></trkpt>
   <trkpt lon="151.201327" lat="-33.866807"><ele>5.5</ele></trkpt>
   <trkpt lon="151.201355" lat="-33.867076"><ele>5.75</ele></trkpt>
   <trkpt lon="151.201392" lat="-33.867387"><ele>6.25</ele></trkpt>
   <trkpt lon="151.201404" lat="-33.867507"><ele>6.25</ele></trkpt>
   <trkpt lon="151.201456" lat="-33.868039"><ele>6.5</ele></trkpt>
   <trkpt lon="151.201509" lat="-33.868483"><ele>6.5</ele></trkpt>
   <trkpt lon="151.201533" lat="-33.868694"><ele>4.75</ele></trkpt>
   <trkpt lon="151.201547" lat="-33.868867"><ele>3.5</ele></trkpt>
   <trkpt lon="151.201565" lat="-33.869020"><ele>2.25</ele></trkpt>
   <trkpt lon="151.201568" lat="-33.869066"><ele>1.75</ele></trkpt>
   <trkpt lon="151.201321" lat="-33.869642"><ele>2.75</ele></trkpt>
   <trkpt lon="151.201278" lat="-33.869743"><ele>3.0</ele></trkpt>
   <trkpt lon="151.201363" lat="-33.869894"><ele>3.5</ele></trkpt>
   <trkpt lon="151.202422" lat="-33.870235"><ele>7.25</ele></trkpt>
   <trkpt lon="151.202466" lat="-33.870308"><ele>8.0</ele></trkpt>
   <trkpt lon="151.202492" lat="-33.870381"><ele>9.0</ele></trkpt>
   <trkpt lon="151.202417" lat="-33.870776"><ele>13.0</ele></trkpt>
   <trkpt lon="151.202516" lat="-33.870792"><ele>13.75</ele></trkpt>
   <trkpt lon="151.202505" lat="-33.870837"><ele>14.0</ele></trkpt>
   <trkpt lon="151.202306" lat="-33.870803"><ele>13.25</ele></trkpt>
   <trkpt lon="151.202301" lat="-33.870802"><ele>13.0</ele></trkpt>
   <trkpt lon="151.202287" lat="-33.870859"><ele>12.75</ele></trkpt>
   <trkpt lon="151.202286" lat="-33.870865"><ele>12.75</ele></trkpt>
   <trkpt lon="151.202019" lat="-33.870819"><ele>12.75</ele></trkpt>
   <trkpt lon="151.201519" lat="-33.870734"><ele>12.5</ele></trkpt>
   <trkpt lon="151.201114" lat="-33.870665"><ele>12.25</ele></trkpt>
   <trkpt lon="151.200500" lat="-33.870560"><ele>12.0</ele></trkpt>
   <trkpt lon="151.200337" lat="-33.870532"><ele>12.0</ele></trkpt>
   <trkpt lon="151.199647" lat="-33.870415"><ele>11.5</ele></trkpt>
   <trkpt lon="151.198658" lat="-33.870246"><ele>11.25</ele></trkpt>
   <trkpt lon="151.198467" lat="-33.870204"><ele>11.25</ele></trkpt>
   <trkpt lon="151.198374" lat="-33.870173"><ele>11.75</ele></trkpt>
   <trkpt lon="151.198271" lat="-33.870136"><ele>12.25</ele></trkpt>
   <trkpt lon="151.198133" lat="-33.870070"><ele>12.75</ele></trkpt>
   <trkpt lon="151.198000" lat="-33.869984"><ele>12.75</ele></trkpt>
   <trkpt lon="151.198004" lat="-33.869919"><ele>12.5</ele></trkpt>
   <trkpt lon="151.198008" lat="-33.869856"><ele>12.25</ele></trkpt>
   <trkpt lon="151.198028" lat="-33.869653"><ele>11.5</ele></trkpt>
   <trkpt lon="151.198015" lat="-33.869041"><ele>9.5</ele></trkpt>
   <trkpt lon="151.197995" lat="-33.868743"><ele>8.0</ele></trkpt>
   <trkpt lon="151.197929" lat="-33.868649"><ele>7.5</ele></trkpt>
   <trkpt lon="151.197936" lat="-33.868540"><ele>7.0</ele></trkpt>
   <trkpt lon="151.197922" lat="-33.868109"><ele>5.25</ele></trkpt>
   <trkpt lon="151.197580" lat="-33.868012"><ele>4.75</ele></trkpt>
   <trkpt lon="151.197240" lat="-33.867922"><ele>4.5</ele></trkpt>
   <trkpt lon="151.197232" lat="-33.867919"><ele>4.5</ele></trkpt>
   <trkpt lon="151.196109" lat="-33.867619"><ele>9.25</ele></trkpt>
   <trkpt lon="151.195937" lat="-33.867474"><ele>9.75</ele></trkpt>
   <trkpt lon="151.195435" lat="-33.866614"><ele>11.5</ele></trkpt>
   <trkpt lon="151.195267" lat="-33.866389"><ele>10.75</ele></trkpt>
   <trkpt lon="151.195086" lat="-33.866291"><ele>10.25</ele></trkpt>
   <trkpt lon="151.195051" lat="-33.866348"><ele>10.75</ele></trkpt>
   <trkpt lon="151.195028" lat="-33.866338"><ele>10.75</ele></trkpt>
   <trkpt lon="151.194977" lat="-33.866333"><ele>10.75</ele></trkpt>
   <trkpt lon="151.194905" lat="-33.866316"><ele>11.0</ele></trkpt>
   <trkpt lon="151.194772" lat="-33.866268"><ele>11.0</ele></trkpt>
   <trkpt lon="151.194596" lat="-33.866163"><ele>11.25</ele></trkpt>
   <trkpt lon="151.194489" lat="-33.866072"><ele>11.25</ele></trkpt>
   <trkpt lon="151.194428" lat="-33.866011"><ele>11.0</ele></trkpt>
   <trkpt lon="151.194288" lat="-33.865829"><ele>11.0</ele></trkpt>
   <trkpt lon="151.193976" lat="-33.865265"><ele>12.0</ele></trkpt>
   <trkpt lon="151.193509" lat="-33.864438"><ele>9.25</ele></trkpt>
   <trkpt lon="151.193434" lat="-33.864469"><ele>10.5</ele></trkpt>
   <trkpt lon="151.193098" lat="-33.863854"><ele>4.5</ele></trkpt>
   <trkpt lon="151.193047" lat="-33.863789"><ele>4.25</ele></trkpt>
   <trkpt lon="151.192984" lat="-33.863737"><ele>4.25</ele></trkpt>
   <trkpt lon="151.192906" lat="-33.863699"><ele>4.25</ele></trkpt>
   <trkpt lon="151.192832" lat="-33.863677"><ele>4.5</ele></trkpt>
   <trkpt lon="151.192750" lat="-33.863674"><ele>5.0</ele></trkpt>
   <trkpt lon="151.192660" lat="-33.863682"><ele>5.5</ele></trkpt>
   <trkpt lon="151.192592" lat="-33.863700"><ele>6.0</ele></trkpt>
   <trkpt lon="151.192502" lat="-33.863735"><ele>5.75</ele></trkpt>
   <trkpt lon="151.192168" lat="-33.863905"><ele>5.75</ele></trkpt>
   <trkpt lon="151.192117" lat="-33.863944"><ele>5.75</ele></trkpt>
   <trkpt lon="151.192073" lat="-33.863994"><ele>5.75</ele></trkpt>
   <trkpt lon="151.192034" lat="-33.864052"><ele>5.75</ele></trkpt>
   <trkpt lon="151.191976" lat="-33.864033"><ele>5.75</ele></trkpt>
   <trkpt lon="151.191917" lat="-33.864008"><ele>5.75</ele></trkpt>
   <trkpt lon="151.191843" lat="-33.863899"><ele>5.75</ele></trkpt>
   <trkpt lon="151.191780" lat="-33.863929"><ele>5.75</ele></trkpt>
   <trkpt lon="151.191594" lat="-33.864019"><ele>5.75</ele></trkpt>
   <trkpt lon="151.191581" lat="-33.864053"><ele>5.75</ele></trkpt>
   <trkpt lon="151.191529" lat="-33.864139"><ele>5.75</ele></trkpt>
   <trkpt lon="151.191517" lat="-33.864181"><ele>5.5</ele></trkpt>
   <trkpt lon="151.191471" lat="-33.864241"><ele>5.75</ele></trkpt>
   <trkpt lon="151.191486" lat="-33.864277"><ele>10.75</ele></trkpt>
   <trkpt lon="151.191927" lat="-33.865327"><ele>10.75</ele></trkpt>
   <trkpt lon="151.191905" lat="-33.865342"><ele>10.75</ele></trkpt>
   <trkpt lon="151.191733" lat="-33.865451"><ele>9.75</ele></trkpt>
   <trkpt lon="151.191596" lat="-33.865493"><ele>9.5</ele></trkpt>
   <trkpt lon="151.191857" lat="-33.865941"><ele>17.25</ele></trkpt>
   <trkpt lon="151.191897" lat="-33.866001"><ele>17.75</ele></trkpt>
   <trkpt lon="151.191830" lat="-33.866053"><ele>17.25</ele></trkpt>
   <trkpt lon="151.191855" lat="-33.866113"><ele>17.5</ele></trkpt>
   <trkpt lon="151.192062" lat="-33.866484"><ele>19.75</ele></trkpt>
   <trkpt lon="151.192107" lat="-33.866560"><ele>20.0</ele></trkpt>
   <trkpt lon="151.192326" lat="-33.866930"><ele>21.5</ele></trkpt>
   <trkpt lon="151.192361" lat="-33.866983"><ele>21.75</ele></trkpt>
   <trkpt lon="151.192405" lat="-33.867058"><ele>21.75</ele></trkpt>
   <trkpt lon="151.192332" lat="-33.867088"><ele>22.0</ele></trkpt>
   <trkpt lon="151.192432" lat="-33.867252"><ele>22.0</ele></trkpt>
   <trkpt lon="151.192593" lat="-33.867519"><ele>21.75</ele></trkpt>
   <trkpt lon="151.192587" lat="-33.867549"><ele>22.0</ele></trkpt>
   <trkpt lon="151.192615" lat="-33.867596"><ele>22.25</ele></trkpt>
   <trkpt lon="151.191887" lat="-33.867899"><ele>26.5</ele></trkpt>
   <trkpt lon="151.192033" lat="-33.868144"><ele>27.0</ele></trkpt>
   <trkpt lon="151.192411" lat="-33.868776"><ele>26.75</ele></trkpt>
   <trkpt lon="151.192494" lat="-33.868896"><ele>26.75</ele></trkpt>
   <trkpt lon="151.192505" lat="-33.868936"><ele>26.75</ele></trkpt>
   <trkpt lon="151.192560" lat="-33.869032"><ele>26.5</ele></trkpt>
   <trkpt lon="151.192604" lat="-33.869111"><ele>26.5</ele></trkpt>
   <trkpt lon="151.192625" lat="-33.869139"><ele>26.25</ele></trkpt>
   <trkpt lon="151.192647" lat="-33.869151"><ele>26.25</ele></trkpt>
   <trkpt lon="151.192747" lat="-33.869333"><ele>25.5</ele></trkpt>
   <trkpt lon="151.192782" lat="-33.869394"><ele>25.25</ele></trkpt>
   <trkpt lon="151.192815" lat="-33.869381"><ele>25.0</ele></trkpt>
   <trkpt lon="151.192858" lat="-33.869456"><ele>24.75</ele></trkpt>
   <trkpt lon="151.192800" lat="-33.869476"><ele>25.0</ele></trkpt>
   <trkpt lon="151.193100" lat="-33.869988"><ele>22.25</ele></trkpt>
   <trkpt lat="-33.869476" lon="151.192800"><ele>25.0</ele></trkpt><trkpt lat="-33.869456" lon="151.192858"><ele>24.75</ele></trkpt><trkpt lat="-33.869381" lon="151.192815"><ele>25.0</ele></trkpt><trkpt lat="-33.869394" lon="151.192782"><ele>25.25</ele></trkpt><trkpt lat="-33.869333" lon="151.192747"><ele>25.5</ele></trkpt><trkpt lat="-33.869151" lon="151.192647"><ele>26.25</ele></trkpt><trkpt lat="-33.869139" lon="151.192625"><ele>26.25</ele></trkpt><trkpt lat="-33.869111" lon="151.192604"><ele>26.5</ele></trkpt><trkpt lat="-33.869032" lon="151.192560"><ele>26.5</ele></trkpt><trkpt lat="-33.868936" lon="151.192505"><ele>26.75</ele></trkpt><trkpt lat="-33.868896" lon="151.192494"><ele>26.75</ele></trkpt><trkpt lat="-33.868776" lon="151.192411"><ele>26.75</ele></trkpt><trkpt lat="-33.868144" lon="151.192033"><ele>27.0</ele></trkpt><trkpt lat="-33.867899" lon="151.191887"><ele>26.5</ele></trkpt><trkpt lat="-33.867596" lon="151.192615"><ele>22.25</ele></trkpt><trkpt lat="-33.867549" lon="151.192587"><ele>22.0</ele></trkpt><trkpt lat="-33.867519" lon="151.192593"><ele>21.75</ele></trkpt><trkpt lat="-33.867252" lon="151.192432"><ele>22.0</ele></trkpt><trkpt lat="-33.867088" lon="151.192332"><ele>22.0</ele></trkpt><trkpt lat="-33.867058" lon="151.192405"><ele>21.75</ele></trkpt><trkpt lat="-33.866983" lon="151.192361"><ele>21.75</ele></trkpt><trkpt lat="-33.866930" lon="151.192326"><ele>21.5</ele></trkpt><trkpt lat="-33.866560" lon="151.192107"><ele>20.0</ele></trkpt><trkpt lat="-33.866484" lon="151.192062"><ele>19.75</ele></trkpt><trkpt lat="-33.866113" lon="151.191855"><ele>17.5</ele></trkpt><trkpt lat="-33.866053" lon="151.191830"><ele>17.25</ele></trkpt><trkpt lat="-33.866001" lon="151.191897"><ele>17.75</ele></trkpt><trkpt lat="-33.865941" lon="151.191857"><ele>17.25</ele></trkpt><trkpt lat="-33.865493" lon="151.191596"><ele>9.5</ele></trkpt><trkpt lat="-33.865451" lon="151.191733"><ele>9.75</ele></trkpt><trkpt lat="-33.865342" lon="151.191905"><ele>10.75</ele></trkpt><trkpt lat="-33.865327" lon="151.191927"><ele>10.75</ele></trkpt><trkpt lat="-33.864277" lon="151.191486"><ele>10.75</ele></trkpt><trkpt lat="-33.864241" lon="151.191471"><ele>5.75</ele></trkpt><trkpt lat="-33.864181" lon="151.191517"><ele>5.5</ele></trkpt><trkpt lat="-33.864139" lon="151.191529"><ele>5.75</ele></trkpt><trkpt lat="-33.864053" lon="151.191581"><ele>5.75</ele></trkpt><trkpt lat="-33.864019" lon="151.191594"><ele>5.75</ele></trkpt><trkpt lat="-33.863929" lon="151.191780"><ele>5.75</ele></trkpt><trkpt lat="-33.863899" lon="151.191843"><ele>5.75</ele></trkpt><trkpt lat="-33.864008" lon="151.191917"><ele>5.75</ele></trkpt><trkpt lat="-33.864033" lon="151.191976"><ele>5.75</ele></trkpt><trkpt lat="-33.864052" lon="151.192034"><ele>5.75</ele></trkpt><trkpt lat="-33.863994" lon="151.192073"><ele>5.75</ele></trkpt><trkpt lat="-33.863944" lon="151.192117"><ele>5.75</ele></trkpt><trkpt lat="-33.863905" lon="151.192168"><ele>5.75</ele></trkpt><trkpt lat="-33.863735" lon="151.192502"><ele>5.75</ele></trkpt><trkpt lat="-33.863700" lon="151.192592"><ele>6.0</ele></trkpt><trkpt lat="-33.863682" lon="151.192660"><ele>5.5</ele></trkpt><trkpt lat="-33.863674" lon="151.192750"><ele>5.0</ele></trkpt><trkpt lat="-33.863677" lon="151.192832"><ele>4.5</ele></trkpt><trkpt lat="-33.863699" lon="151.192906"><ele>4.25</ele></trkpt><trkpt lat="-33.863737" lon="151.192984"><ele>4.25</ele></trkpt><trkpt lat="-33.863789" lon="151.193047"><ele>4.25</ele></trkpt><trkpt lat="-33.863854" lon="151.193098"><ele>4.5</ele></trkpt><trkpt lat="-33.864469" lon="151.193434"><ele>10.5</ele></trkpt><trkpt lat="-33.864438" lon="151.193509"><ele>9.25</ele></trkpt><trkpt lat="-33.865265" lon="151.193976"><ele>12.0</ele></trkpt><trkpt lat="-33.865829" lon="151.194288"><ele>11.0</ele></trkpt><trkpt lat="-33.866011" lon="151.194428"><ele>11.0</ele></trkpt><trkpt lat="-33.866072" lon="151.194489"><ele>11.25</ele></trkpt><trkpt lat="-33.866163" lon="151.194596"><ele>11.25</ele></trkpt><trkpt lat="-33.866268" lon="151.194772"><ele>11.0</ele></trkpt><trkpt lat="-33.866316" lon="151.194905"><ele>11.0</ele></trkpt><trkpt lat="-33.866333" lon="151.194977"><ele>10.75</ele></trkpt><trkpt lat="-33.866338" lon="151.195028"><ele>10.75</ele></trkpt><trkpt lat="-33.866348" lon="151.195051"><ele>10.75</ele></trkpt><trkpt lat="-33.866291" lon="151.195086"><ele>10.25</ele></trkpt><trkpt lat="-33.866389" lon="151.195267"><ele>10.75</ele></trkpt><trkpt lat="-33.866614" lon="151.195435"><ele>11.5</ele></trkpt><trkpt lat="-33.867474" lon="151.195937"><ele>9.75</ele></trkpt><trkpt lat="-33.867619" lon="151.196109"><ele>9.25</ele></trkpt><trkpt lat="-33.867919" lon="151.197232"><ele>4.5</ele></trkpt><trkpt lat="-33.867922" lon="151.197240"><ele>4.5</ele></trkpt><trkpt lat="-33.868012" lon="151.197580"><ele>4.75</ele></trkpt><trkpt lat="-33.868109" lon="151.197922"><ele>5.25</ele></trkpt><trkpt lat="-33.868540" lon="151.197936"><ele>7.0</ele></trkpt><trkpt lat="-33.868649" lon="151.197929"><ele>7.5</ele></trkpt><trkpt lat="-33.868743" lon="151.197995"><ele>8.0</ele></trkpt><trkpt lat="-33.869041" lon="151.198015"><ele>9.5</ele></trkpt><trkpt lat="-33.869653" lon="151.198028"><ele>11.5</ele></trkpt><trkpt lat="-33.869856" lon="151.198008"><ele>12.25</ele></trkpt><trkpt lat="-33.869919" lon="151.198004"><ele>12.5</ele></trkpt><trkpt lat="-33.869984" lon="151.198000"><ele>12.75</ele></trkpt><trkpt lat="-33.870070" lon="151.198133"><ele>12.75</ele></trkpt><trkpt lat="-33.870136" lon="151.198271"><ele>12.25</ele></trkpt><trkpt lat="-33.870173" lon="151.198374"><ele>11.75</ele></trkpt><trkpt lat="-33.870204" lon="151.198467"><ele>11.25</ele></trkpt><trkpt lat="-33.870246" lon="151.198658"><ele>11.25</ele></trkpt><trkpt lat="-33.870415" lon="151.199647"><ele>11.5</ele></trkpt><trkpt lat="-33.870532" lon="151.200337"><ele>12.0</ele></trkpt><trkpt lat="-33.870560" lon="151.200500"><ele>12.0</ele></trkpt><trkpt lat="-33.870665" lon="151.201114"><ele>12.25</ele></trkpt><trkpt lat="-33.870734" lon="151.201519"><ele>12.5</ele></trkpt><trkpt lat="-33.870819" lon="151.202019"><ele>12.75</ele></trkpt><trkpt lat="-33.870865" lon="151.202286"><ele>12.75</ele></trkpt><trkpt lat="-33.870859" lon="151.202287"><ele>12.75</ele></trkpt><trkpt lat="-33.870802" lon="151.202301"><ele>13.0</ele></trkpt><trkpt lat="-33.870803" lon="151.202306"><ele>13.25</ele></trkpt><trkpt lat="-33.870837" lon="151.202505"><ele>14.0</ele></trkpt><trkpt lat="-33.870792" lon="151.202516"><ele>13.75</ele></trkpt><trkpt lat="-33.870776" lon="151.202417"><ele>13.0</ele></trkpt><trkpt lat="-33.870381" lon="151.202492"><ele>9.0</ele></trkpt><trkpt lat="-33.870308" lon="151.202466"><ele>8.0</ele></trkpt><trkpt lat="-33.870235" lon="151.202422"><ele>7.25</ele></trkpt><trkpt lat="-33.869894" lon="151.201363"><ele>3.5</ele></trkpt><trkpt lat="-33.869743" lon="151.201278"><ele>3.0</ele></trkpt><trkpt lat="-33.869642" lon="151.201321"><ele>2.75</ele></trkpt><trkpt lat="-33.869066" lon="151.201568"><ele>1.75</ele></trkpt><trkpt lat="-33.869020" lon="151.201565"><ele>2.25</ele></trkpt><trkpt lat="-33.868867" lon="151.201547"><ele>3.5</ele></trkpt><trkpt lat="-33.868694" lon="151.201533"><ele>4.75</ele></trkpt><trkpt lat="-33.868483" lon="151.201509"><ele>6.5</ele></trkpt><trkpt lat="-33.868039" lon="151.201456"><ele>6.5</ele></trkpt><trkpt lat="-33.867507" lon="151.201404"><ele>6.25</ele></trkpt><trkpt lat="-33.867387" lon="151.201392"><ele>6.25</ele></trkpt><trkpt lat="-33.867076" lon="151.201355"><ele>5.75</ele></trkpt><trkpt lat="-33.866807" lon="151.201327"><ele>5.5</ele></trkpt><trkpt lat="-33.866432" lon="151.201288"><ele>5.0</ele></trkpt><trkpt lat="-33.866089" lon="151.201252"><ele>4.5</ele></trkpt><trkpt lat="-33.865865" lon="151.201229"><ele>4.25</ele></trkpt><trkpt lat="-33.865863" lon="151.201255"><ele>4.25</ele></trkpt><trkpt lat="-33.865800" lon="151.201248"><ele>4.0</ele></trkpt><trkpt lat="-33.865519" lon="151.201218"><ele>3.75</ele></trkpt><trkpt lat="-33.865207" lon="151.201180"><ele>3.25</ele></trkpt><trkpt lat="-33.864632" lon="151.201118"><ele>2.5</ele></trkpt><trkpt lat="-33.863815" lon="151.201028"><ele>1.5</ele></trkpt><trkpt lat="-33.863807" lon="151.201083"><ele>1.5</ele></trkpt><trkpt lat="-33.863782" lon="151.201132"><ele>1.75</ele></trkpt><trkpt lat="-33.863702" lon="151.201195"><ele>2.0</ele></trkpt><trkpt lat="-33.863622" lon="151.201245"><ele>2.25</ele></trkpt><trkpt lat="-33.863543" lon="151.201278"><ele>2.25</ele></trkpt><trkpt lat="-33.863468" lon="151.201292"><ele>2.25</ele></trkpt><trkpt lat="-33.863405" lon="151.201289"><ele>2.25</ele></trkpt><trkpt lat="-33.863268" lon="151.201274"><ele>2.0</ele></trkpt><trkpt lat="-33.863212" lon="151.201256"><ele>2.0</ele></trkpt><trkpt lat="-33.863109" lon="151.201196"><ele>1.5</ele></trkpt><trkpt lat="-33.863045" lon="151.201129"><ele>1.25</ele></trkpt><trkpt lat="-33.863009" lon="151.201063"><ele>1.0</ele></trkpt><trkpt lat="-33.862989" lon="151.201008"><ele>0.75</ele></trkpt><trkpt lat="-33.862997" lon="151.200950"><ele>0.5</ele></trkpt><trkpt lat="-33.862921" lon="151.200763"><ele>0.75</ele></trkpt><trkpt lat="-33.862586" lon="151.200733"><ele>1.0</ele></trkpt><trkpt lat="-33.862091" lon="151.200674"><ele>1.5</ele></trkpt><trkpt lat="-33.861713" lon="151.200638"><ele>1.75</ele></trkpt><trkpt lat="-33.861648" lon="151.200627"><ele>1.75</ele></trkpt><trkpt lat="-33.861402" lon="151.200602"><ele>2.0</ele></trkpt><trkpt lat="-33.860549" lon="151.200512"><ele>2.75</ele></trkpt><trkpt lat="-33.860314" lon="151.200487"><ele>3.0</ele></trkpt><trkpt lat="-33.860132" lon="151.200468"><ele>1.75</ele></trkpt><trkpt lat="-33.860032" lon="151.200466"><ele>1.25</ele></trkpt><trkpt lat="-33.859924" lon="151.200487"><ele>1.0</ele></trkpt><trkpt lat="-33.859824" lon="151.200533"><ele>1.0</ele></trkpt><trkpt lat="-33.859744" lon="151.200607"><ele>1.0</ele></trkpt><trkpt lat="-33.859681" lon="151.200695"><ele>1.25</ele></trkpt><trkpt lat="-33.859636" lon="151.200836"><ele>2.0</ele></trkpt><trkpt lat="-33.859620" lon="151.200919"><ele>2.0</ele></trkpt><trkpt lat="-33.859512" lon="151.201489"><ele>3.0</ele></trkpt><trkpt lat="-33.859496" lon="151.201575"><ele>3.0</ele></trkpt><trkpt lat="-33.859442" lon="151.201820"><ele>4.0</ele></trkpt><trkpt lat="-33.859430" lon="151.201845"><ele>4.25</ele></trkpt><trkpt lat="-33.859376" lon="151.201909"><ele>4.5</ele></trkpt><trkpt lat="-33.859319" lon="151.201945"><ele>4.5</ele></trkpt><trkpt lat="-33.859227" lon="151.201959"><ele>4.75</ele></trkpt><trkpt lat="-33.859169" lon="151.201982"><ele>4.75</ele></trkpt><trkpt lat="-33.859143" lon="151.202004"><ele>5.0</ele></trkpt><trkpt lat="-33.859114" lon="151.202045"><ele>5.5</ele></trkpt><trkpt lat="-33.859093" lon="151.202088"><ele>6.0</ele></trkpt><trkpt lat="-33.859066" lon="151.202118"><ele>6.5</ele></trkpt><trkpt lat="-33.858992" lon="151.202157"><ele>7.5</ele></trkpt><trkpt lat="-33.858909" lon="151.202160"><ele>8.25</ele></trkpt><trkpt lat="-33.858877" lon="151.202151"><ele>8.5</ele></trkpt><trkpt lat="-33.858853" lon="151.202134"><ele>8.5</ele></trkpt><trkpt lat="-33.858816" lon="151.202102"><ele>8.5</ele></trkpt><trkpt lat="-33.858755" lon="151.202028"><ele>8.25</ele></trkpt><trkpt lat="-33.858699" lon="151.201992"><ele>8.5</ele></trkpt><trkpt lat="-33.858635" lon="151.201937"><ele>8.25</ele></trkpt><trkpt lat="-33.858609" lon="151.201884"><ele>8.0</ele></trkpt><trkpt lat="-33.858588" lon="151.201823"><ele>7.25</ele></trkpt><trkpt lat="-33.858579" lon="151.201775"><ele>7.0</ele></trkpt><trkpt lat="-33.858527" lon="151.201777"><ele>7.25</ele></trkpt><trkpt lat="-33.858530" lon="151.201697"><ele>6.25</ele></trkpt><trkpt lat="-33.858541" lon="151.201636"><ele>5.75</ele></trkpt><trkpt lat="-33.858576" lon="151.201526"><ele>5.5</ele></trkpt><trkpt lat="-33.858355" lon="151.201531"><ele>6.5</ele></trkpt><trkpt lat="-33.858355" lon="151.201518"><ele>6.5</ele></trkpt><trkpt lat="-33.858326" lon="151.201519"><ele>6.5</ele></trkpt><trkpt lat="-33.858324" lon="151.201464"><ele>6.5</ele></trkpt><trkpt lat="-33.858330" lon="151.201408"><ele>6.25</ele></trkpt><trkpt lat="-33.858377" lon="151.201334"><ele>6.0</ele></trkpt><trkpt lat="-33.858431" lon="151.201287"><ele>5.5</ele></trkpt><trkpt lat="-33.858465" lon="151.201243"><ele>5.25</ele></trkpt><trkpt lat="-33.858482" lon="151.201188"><ele>5.0</ele></trkpt><trkpt lat="-33.858482" lon="151.201165"><ele>5.0</ele></trkpt></trkseg></trk></gpx>